name,province,city,district,latitude,longitude,full_address,website,phone
防城区法院,广西壮族自治区,防城港市,防城区,21.771322,108.3539996,,,
易门县人民法院,云南省,玉溪市,易门县,24.6762959,102.1549469,,,
图们市人民法院,吉林省,延边朝鲜族自治州,图们市,42.9618132,129.8446466,,,
金湖县人民法院,江苏省,金湖县,金湖县,33.0087876,119.0139972,,,
泉港区人民法院,福建省,泉港,泉港区,25.1246197,118.9273075,,,
成华区人民法院,四川省,成都市,成华区,30.6808206,104.1181832,,,
柴桑区人民法院,江西省,九江市,柴桑区,29.6148056,115.910551,,,
宁德市蕉城区法院,福建省,宁德市,蕉城区,26.6397453,119.5383134,"蕉城南路56號 352100 寧德市, 福建省, 中國",,+86 593 296 9020
安多县法院,西藏自治区,那曲市,安多县,32.2570167,91.6740509,,,
武夷山市法院,福建省,南平市,武夷山市,27.7538142,118.0255674,,,
遵义市红花岗区人民法院,贵州省,遵义市,红花岗区,27.6614884,106.8963511,,,
遵义市绥阳县法院郑场法庭,贵州省,遵义市,绥阳县,27.8942007,107.2522742,,,
城步苗族自治县人民法院西岩人民法庭,湖南省,邵阳市,城步苗族自治县,26.6199168,110.4747468,,,
江岸区法院,湖北省,武汉市,江岸区,30.633454,114.2853666,,,
义乌市人民法院,浙江省,金华市,义乌市,29.2967561,120.05954,,,
上城区法院自行车租赁点,浙江省,杭州市,上城区,30.21782,120.16932,,,
红谷滩区人民法院生米法庭,江西省,南昌市,红谷滩区,28.5735385,115.7884473,,,
峡江县人民法院,江西省,吉安市,峡江县,27.5911935,115.3154144,,,
崇川区法院,江苏省,南通市,崇川区,32.0008945,120.8804185,工农路e(门北)通启路-虹桥路北135&南川园路南335,http://www.nantongbike.com/,
昌邑市人民法院,山东省,潍坊市,昌邑市,36.8419986,119.4048321,,,
新蔡县人民法院,河南省,驻马店市,新蔡县,32.7668443,114.9499958,,,
连城县法院,福建省,龙岩市,连城县,25.7087349,116.73593,,,
连城县法院,福建省,龙岩市,连城县,25.7090506,116.736153,,,
七里河区法院,甘肃省,兰州市,七里河区,36.0871877,103.7303567,,,
七里河区法院,甘肃省,兰州市,七里河区,36.0873026,103.7306035,,,
安宁区人民法院,甘肃省,兰州市,安宁区,36.09462,103.70204,富强路农大北门西北马路对面,,
城关区法院,西藏自治区,拉萨市,城关区,36.05938,103.88329,雁滩路城关区法院大门西侧,,
新建区人民法院大塘坪人民法庭,江西省,南昌市,新建区,28.9948574,115.9016009,,,
鄱阳县人民法院古县渡人民法庭,江西省,上饶市,鄱阳县,29.0889449,116.8682268,,,
安义县人民法院万埠人民法庭,江西省,南昌市,安义县,28.8561412,115.6549785,,,
安义县人民法院,江西省,南昌市,安义县,28.8449338,115.5415524,,,
安义县人民法院石鼻人民法庭,江西省,南昌市,安义县,28.7304699,115.567853,,,
头屯河区人民法院,新疆维吾尔自治区,乌鲁木齐市,头屯河区,43.8771151,87.4210626,,,
资兴市人民法院,湖南省,资兴市,资兴市,25.9657229,113.2302988,,http://zxsfy.chinacourt.org/,
新建区人民法院恒湖人民法庭,江西省,南昌市,新建区,29.0019932,116.076137,,,
龙泉驿区法院,四川省,成都市,龙泉驿区,30.5700115,104.2637497,,,
陇县法院,陕西省,宝鸡市,陇县,34.8935147,106.8587404,,,
四川省布拖县人民法院,四川省,凉山彝族自治州,布拖县,27.7133503,102.8054742,,,
临泉县人民法院,安徽省,阜阳市,临泉县,33.0488117,115.263134,,,
陇川县人民法院,云南省,德宏傣族景颇族自治州,陇川县,24.1722508,97.7940865,,,
梁河县初级人民法院,云南省,德宏傣族景颇族自治州,梁河县,24.8083422,98.2977615,,,
江陵县法院,湖北省,荆州市,江陵县,30.039986,112.4189061,,,
进贤县人民法院梅庄法庭,江西省,南昌市,进贤县,28.5851058,116.4115888,,,
措勤县人民法院,西藏自治区,阿里地区,措勤县,31.0171409,85.152508,,,
天津市河东区人民法院,山东省,临沂市,河东区,39.1166941,117.2311465,,,
徐州市泉山区人民法院,江苏省,徐州市,泉山区,34.2186164,117.1668436,,,
富阳区法院,浙江省,杭州市,富阳区,30.0631562,119.9378809,,,
富阳区法院,浙江省,杭州市,富阳区,30.0629024,119.9376703,,,
长武县人民法院,陕西省,咸阳市,长武县,35.2122333,107.7764848,,,
新会区人民法院,广东省,江门市,新会区,22.4611213,113.0259723,,,
临平区人民法院,浙江省,杭州市,临平区,30.4088523,120.2982426,,,
临平区人民法院,浙江省,杭州市,临平区,30.4073888,120.2960271,,,
鸡冠区法院,黑龙江省,鸡西市,鸡冠区,45.285406,130.9401287,,,
桐柏县人民法院安棚人民法院,河南省,南阳市,桐柏县,32.5817112,113.1644855,,,
章贡区人民法院,江西省,赣州市,章贡区,25.8253578,114.9177057,,,
雨湖区人民法院,湖南省,湘潭市,雨湖区,27.9613713,112.8554316,,,
开平市人民法院水口人民法庭,广东省,江门市,开平市,22.4447754,112.7741802,,,
蓬江区法院东区审判庭,广东省,江门市,蓬江区,22.5991834,113.0894252,,,
象山县法院西周法庭,浙江省,宁波市,象山县,29.4840175,121.6685106,,,
婺源县人民法院,江西省,上饶市,婺源县,29.2628769,117.8418689,,,
开平市人民法院,广东省,江门市,开平市,22.3703318,112.7061424,,,
信宜市人民法院北界人民法庭,广东省,茂名市,信宜市,22.3093076,110.8329835,,,
青州市人民法院,山东省,潍坊市,青州市,36.6874356,118.4984979,,,
井冈山市人民法院,江西省,吉安市,井冈山市,26.7519662,114.2825917,,,
东丰县人民法院执行局,吉林省,辽源市,东丰县,42.6854833,125.5144895,,,
东丰县人民法院,吉林省,辽源市,东丰县,42.6850613,125.5149508,,,
防城区人民法院大菉人民法庭,广西壮族自治区,防城港市,防城区,21.8630081,108.1250703,,,
清徐县人民法院徐沟人民法庭,山西省,太原市,清徐县,37.5639044,112.4978333,,,
新巴尔虎左旗人民法院,内蒙古自治区,呼伦贝尔市,新巴尔虎左旗,48.2250117,118.262671,,,
饶平县人民法院,广东省,潮州市,饶平县,23.6686665,116.9806489,,,
若尔盖县人民法院铁布人民法庭,四川省,阿坝藏族羌族自治州,若尔盖县,34.0969075,103.105805,,,
庄河市人民法院,辽宁省,大连市,庄河市,39.6781841,122.9642162,,,
宿城区法院,江苏省,宿迁市,宿城区,33.9614588,118.2348659,,,
宿城区法院,江苏省,宿迁市,宿城区,33.9616952,118.2330404,,,
瓯海区人民法院,浙江省,温州市,瓯海区,27.9704467,120.6092163,,,
徽县人民法院,甘肃省,陇南市,徽县,33.7890809,106.0641056,,,
礼县法院,甘肃省,陇南市,礼县,34.1884994,105.1872354,,,
防城区法院,广西壮族自治区,防城港市,防城区,21.7712423,108.354249,,,
铁锋区人民法院,黑龙江省,龙华街道,齐齐哈尔市,47.3323324,123.9635748,,,
天津市河西区人民法院,四川省,攀枝花市,西区,39.10246,117.2070063,,,
沧源佤族自治县人民法院,云南省,临沧市,沧源佤族自治县,23.1575526,99.2577217,,,
茂南区法院,广东省,茂名市,茂南区,21.6668873,110.9084882,,,
茂南区法院,广东省,茂名市,茂南区,21.6667412,110.9082431,,,
千阳县人民法院,陕西省,宝鸡市,千阳县,34.6430437,107.1295038,,,
成武县人民法院,山东省,菏泽市,成武县,34.9506616,115.8874357,,,
广州市番禺区人民法院大学城法庭,广东省,广州市,番禺区,23.0364548,113.4160241,,,
鹤山市人民法院龙口法庭,广东省,江门市,鹤山市,22.7812456,112.9180825,,,
屯昌县人民法院南坤庭,海南省,屯昌县,南坤镇,19.3215744,109.9565882,,,
宿豫区人民法院,江苏省,宿迁市,宿豫区,33.951371,118.3276148,,,
宿城区人民法院,江苏省,宿迁市,宿城区,33.9609021,118.2349433,,,
天宁区法院/天宁区检察院,江苏省,常州市,天宁区,31.7918958,119.9926117,,,
天宁区法院/天宁区检察院,江苏省,常州市,天宁区,31.7924537,119.9933104,,,
合水县人民法院,甘肃省,庆阳市,合水县,35.8273519,108.013882,,,
柳江区人民法院,广西壮族自治区,柳州市,柳江区,24.2508253,109.3317965,,,
南沙区人民法院万顷沙人民法庭,广东省,广州市,南沙区,22.7119468,113.5459739,,,
固安县人民法院,河北省,廊坊市,固安县,39.4408319,116.2951345,,,
新会区人民法院大泽法庭,广东省,江门市,大泽镇,22.5185432,112.9292409,,,
华龙区法院,河南省,濮阳市,华龙区,35.7777725,115.0711042,,,
华龙区法院,河南省,濮阳市,华龙区,35.7778962,115.0708217,,,
阿尔山市人民法院,内蒙古自治区,兴安盟,阿尔山市,47.1833274,119.9333877,,,
华池县法院,甘肃省,庆阳市,华池县,36.4200239,107.9555405,,,
濮阳市华龙区人民法院,河南省,濮阳市,华龙区,35.777828,115.0705399,,,
华龙区人民法院执行局,河南省,濮阳市,华龙区,35.7879222,115.0736386,,,
濮阳市华龙区人民法院中原人民法庭,河南省,濮阳市,华龙区,35.7759318,115.059589,,,
环县人民法院,甘肃省,庆阳市,环县,36.5669647,107.2992423,,,
桂林市七星区人民法院,广西壮族自治区,桂林市,七星区,25.2595373,110.3200521,,,
南乐县人民法院,河南省,濮阳市,南乐县,36.0579443,115.1992508,,,
台前县人民法院,河南省,濮阳市,台前县,35.9675173,115.8688549,,,
崇义县人民法院,江西省,赣州市,崇义县,25.6809585,114.3033886,,,
长清区法院,山东省,济南市,长清区,36.5520645,116.7520308,,,
长清区法院,山东省,济南市,长清区,36.5518856,116.7520469,,,
长清区法院,山东省,济南市,长清区,36.5519103,116.7520553,,,
长清区法院,山东省,济南市,长清区,36.5520399,116.7520192,,,
宿城区法院站,江苏省,宿迁市,宿城区,33.961449,118.2345448,,,
芝罘区法院 芝罘区检察院,山东省,烟台市,芝罘区,37.6026801,121.3703899,,,
芝罘区法院 芝罘区检察院,山东省,烟台市,芝罘区,37.6008302,121.3700463,,,
龙湾区人民法院,浙江省,温州市,龙湾区,27.9354246,120.8033332,,,
朝阳区人民法院亚运村人民法庭,吉林省,长春市,朝阳区,39.9700703,116.4327837,,,
芝罘区法院 芝罘区检察院,山东省,烟台市,芝罘区,37.6016268,121.3695663,,,
黄石港区人民法院,湖北省,黄石市,黄石港区,30.2317417,115.0494075,,,
泰州市海陵区人民法院,江苏省,泰州市,海陵区,32.4894785,119.9397537,,,
渭南市临渭区人民法院,陕西省,渭南市,临渭区,34.5231978,109.4815822,,,
纳溪区法院,四川省,泸州市,纳溪区,28.7897683,105.3809103,,,
纳溪区法院,四川省,泸州市,纳溪区,28.7899881,105.3805965,,,
江阳区法院,四川省,泸州市,江阳区,28.8891671,105.3939056,,,
江阳区法院,四川省,泸州市,江阳区,28.889935,105.3936951,,,
渭南市临渭区人民法院高新法庭,陕西省,渭南市,临渭区,34.5034831,109.4334051,,,
新会区人民法院崖门法庭,广东省,江门市,新会区,22.2994683,113.0521311,,,
阳春市人民法院春湾人民法庭,广东省,阳江市,阳春市,22.4543964,111.9491978,,,
信宜市人民法院,广东省,茂名市,信宜市,22.3284554,110.9294572,,,
普宁市人民法院洪阳人民法庭,广东省,揭阳市,普宁市,23.4325129,116.2002833,,,
惠来县人民法院,广东省,揭阳市,惠来县,23.0255256,116.2978642,,,
龙马潭区法院,四川省,泸州市,龙马潭区,28.9189197,105.4256442,,,
广州互联网法院,广东省,广州市,海珠区,23.100617,113.3370845,,https://gzinternetcourt.gov.cn/,+86 20 3195 0526
南安市人民法院,福建省,泉州市,南安市,24.9728539,118.4119523,,,
南昌市红谷滩区人民法院,江西省,南昌市,红谷滩区,28.6964285,115.7348844,,,
南昌市新建区人民法院招贤法庭,江西省,南昌市,新建区,28.6965663,115.7351183,,,
港口区人民法院,广西壮族自治区,防城港市,港口区,21.6455941,108.3789924,,,
舟山市定海区人民法院临城人民法庭,浙江省,舟山市,定海区,29.9963218,122.1857638,,,
信宜市人民法院计生专项执法工作组,广东省,茂名市,信宜市,22.3593318,110.9265372,,,
西秀区人民法院,贵州省,安顺市,西秀区,26.2633902,105.9738685,,,
梓潼县人民法院,四川省,绵阳市,梓潼县,31.6429898,105.1661087,,,
涿鹿县人民法院,河北省,张家口市,涿鹿县,40.3779832,115.1998856,,,
涿鹿县人民法院,河北省,张家口市,涿鹿县,40.3780587,115.1998794,,,
涿鹿县人民法院,河北省,张家口市,涿鹿县,40.3777563,115.1999867,,,
涿鹿县人民法院,河北省,张家口市,涿鹿县,40.3778849,115.1999741,,,
丹江口市人民法院,湖北省,十堰市,丹江口市,32.5433798,111.5089453,,,
阿拉山口市人民法院,新疆维吾尔自治区,博尔塔拉蒙古自治州,阿拉山口市,45.1761634,82.5602881,,,
商城鞋箱包市场(婺城区法院),浙江省,金华市,婺城区,29.0821378,119.6461559,,,
商城鞋箱包市场(婺城区法院),浙江省,金华市,婺城区,29.0813298,119.6465551,,,
高要区法院,广东省,肇庆市,高要区,23.0315709,112.464927,,,
高要区法院,广东省,肇庆市,高要区,23.0312782,112.4655957,,,
汤旺县人民法院,黑龙江省,伊春市,汤旺县,48.453793,129.5524199,,,
临湘市人民法院,湖南省,岳阳市,临湘市,29.4757278,113.4308846,,,
杭州市富阳区人民法院共享法庭(鹳山社区),浙江省,杭州市,富阳区,30.0503342,119.9581815,,,
宿城区人民法院骆马湖流域环境资源法庭,江苏省,宿迁市,宿城区,34.0501614,118.2761389,,,
泗阳县人民法院,江苏省,宿迁市,泗阳县,33.7230218,118.7004355,,,
绥芬河市人民法院,黑龙江省,牡丹江市,绥芬河市,44.3970839,131.1248192,,,
广汉市人民法院,四川省,德阳市,广汉市,30.9992109,104.2784774,,,
宿迁经济技术开发区人民法院,江苏省,宿迁市,宿城区,33.9049588,118.2508267,,,
长治市潞州区人民法院审判庭,山西省,长治市,潞州区,36.2230591,113.119788,,,
蓬江区法院,广东省,江门市,蓬江区,22.5832713,113.0682531,,,
嵊泗县人民法院共享法庭(东升村),浙江省,舟山市,嵊泗县,30.7228099,122.7837473,,,
鱼台县人民法院,山东省,济宁市,鱼台县,34.9920469,116.6492489,,,
乌鲁木齐市天山区人民法院,新疆维吾尔自治区,乌鲁木齐市,天山区,43.78075,87.6238136,,,
漯河市郾城区人民法院,河南省,漯河市,郾城区,33.5880115,114.0057653,,,
漯河市源汇区人民法院,河南省,漯河市,源汇区,33.5693336,114.010909,,,
堆龙德庆区人民法院,西藏自治区,拉萨市,堆龙德庆区,29.6496599,90.9936283,,,
茂名市茂南区人民法院,广东省,茂名市,茂南区,21.6671863,110.9084547,,,
固原市原州区人民法院,宁夏回族自治区,固原市,原州区,36.0282233,106.2497765,,,
香洲区人民法院,广东省,珠海市,香洲区,22.2689387,113.5323738,,,
云冈区法院,山西省,大同市,云冈区,40.0278812,113.2009754,,,
云冈区法院,山西省,大同市,云冈区,40.0280846,113.1996021,,,
唐河县人民法院,河南省,南阳市,唐河县,32.6918463,112.7976476,,,
方城县人民法院(办公二区),河南省,南阳市,方城县,33.2464846,112.9870365,,,
嘉黎县人民法院,西藏自治区,那曲市,嘉黎县,30.643739,93.2339877,,,
建邺区人民法院金融法庭,江苏省,南京市,建邺区,32.002357,118.7429577,,,
索县人民法院,西藏自治区,那曲市,索县,31.8865814,93.7831405,,,
杂多县人民法院,青海省,玉树藏族自治州,杂多县,32.898144,95.2547479,,,
武侯区人民法院晋阳人民法庭,四川省,成都市,武侯区,30.6475754,104.0027789,,,
枣庄市市中区人民法院,山东省,济南市,市中区,34.8527085,117.5337348,,,
成都市锦江区人民法院牛市口人民法庭,四川省,成都市,锦江区,30.6478143,104.0841879,,,
滕州市人民法院木石人民法庭,山东省,枣庄市,滕州市,34.9845144,117.2647668,,,
锦江区人民法院三圣人民法庭,四川省,成都市,锦江区,30.5925349,104.1062248,,,
金堂县人民法院,四川省,成都市,金堂县,30.861482,104.4104149,,http://cdjtfy.chinacourt.org/index.shtml,+86 28 8493 5611
二七区人民法院环境资源保护巡回法院,河南省,郑州市,二七区,34.6670634,113.5604908,,,
海曙人民法院共享法庭,浙江省,宁波市,海曙区,29.8635507,121.5475931,,,
贡觉县人民法院,西藏自治区,昌都市,贡觉县,30.8534652,98.2729787,,,
于田县人民法院,新疆维吾尔自治区,和田地区,于田县,36.8572701,81.6643682,,,
抚松县人民法院,吉林省,白山市,抚松县,42.1717092,127.4691517,,,
江州区人民法院,广西壮族自治区,崇左市,江州区,22.4173111,107.3447506,,,
慈溪市人民法院逍林派出法庭,浙江省,宁波市,慈溪市,30.1922983,121.3164747,,,
德安县人民法院黄㛚人民法庭,江西省,九江市,德安县,29.3912649,115.7136697,,,
沙依巴克区人民法院,新疆维吾尔自治区,乌鲁木齐市,沙依巴克区,43.8101911,87.5930912,,,
昔阳县人民法院司法警察大队,山西省,晋中市,昔阳县,37.5975476,113.6977485,,,
玉泉区法院,内蒙古自治区,呼和浩特市,玉泉区,40.7712966,111.6121371,,,
玉泉区法院,内蒙古自治区,呼和浩特市,玉泉区,40.7715377,111.609716,,,
梨树县人民法院,吉林省,四平市,梨树县,43.2953936,124.3435591,,,
西充县人民法院,四川省,南充市,西充县,30.9928209,105.8942501,,,
衡山县法院,湖南省,衡阳市,衡山县,27.2608093,112.8459495,,,
宝安区人民法院执行局,广东省,深圳市,宝安区,22.5590559,113.9071925,,,
宁波市镇海区人民法院,浙江省,宁波市,镇海区,29.9552529,121.6880733,,,
谷城县人民法院,湖北省,襄阳市,谷城县,32.2605753,111.6253375,,,
台山市人民法院海宴人民法庭,广东省,江门市,台山市,21.7736229,112.5507608,,,
连云区法院,江苏省,连云港市,连云区,34.7561786,119.33819,,,
连云区法院,江苏省,连云港市,连云区,34.754732,119.3375654,,,
海州区法院,辽宁省,阜新市,海州区,34.5715273,119.1527365,,,
海州区法院,辽宁省,阜新市,海州区,34.5717791,119.1490672,,,
曲麻莱县人民法院办公楼,青海省,玉树藏族自治州,曲麻莱县,34.1298627,95.7990714,,,
东区法院大楼,四川省,攀枝花市,东区,22.2843301,114.224144,,,
乌鲁木齐县人民法院,新疆维吾尔自治区,乌鲁木齐市,乌鲁木齐县,43.8235523,87.6097774,,,
固始县人民法院,河南省,信阳市,固始县,32.1876166,115.6476158,,,
荆州区人民法院,湖北省,荆州市,荆州区,30.3466716,112.1843524,,,
永清县人民法院后奕法庭,河北省,廊坊市,永清县,39.2130702,116.5620965,,,
朝阳区法院,吉林省,长春市,朝阳区,39.9318067,116.4690768,,,
深圳市南山区人民法院,广东省,深圳市,南山区,22.5499782,113.9266133,,,
深圳市龙岗区人民法院,广东省,深圳市,龙岗区,22.721655,114.238614,,,
越城区法院,浙江省,绍兴市,越城区,30.0069492,120.5852482,,,
南山区人民法院粤海人民法庭,广东省,深圳市,南山区,22.5286976,113.9161841,,,
泰兴市人民法院,江苏省,泰州市,泰兴市,32.1711212,120.0387334,,,
锡山区法院,江苏省,无锡市,锡山区,31.5898814,120.3498203,,,
海珠区人民法院,广东省,广州市,海珠区,23.0838716,113.2982106,,,
江阴市中级法院,江苏省,无锡市,江阴市,31.9188264,120.2914128,,,
天台县人民法院,浙江省,台州市,天台县,29.1559339,120.9855919,,,
饶平县人民法院三饶法庭,广东省,潮州市饶平县三饶镇,饶平县,23.9826058,116.8237611,,,
孟津区人民法院,河南省,孟津区,孟津区,34.8255386,112.4446902,,,
江北区人民法院,浙江省,宁波市,江北区,29.8931477,121.5523575,,,
邗江区人民法院,江苏省,扬州市,邗江区,32.3815152,119.3901145,,,
阳朔县法院,广西壮族自治区,桂林市,阳朔县,24.7733786,110.4757124,,,
枣庄市中级人民法院,山东省,枣庄市,薛城区,34.8071348,117.3257535,,,+86 63212368
西区裁判法院大楼,四川省,攀枝花市,西区,22.2867623,114.1405235,,,
广州市白云区人民法院,广东省,广州市,白云区,23.2033836,113.2588501,,,
峄城区人民法院榴园法庭,山东省,枣庄市,峄城区,34.7685581,117.5568542,,,
枣庄市峄城区人民法院,山东省,枣庄市,峄城区,34.7812706,117.575801,,,
枣庄市山亭区人民法院,山东省,枣庄市,山亭区,35.1002514,117.4591425,,,
平湖市人民法院新埭法庭,浙江省,新埭镇,平湖市,30.8219753,121.0751364,,,
遵义市遵义县人民法院虾子人民法庭,辽宁省,锦州市,义县,27.6933415,107.1867993,,,
遵义市红花岗区人民法院 长征人民法庭,贵州省,遵义市,红花岗区,27.6901828,106.9468947,,,
遵义县人民法院三合镇人民法庭,辽宁省,锦州市,义县,27.4223486,106.764063,,,
遵义县人民法院 尚嵇人民法庭,辽宁省,锦州市,义县,27.3769354,106.9659958,,,
大武口区白芨沟人民法院,宁夏回族自治区,石嘴山市,大武口区,39.1054743,106.1333803,,,
通州区法院,江苏省,南通市,通州区,32.0751871,121.0713607,,,
昌邑市人民法院柳疃人民法庭,山东省,潍坊市,昌邑市,36.9397401,119.3903912,,,
滨江区法院,浙江省,杭州市,滨江区,30.2124736,120.2089526,,,
花山区人民法院,安徽省,马鞍山市,花山区,31.7028191,118.5258147,,,
浦口区人民法院,江苏省,南京市,浦口区,32.0608409,118.6211114,,,
安宁市人民法院,云南省,昆明市,安宁市,24.9226593,102.4618127,,,
古冶区人民法院,河北省,唐山市,古冶区,39.7348628,118.4405464,,,
玄武区人民法院,江苏省,南京市,玄武区,32.0524656,118.7905297,,,
七里河区法院,甘肃省,兰州市,七里河区,36.086593,103.7297088,,,
安宁区人民法院,甘肃省,兰州市,安宁区,36.0948105,103.7038302,,,
临沂市兰山区人民法院,山东省,临沂市,兰山区,35.045649,118.3380629,,,
临沂市罗庄区法院,山东省,临沂市,罗庄区,34.999617,118.2820258,,,
临沂市河东区人民法院,山东省,临沂市,河东区,35.0744071,118.3892545,,,
常熟市人民法院辛庄人民法庭,江苏省,苏州市,常熟市,31.5421941,120.6679549,,,
滕州市人民法院,山东省,枣庄市,滕州市,35.1147166,117.1576346,,,
仪征市人民法院,江苏省,扬州市,仪征市,32.2822619,119.1688372,,,
寒亭区人民法院,山东省,潍坊市,寒亭区,36.7638959,119.1874815,,,
播州区人民法院,贵州省,遵义市,播州区,27.5856889,106.852038,,,
兰山区人民法院,山东省,临沂市,兰山区,35.0878659,118.3073117,,,
玉环市人民法院,浙江省,台州市,玉环市,28.1167157,121.2445439,,,
富顺县人民法院,四川省,自贡市,富顺县,29.1835391,104.9769421,,,
富顺县人民法院东湖人民法庭,四川省,自贡市,富顺县,29.1816184,104.9538726,,,
泰山区人民法院,山东省,泰安市,泰山区,36.1950181,117.1666475,,,
邹城市人民法院,山东省,济宁市,邹城市,35.4078193,116.9978157,,,
会泽县人民法院,云南省,曲靖市,会泽县,26.4160171,103.2832798,,,
自流井区人民法院,四川省,自贡市,自流井区,29.3250614,104.7503384,,,
临沂市兰山区人民法院义堂法庭,山东省,临沂市,兰山区,35.1636807,118.2267885,,,
二七区人民法院,河南省,郑州市,二七区,34.7256363,113.6354979,,,
杭州市上城区人民法院,浙江省,杭州市,上城区,30.2172378,120.1690374,,,
西城区人民法院（南区）,山西省,阳泉市,城区,39.8721325,116.3626795,,,
沂南县人民法院界湖人民法庭,山东省,临沂市,沂南县,35.5606267,118.4528975,,,
沂南县人民法院,山东省,临沂市,沂南县,35.5329555,118.4665587,,,
汕头市金平区人民法院,广东省,汕头市,金平区,23.3637988,116.7110663,,,
甘州区人民法院,甘肃省,张掖市,甘州区,38.9406523,100.4155916,,,
单县人民法院,山东省,菏泽市,单县,34.7796358,116.1026538,,,
福田区人民法院,广东省,深圳市,福田区,22.5237705,114.0491188,,,
胶州帝国法院旧址,Shandong,Qingdao,Shinan,36.0639944,120.3185309,,,
邹城市人民法院中心人民法庭,山东省,济宁市,邹城市,35.4330349,116.901885,,,
两当县法院,甘肃省,陇南市,两当县,33.9209153,106.3003178,,,
荔湾区法院,广东省,广州市,荔湾区,23.0747647,113.2113966,,,
双流区太平法院,四川省,成都市,双流区,30.4302208,104.1994993,,,
呼和浩特市赛罕区人民法院,内蒙古自治区,呼和浩特市,赛罕区,40.7752302,111.7324731,,,
常州市武进区人民法院,江苏省,常州市,武进区,31.712475,119.9588136,,,
新兴县人民法院,广东省,云浮市,新兴县,22.715299,112.2289988,,,
霞浦县人民法院,福建省,宁德市,霞浦县,26.8925553,120.0175428,,,
荣县人民法院,四川省,自贡市,荣县,29.4592365,104.3969773,,,
永靖县人民法院,甘肃省,临夏回族自治州,永靖县,35.9381183,103.3078628,,,
蔡甸区人民法院,湖北省,武汉市,蔡甸区,30.5709207,114.034717,,,
市南区人民法院云南路法庭,山东省,青岛市,市南区,36.0646681,120.2981276,,,
柳州市城中区人民法院,广西壮族自治区,柳州市,城中区,24.3576124,109.4304578,,,
青岛市黄岛区人民法院,山东省,青岛市,黄岛区,35.9569597,120.1920159,,,
白河县人民法院,陕西省,安康市,白河县,32.8013204,110.1100739,,,
阿勒泰市人民法院,新疆维吾尔自治区,阿勒泰地区,阿勒泰市,47.8274552,88.1305114,,,
常州市新北区人民法院,江苏省,常州市,新北区,31.8206903,119.9553968,,,
常州市天宁区人民法院,江苏省,常州市,天宁区,31.7927019,119.9920977,,,
南通市崇川区人民法院,江苏省,南通市,崇川区,32.0006729,120.8812178,,,
上虞区人民法院,浙江省,绍兴市,上虞区,30.0381252,120.8610146,,,
杭州市下城区人民法院,山西省,阳泉市,城区,30.3110637,120.1764405,,,
杭州市富阳区人民法院,浙江省,杭州市,富阳区,30.0630821,119.9387146,,,
薛城区人民法院临山人民法庭,山东省,枣庄市,薛城区,34.8146475,117.282265,,,
柳南区人民法院,广西壮族自治区,柳州市,柳南区,24.2783053,109.3893419,,,
泉州市丰泽区人民法院,福建省,泉州市,丰泽区,24.8930154,118.5945462,,,
北川羌族自治县人民法院,四川省,绵阳市,北川羌族自治县,31.6183958,104.4660251,,,
富宁县人民法院,云南省,文山壮族苗族自治州,富宁县,23.6263526,105.6318462,,,
杭州市西湖区人民法院上泗人民法庭,浙江省,杭州市,西湖区,30.14088,120.0836469,,,
杭州市西湖区人民法院上泗人民法庭主楼,浙江省,杭州市,西湖区,30.1409131,120.0838323,,,
广州海事法院汕头法庭,广东省,汕头市,龙湖区,23.3569683,116.7407659,,,
金州区人民法院,辽宁省,大连市,金州区,39.1099664,121.7140861,,,
历城区法院华山法庭,山东省,济南市,历城区,36.6781558,117.067818,,,
江海区人民法院,广东省,江门市,江海区,22.5633352,113.1030612,,,
恒山区人民法院,黑龙江省,鸡西市,恒山区,45.2081666,130.899333,,,
恩平市人民法院,广东省,江门市,恩平市,22.1993452,112.3321909,,,
济南市历下区人民法院,山东省,济南市,历下区,36.6581618,117.0315921,,,
威信县法院,云南省,昭通市,威信县,27.8505835,105.0395374,,,
新会区人民法院,广东省,江门市,新会区,22.4611825,113.0255237,,,
新会区人民法院三江法庭,广东省,江门市,三江镇,22.4279444,113.0998273,,,
北京市高级人民法院,北京市,北京市,朝阳区,39.9028044,116.43171,,,
肥乡区人民法院,河北省,邯郸市,肥乡区,36.5553007,114.7905326,,,
雨花区人民法院马王堆宿舍,湖南省,长沙市,雨花区,28.2025121,113.0196271,,,
思明区人民法院,福建省,厦门市,思明区,24.477699,118.1121606,,,
建邺区人民法院,江苏省,南京市,建邺区,31.987217,118.7144265,,,
历城区人民法院,山东省,济南市,历城区,36.685285,117.0901197,,,
单县人民法院审判法庭,山东省,菏泽市,单县,34.779889,116.1029697,,,
雨湖区人民法院,湖南省,湘潭市,雨湖区,27.8787278,112.8978557,,,
任丘市人民法院,河北省,沧州市,任丘市,38.7106481,116.1032608,,,
沙河市人民法院,河北省,邢台市,沙河市,36.8760229,114.5112182,,,
清河县人民法院,河北省,邢台市,清河县,37.0574252,115.6513039,,,
南宫市人民法院,河北省,邢台市,南宫市,37.3570121,115.4118941,,,
夏县法院,山西省,运城市,夏县,35.1262608,111.2141316,,,
应县人民法院,山西省,朔州市,应县,39.5531328,113.1721252,,,
青县人民法院,河北省,沧州市,青县,38.5809955,116.7999486,,,
武强县人民法院,河北省,衡水市,武强县,38.0413949,115.9374165,,,
浔阳区人民法院,江西省,九江市,浔阳区,29.7401022,116.0087797,,,
佛山市高明区人民法院,广东省,佛山市,高明区,22.9122193,112.8610542,,,
禹城市人民法院,山东省,德州市,禹城市,36.9339304,116.6412543,,,
柴桑区人民法院,江西省,九江市,柴桑区,29.6145566,115.9106344,,,
泊头市人民法院,河北省,沧州市,泊头市,38.0828508,116.5793723,,,
常州市武进区人民法院嘉泽人民法庭,江苏省,常州市,武进区,31.6807465,119.7808919,,,
含山县人民法院,安徽省,马鞍山市,含山县,31.7337634,118.0937219,,,
威海市环翠区人民法院,山东省,威海市,环翠区,37.5123382,122.1232566,,,
环翠区人民法院张村人民法庭,山东省,威海市,环翠区,37.4889218,122.0244189,,,
包河区人民法院,安徽省,合肥市,包河区,31.7984554,117.302869,,,
江门市江海区人民法院审判区,广东省,江门市,江海区,22.5636604,113.1028059,,,
共青城市人民法院,江西省,九江市,共青城市,29.2540045,115.7908577,,,
新会区人民法院古井法庭,广东省,江门市,新会区,22.352922,113.1082935,,,
馆陶县人民法院,河北省,邯郸市,馆陶县,36.5485205,115.2731746,,,
吴桥县人民法院,河北省,沧州市,吴桥县,37.6365191,116.4094055,,,
嘉定区人民法院南翔人民法庭,上海市,嘉定区,嘉定区,31.2951768,121.3165765,,,
玉环市人民法院,浙江省,台州市,玉环市,28.1168063,121.2443514,,,
浚县人民法院,河南省,鹤壁市,浚县,35.6600826,114.5469727,,,
沿滩区人民法院,四川省,自贡市,沿滩区,29.2710139,104.8735235,,,
同心县人民法院,宁夏回族自治区,吴忠市,同心县,36.9525679,105.9003647,,,
平山县人民法院,河北省,石家庄市,平山县,38.264555,114.1756065,,,
寿光市人民法院,山东省,潍坊市,寿光市,36.8662274,118.7813402,,,
新化县人民法院,湖南省,娄底市,新化县,27.7219085,111.3119252,,,
衢江区法院,浙江省,衢州市,衢江区,28.9778292,118.9550285,,,
南通市通州区人民法院平潮法庭,江苏省,南通市,通州区,32.0961975,120.7368336,,,
鱼峰区人民法院,广西壮族自治区,柳州市,鱼峰区,24.3197188,109.4447035,,,
桥东区人民法院,河北省,张家口市,桥东区,40.7823018,114.8920621,,,
福清市人民法院,福建省,福州市,福清市,25.7180674,119.3468183,,,
中山市人民法院坦洲人民法庭,广东省,中山市,坦洲镇,22.2744943,113.463311,,,
姑苏区人民法院金阊人民法庭,江苏省,苏州市,姑苏区,31.3054039,120.5753025,,,
上杭县人民法院,福建省,龙岩市,上杭县,25.058713,116.4301626,,,
中山市第二人民法院,广东省,中山市,小榄镇,22.6524802,113.2335122,,,
玉环市人民法院港北人民法庭,浙江省,台州市,玉环市,28.2207382,121.2850138,,,
溧阳市人民法院,江苏省,常州市,溧阳市,31.4112718,119.4728648,,,
怀远县人民法院,安徽省,蚌埠市,怀远县,32.9728631,117.2121515,,,
大名县人民法院,河北省,邯郸市,大名县,36.2924081,115.1518289,,,
汉阳区人民法院,湖北省,江堤街道,武汉市,30.5396422,114.2471978,,,
临清市人民法院,山东省,聊城市,临清市,36.8257857,115.7171583,,,
大安区人民法院,四川省,自贡市,大安区,29.369622,104.7734531,,,
福州市晋安区人民法院执行局,福建省,福州市,晋安区,26.0758417,119.360385,,,
故城县人民法院,河北省,衡水市,故城县,37.3574606,115.9696707,,,
辛集市人民法院,河北省,石家庄市,辛集市,37.9428886,115.2236287,,,
岐山县人民法院,陕西省,宝鸡市,岐山县,34.3127449,107.6291365,,,
孟村回族自治县人民法院,河北省,沧州市,孟村回族自治县,38.0751103,117.1078699,,,
防城区人民法院诉讼服务中心,广西壮族自治区,防城港市,防城区,21.7311608,108.363221,,,
徐州市云龙区人民法院,江苏省,徐州市,云龙区,34.251897,117.2243196,,,
青州市人民法院,山东省,潍坊市,青州市,36.6874142,118.4987196,,,
晋安区人民法院,福建省,福州市,晋安区,26.0845941,119.3418332,,,
徐州市鼓楼区人民法院,江苏省,南京市,鼓楼区,34.292689,117.2344179,,,
南溪区法院,四川省,宜宾市,南溪区,28.8499586,104.9679041,,,
武安市人民法院,河北省,邯郸市,武安市,36.6926823,114.1653239,,,
无锡市梁溪区人民法院,江苏省,无锡市,梁溪区,31.5880118,120.3113204,,,
上街区人民法院,河南省,郑州市,上街区,34.8134106,113.3005412,,,
南康区塘江人民法院,江西省,赣州市,南康区,25.8128111,114.7416468,,,
望都县人民法院,河北省,保定市,望都县,38.6940699,115.1467547,,,
光山县人民法院,河南省,信阳市,光山县,32.0103091,114.9168057,,,
如皋市人民法院,江苏省,南通市,如皋市,32.3659082,120.5576552,,,
坪山区人民法院,广东省,深圳市,坪山区,22.6834139,114.3344044,,,
赣榆区人民法院,江苏省,连云港市,赣榆区,34.8255161,119.1097784,,,
防城区人民法院大院,广西壮族自治区,防城港市,防城区,21.7714481,108.3549018,,,
襄州区人民法院,湖北省,襄阳市,襄州区,32.0948973,112.2050128,,,
独山县人民法院,贵州省,黔南布依族苗族自治州,独山县,25.8247691,107.5399392,,,
泰兴市人民法院 交通事故巡回审判庭,江苏省,泰州市,泰兴市,32.1976023,120.0469038,,,
合肥市瑶海区人民法院,安徽省,合肥市,瑶海区,31.8984235,117.3410886,,,
柳州市城中区人民法院,广西壮族自治区,柳州市,城中区,24.3577635,109.4306622,,,
宁强县人民法院,陕西省,汉中市,宁强县,32.8322169,106.2560887,,,
肥东县人民法院,安徽省,合肥市,肥东县,31.8952073,117.4510829,,,
宿城区人民法院,江苏省,宿迁市,宿城区,33.9608076,118.2349479,,,
阳信县人民法院,山东省,滨州市,阳信县,37.6316152,117.5929428,,,
常州市金坛区人民法院,江苏省,常州市,金坛区,31.7459942,119.5890411,,,
三河市人民法院,河北省,廊坊市,三河市,39.9883277,117.0413245,,,
微山县人民法院执行工作局,山东省,济宁市,微山县,34.8215281,117.1121505,,,
梨树区法院,黑龙江省,鸡西市,梨树区,45.095295,130.6985318,,,
乐亭县人民法院,河北省,唐山市,乐亭县,39.428922,118.8795827,,,
成都铁路运输中级法院,四川省,成都市,郫都区,30.748176,103.9923493,,,
肥西县人民法院执行局,安徽省,合肥市,肥西县,31.7437663,117.1651102,,,
原阳县人民法院,河南省,新乡市,原阳县,35.0674146,113.9300229,,,
台山市人民法院,广东省,江门市,台山市,22.2337569,112.7934397,,,
潍坊市奎文区人民法院,山东省,潍坊市,奎文区,36.6986287,119.1432233,,,
昌邑市人民法院围子人民法庭,山东省,潍坊市,昌邑市,36.8502326,119.4641454,,,
婺城区人民法院,浙江省,金华市,婺城区,29.0822565,119.6455733,,,
金东区人民法院,浙江省,金华市,金东区,29.1013616,119.6996265,,,
来安县人民法院,安徽省,滁州市,来安县,32.4166057,118.4223956,,,
东区法院,四川省,攀枝花市,东区,26.5611594,101.726851,,,
南沙区人民法院,广东省,广州市,南沙区,22.7864382,113.5913197,,,
盐亭县人民法院,四川省,绵阳市,盐亭县,31.2099819,105.3834199,,,
南昌市青山湖区人民法院,江西省,南昌市,青山湖区,28.6633799,115.961612,,,
饶平县人民法院,广东省,潮州市,饶平县,23.6685193,116.9806398,,,
陕西省西安市中级人民法院,陕西,西安,未央区,34.3126482,108.9825616,,,
宿豫区人民法院,江苏省,宿迁市,宿豫区,33.9514047,118.3274773,,,
微山县人民法院,山东省,济宁市,微山县,34.8070194,117.132336,,,
芮城县人民法院,山西省,运城市,芮城县,34.6988288,110.6745045,,,
柳北区人民法院,广西壮族自治区,柳州市,柳北区,24.3662544,109.4133505,,,
宝清县法院,黑龙江省,双鸭山市,宝清县,46.3203211,132.1756003,,,
永济市人民法院蒲州法庭,山西省,运城市,永济市,34.8294526,110.3286291,,,
永济市人民法院,山西省,运城市,永济市,34.8686786,110.4425193,,,
菏泽市牡丹区人民法院,山东省,菏泽市,牡丹区,35.2546807,115.4074529,,,
椒江区人民法院,浙江省,台州市,椒江区,28.6744121,121.4159936,,,
双湖县人民法院,西藏自治区,那曲市,双湖县,33.189779,88.833432,,,
平原县人民法院,山东省,德州市,平原县,37.1648392,116.4274569,,,
东兴区人民法院,四川省,内江市,东兴区,29.6055178,105.1091995,,,
天津市河西区人民法院,四川省,攀枝花市,西区,39.1024556,117.2071121,,,
广德市人民法院,安徽省,宣城市,广德市,30.879243,119.4237014,,,
阿勒泰市人民法院,新疆维吾尔自治区,阿勒泰地区,阿勒泰市,47.7909497,88.1202347,,,
常熟市人民法院,江苏省,苏州市,常熟市,31.676144,120.765176,,,
南宁市江南区人民法院,广西壮族自治区,南宁市,江南区,22.7880223,108.3194098,,,
兴宁区人民法院,广西壮族自治区,南宁市,兴宁区,22.854163,108.3624234,,,
全椒县人民法院,安徽省,滁州市,全椒县,32.0772914,118.2761318,,,
榆树市初级人民法院,吉林省,长春市,榆树市,44.8317312,126.5303521,,,
椒江区人民法院椒北法庭,浙江省,台州市,椒江区,28.7094304,121.4146537,,,
吉木萨尔县人民法院五彩湾人民法庭,新疆维吾尔自治区,昌吉回族自治州,吉木萨尔县,44.7840997,88.8650095,,,
大新县人民法院,广西壮族自治区,崇左市,大新县,22.8444725,107.2004816,,,
天等县人民法院,广西壮族自治区,崇左市,天等县,23.0605781,107.1398168,,,
番禺区人民法院,广东省,广州市,番禺区,22.9660438,113.3435489,,,
麻城市人民法院,湖北省,黄冈市,麻城市,31.1651353,114.969597,,,
茂名市中级人民法院,广东省,茂名市,茂南区,21.6668156,110.9411319,,,
固镇县人民法院,安徽省,蚌埠市,固镇县,33.3343637,117.3130994,,,
麻山区法院,黑龙江省,鸡西市,麻山区,45.2079883,130.4726783,,,
东平县人民法院,山东省,泰安市,东平县,35.9327818,116.4285264,,,
南海区人民法院,广东省,佛山市,南海区,23.0593923,113.1365656,,,
新洲区人民法院,湖北省,武汉市,新洲区,30.8350357,114.794313,,,
潜山市法院,安徽省,安庆市,潜山市,30.6322918,116.5943331,,,
利辛县人民法院,安徽省,亳州市,利辛县,33.1469116,116.1574827,,,
舒城县人民法院,安徽省,六安市,舒城县,31.4758443,116.941938,,,
珠海市金湾区人民法院,广东省,珠海市,金湾区,22.1275757,113.3560767,,,
唐山市路北区人民法院,河北省,唐山市,路北区,39.6480798,118.1593322,,,
雨山区人民法院,安徽省,马鞍山市,雨山区,31.6601474,118.4919256,,,
濉溪县人民法院,安徽省,淮北市,濉溪县,33.9205971,116.7294909,,,
皮山县人民法院,新疆维吾尔自治区,和田地区,皮山县,37.5802762,78.283859,,,
方城县人民法院,河南省,南阳市,方城县,33.2512003,112.9974936,,,
团风县人民法院,湖北省,黄冈市,团风县,30.6456795,114.870351,,,
淅川县人民法院,河南省,南阳市,淅川县,33.1559068,111.4659025,,,
夷陵区人民法院,湖北省,宜昌市,夷陵区,30.7617272,111.3415266,,,
环江毛南族自治县人民法院,广西壮族自治区,河池市,环江毛南族自治县,24.8268464,108.2492352,,,
新泰市人民法院楼德人民法庭（在建）,山东省,泰安市,新泰市,35.8683897,117.2981456,,,
朝阳区人民法院第二办公区,吉林省,长春市,朝阳区,39.8397919,116.4521661,,,
新县人民法院,河南省,信阳市,新县,31.6780105,114.8676983,,,
新县人民法院,河南省,信阳市,新县,31.6763105,114.8689176,,,
未央区法院家属院,陕西省,西安市,未央区,34.3084731,108.9474656,,,
襄城区人民法院,湖北省,襄阳市,襄城区,32.0100043,112.1264801,,,
固始县人民法院,河南省,信阳市,固始县,32.1715095,115.6323173,,,
迁安市人民法院,河北省,唐山市,迁安市,39.9957884,118.6926862,,,
遵化市人民法院,河北省,唐山市,遵化市,40.1973399,117.9417681,,,
博望区人民法院,安徽省,马鞍山市,博望区,31.5558,118.8009871,,,
乐清市人民法院,浙江省,温州市,乐清市,28.1147826,120.973552,,,
龙马潭区人民法院,四川省,泸州市,龙马潭区,28.9199577,105.4252331,,,
常州市金坛区人民法院薛埠人民法庭,江苏省,常州市,金坛区,31.7188559,119.3805261,,,
洛阳市老城区人民法院,河南省,洛阳市,老城区,34.7010839,112.4381069,,,
宿豫区人民法院皂河法庭,江苏省,宿迁市,宿豫区,34.035084,118.1042029,,,
点军区人民法院,湖北省,宜昌市,点军区,30.6758347,111.2736657,,,
歙县人民法院,安徽省,黄山市,歙县,29.8708519,118.3854198,,,
遂溪县旧人民法院内院小区,广东省,湛江市,遂溪县,21.3835013,110.244174,,,
遂溪县人民法院,广东省,湛江市,遂溪县,21.3858509,110.2639527,,,
唐山市古冶区人民法院,河北省,唐山市,古冶区,39.7083506,118.4433275,,,
通州区人民法院漷县人民法庭,江苏省,南通市,通州区,39.7747078,116.7894287,,,
阳新县人民法院太子法庭,湖北省,黄石市,阳新县,30.0321562,115.1720107,,,
武冈市人民法院,湖南省,邵阳市,武冈市,26.7430243,110.6350255,,,
邕宁区 人民法院,广西壮族自治区,南宁市,邕宁区,22.7816312,108.4615054,,,
泾县人民法院,安徽省,宣城市,泾县,30.6826577,118.4251666,,,
泾县人民法院检察院,安徽省,宣城市,泾县,30.6869377,118.4263059,,,
洪江市人民法院,湖南省,怀化市,洪江市,27.2142765,109.8265504,,,
玉龙纳西族自治县人民法院,云南省,丽江市,玉龙纳西族自治县,26.8247728,100.2338128,,,
古城区人民法院,云南省,丽江市,古城区,26.8922952,100.2139217,,,
长丰县人民法院,安徽省,合肥市,长丰县,32.4610407,117.1586001,,,
路南区人民法院,河北省,唐山市,路南区,39.6126644,118.1394182,,,
怀来县人民法院,河北省,张家口市,怀来县,40.4140411,115.5212107,,,
宿松县人民法院,安徽省,安庆市,宿松县,30.1756778,116.1311075,,,
祁连县人民法院,青海省,海北藏族自治州,祁连县,38.1704812,100.256534,,,
宜昌市猇亭区法院,湖北省,宜昌市,猇亭区,30.552031,111.4606799,,,
新泰市人民法院,山东省,泰安市,新泰市,35.9190827,117.7615206,,,
绩溪县人民法院,安徽省,宣城市,绩溪县,30.0669224,118.5683504,,,
青秀区 人民法院仙葫住宅区,广西壮族自治区,南宁市,青秀区,22.8075762,108.4362293,,,
叠彩区法院,广西壮族自治区,桂林市,叠彩区,25.3178067,110.3094947,,,
五河县人民法院,安徽省,蚌埠市,五河县,33.1321739,117.8661582,,,
江永县人民法院,湖南省,永州市,江永县,25.2722349,111.3470201,,,
灵璧县人民法院,安徽省,宿州市,灵璧县,33.5583342,117.542679,,,
青云谱区法院宿舍,江西省,南昌市,青云谱区,28.6351735,115.9054155,,,
虞城县人民法院,河南省,商丘市,虞城县,34.4058856,115.8155306,,,
腾冲市人民法院,云南省,保山市,腾冲市,25.0694132,98.4814359,,,
商丘市睢阳区人民法院凯旋人民法庭,河南省,商丘市,睢阳区,34.3660609,115.6451567,,,
鹤庆县人民法院,云南省,大理白族自治州,鹤庆县,26.5636257,100.1476026,,,
滁州市琅琊区人民法院,安徽省,滁州市,琅琊区,32.3359323,118.3178532,,,
青阳县人民法院,安徽省,池州市,青阳县,30.6365164,117.8601386,,,
萧山区人民法院,浙江省,杭州市,萧山区,30.1846731,120.2554842,,,
通化县人民法院,吉林省,通化市,通化县,41.6777992,125.7679592,,,
蚌埠市龙子湖区人民法院,安徽省,蚌埠市,龙子湖区,32.9101456,117.4487158,,,
伍家岗区人民法院,湖北省,宜昌市,伍家岗区,30.6720894,111.3425185,,,
良庆区 人民法院,广西壮族自治区,南宁市,良庆区,22.732284,108.3331879,,,
济南市长清区人民法院长清法庭,山东省,济南市,长清区,36.3926334,116.7650063,,,
济南市长清区人民法院,山东省,济南市,长清区,36.5523841,116.7521009,,,
渝中区人民法院,重庆市,渝中区,渝中区,29.5472484,106.5064958,,,+86 23 6390 5888
梅江区人民法院,广东省,梅州市,梅江区,24.314409,116.1116272,,,
梅县区法院,广东省,梅州市,梅县区,24.2676634,116.0741968,,,
朝阳县人民法院,辽宁省,朝阳市,朝阳县,41.4935946,120.3826483,,,
常州市天宁区人民法院兰陵人民法庭,江苏省,常州市,天宁区,31.7640862,119.945616,,,
阜南县人民法院,安徽省,阜阳市,阜南县,32.6656328,115.5910568,,,
八公山区人民法院,安徽省,淮南市,八公山区,32.6390351,116.8261676,,,
仁和区法院,四川省,攀枝花市,仁和区,26.4793412,101.7452453,,,
枝江市人民法院,湖北省,宜昌市,枝江市,30.4527406,111.737883,,,
梅江区人民法院,广东省,梅州市,梅江区,24.2883514,116.142376,,,
栖霞区人民法院迈皋桥法庭,江苏省,南京市,栖霞区,32.1195933,118.8182289,,,
晋源区人民法院,山西省,太原市,晋源区,37.7141468,112.4692094,,,
樊城区人民法院,湖北省,襄阳市,樊城区,32.0635341,112.1354023,,,
仙游县人民法院,福建省,莆田市,仙游县,25.343322,118.6956153,,,
临桂区法院,广西壮族自治区,桂林市,临桂区,25.2241589,110.1709581,,,
宁城县人民法院,内蒙古自治区,赤峰市,宁城县,41.6026226,119.3168764,,,
远安县人民法院,湖北省,宜昌市,远安县,31.0727225,111.6366328,,,
莱州市人民法院,山东省,烟台市,莱州市,37.2015361,119.9431981,,,
射洪市人民法院,四川省,遂宁市,射洪市,30.855384,105.4035459,,,
防城区人民法院,广西壮族自治区,防城港市,防城区,21.7308574,108.3633043,,,
清苑区人民法院,河北省,保定市,清苑区,38.7691879,115.4945825,,,
日照市东港区人民法院城郊法庭,山东省,日照市,东港区,35.4185842,119.4212268,,,
莱山区人民法院,山东省,烟台市,莱山区,37.4648701,121.4384485,,,
湖南省临武县人民法院,湖南省,郴州市,临武县,25.2790657,112.5685259,,,+86 0735 12368
东明县人民法院,山东省,菏泽市,东明县,35.31209,115.0876704,,,
常州市钟楼区人民法院,江苏省,常州市,钟楼区,31.8051615,119.8976693,,,
南昌市新建区人民法院,江西省,南昌市,新建区,28.6846958,115.7940986,,,
滦州市人民法院,河北省,唐山市,滦州市,39.746027,118.7054464,,,
岚山区人民法院,山东省,日照市,岚山区,35.1217274,119.3001265,,,
庐江县人民法院,安徽省,合肥市,庐江县,31.2529973,117.30803,,,
东阳市人民法院,浙江省,金华市,东阳市,29.2904422,120.2419658,,,
滦州市人民法院,河北省,唐山市,滦州市,39.7460536,118.705399,,,
德阳市旌阳区人民法院,四川省,德阳市,旌阳区,31.1623149,104.4179035,,,
乐亭县人民法院,河北省,唐山市,乐亭县,39.4287142,118.8796242,,,
汨罗市人民法院,湖南省,岳阳市,汨罗市,28.7998671,113.1000128,,,
望江县人民法院,安徽省,安庆市,望江县,30.1447629,116.6725737,,,
丰润区人民法院,河北省,唐山市,丰润区,39.8255171,118.0838649,,,
离石区人民法院,山西省,吕梁市,离石区,37.5071406,111.1228749,,,
屯溪区人民法院,安徽省,黄山市,屯溪区,29.6904755,118.2981914,,,
岱岳区法院,山东省,泰安市,岱岳区,36.1876592,117.0334697,,,
苍南县人民法院,浙江省,温州市,苍南县,27.518012,120.4353431,,,
港口区人民法院,广西壮族自治区,防城港市,港口区,21.6462323,108.3791097,,,
无为市人民法院,安徽省,芜湖市,无为市,31.3112048,117.8936273,,,
当涂县人民法院,安徽省,马鞍山市,当涂县,31.5723074,118.4895666,,,
仓山区法院单位宿舍,福建省,福州市,仓山区,26.0436898,119.3237572,,,
黄石市中级人民法院,湖北省,黄石市,下陆区,30.2073223,115.0321361,,,
岱岳区法院执行局,山东省,泰安市,岱岳区,36.1769697,116.9931116,,,
永泰县人民法院,福建省,福州市,永泰县,25.858512,118.9338092,,,
郎溪县人民法院,安徽省,宣城市,郎溪县,31.1403868,119.1877468,,,
栖霞区人民法院,江苏省,南京市,栖霞区,32.1303768,118.8911997,,,
萧县人民法院,安徽省,宿州市,萧县,34.2046923,116.9574827,,,
乐亭县人民法院汀流河人民法庭,河北省,唐山市,乐亭县,39.5033439,118.8216187,,,
西城区人民法院,山西省,北京,城区,39.9449885,116.3612491,,,
中华人民共和国最高人民法院第三巡回法庭,江苏省,南京市,浦口区,32.1113713,118.6637793,,,
丰顺县人民法院,广东省,梅州市,丰顺县,23.7406993,116.1774008,,,
益阳市资阳区人民法院,湖南省,益阳市,资阳区,28.6076683,112.3498316,,,
惠安县人民法院,福建省,泉州市,惠安县,25.0436751,118.8050644,,,
富宁县人民法院旅游法庭,云南省,文山壮族苗族自治州,富宁县,23.8873899,106.0788793,,,
南谯区人民法院,安徽省,滁州市,南谯区,32.3061695,118.3464896,,,
五华县人民法院,广东省,梅州市,五华县,23.9174004,115.7574817,,,
兴宁市人民法院,广东省,梅州市,兴宁市,24.1330781,115.7165875,,,
英吉沙县人民法院,新疆维吾尔自治区,喀什地区,英吉沙县,38.9524371,76.1648507,,,
水富市人民法院,云南省,昭通市,水富市,28.6135974,104.4084497,,,
江山市人民法院贺村人民法庭,浙江省,衢州市,江山市,28.6628345,118.5355486,,,
松北区人民法院,黑龙江省,哈尔滨市,松北区,45.8377742,126.6053914,,,
鹤城区人民法院,湖南省,怀化市,鹤城区,27.5946877,110.0296184,,,
潢川县人民法院,河南省,信阳市,潢川县,32.1461156,115.0243688,,,
郫都区人民法院,四川省,成都市,郫都区,30.7995442,103.9010466,,,
无棣县人民法院,山东省,滨州市,无棣县,37.7450583,117.6180462,,,
普陀区法院,浙江省,舟山市,普陀区,31.252384,121.3887873,,,
河北省玉田县人民法院鸦鸿桥人民法庭,河北省,唐山市,玉田县,39.758045,117.85086,,,
奎文区法院宿舍区,山东省,潍坊市,奎文区,36.6986225,119.1440047,,,
赫山区人民法院,湖南省,益阳市,赫山区,28.5680452,112.3811822,,,
余杭区人民法院瓶窑人民法庭,浙江省,杭州市,余杭区,30.3699773,119.974629,,,
理塘县人民法院,四川省,甘孜藏族自治州,理塘县,29.9982018,100.2691678,,,
泸西县人民法院,云南省,红河哈尼族彝族自治州,泸西县,24.5542091,103.7539869,,,
源汇区法院执行局,河南省,漯河市,源汇区,33.5531267,114.0205266,,,
迁安市人民法院沙河驿人民法庭,河北省,唐山市,迁安市,39.8649971,118.5663937,,,
萧山区人民法院临浦人民法庭,浙江省,杭州市,萧山区,30.0479693,120.2411393,,,
南昌市红谷滩区人民法院和南昌市新建区人民法院招贤法庭,江西省,南昌市,红谷滩区,28.696378,115.7349069,,,
田林县人民法院,广西壮族自治区,百色市,田林县,24.3124557,106.2127575,,,
萧山区人民法院共享法庭(油树下社区),浙江省,杭州市,萧山区,30.1642122,120.2893381,,,
萧山区人民法院共享法庭(前塘社区),浙江省,杭州市,萧山区,30.1479568,120.3053027,,,
南岗区人民法院,黑龙江省,哈尔滨市,南岗区,45.7574077,126.6669281,,,
浦口区人民法院,江苏省,南京市,浦口区,32.0929413,118.657012,,,
萧山区人民法院共享法庭(霞江村),浙江省,杭州市,萧山区,30.1465588,120.3179819,,,
萧山区人民法院共享法庭(新塘街道),浙江省,杭州市,萧山区,30.1522709,120.3023813,,,
萧山区人民法院共享法庭(新丰村),浙江省,杭州市,萧山区,30.1560018,120.327992,,,
成都市武侯区人民法院,四川省,成都市,武侯区,30.6467521,103.9801614,,,
萧山区人民法院共享法庭(三江社区),浙江省,杭州市,萧山区,30.1262043,120.1749277,,,
萧山区人民法院刑事审判法庭,浙江省,杭州市,萧山区,30.246418,120.3757801,,,
建水县人民法院,云南省,红河哈尼族彝族自治州,建水县,23.6373647,102.8271831,,,
延吉市人民法院,吉林省,延边朝鲜族自治州,延吉市,42.8921826,129.461011,,,
宁海县人民法院,浙江省,宁波市,宁海县,29.3010967,121.4371933,,,
福山区人民法院,山东省,烟台市,福山区,37.4763183,121.2373475,,,
眉县人民法院,陕西省,宝鸡市,眉县,34.2659147,107.7626728,,,
滦南县人民法院,河北省,唐山市,滦南县,39.5198187,118.6837619,,,
呼兰区法院,黑龙江省,哈尔滨市,呼兰区,45.888211,126.5790936,,,
昆都仑区人民法院,内蒙古自治区,包头市,昆都仑区,40.6184473,109.8143108,,,
合浦县人民法院,广西壮族自治区,北海市,合浦县,21.66029,109.2165772,,,
北京市东城区人民法院,山西省,阳泉市,城区,39.9401245,116.4094016,,,
烟台市芝罘区人民法院,山东省,烟台市,芝罘区,37.6030803,121.3712159,,,
叶城县人民法院,新疆维吾尔自治区,喀什地区,叶城县,37.8764989,77.4517763,,,
昭阳区中级人民法院,云南省,昭通市,昭阳区,27.3295682,103.7003656,,,
襄城区铁路运输法院,湖北省,襄阳市,襄城区,32.0216506,112.1790914,,,
海阳市人民法院,山东省,烟台市,海阳市,36.6912743,121.1642982,,,
靖西市人民法院,广西壮族自治区,百色市,靖西市,23.1449128,106.4101651,,,
富顺县人民法院审判庭,四川省,自贡市,富顺县,29.1907702,104.9529135,,,
黎城县人民法院,山西省,长治市,黎城县,36.5230534,113.3885285,,,
筠连县人民法院,四川省,宜宾市,筠连县,28.1574476,104.4954135,,,
常州市武进区人民法院前黄法庭,江苏省,常州市,武进区,31.5902249,119.9696523,,,
青岛市市北区人民法院审判法庭,山东省,青岛市,市北区,36.0742376,120.334717,,,
北京市房山区人民法院,北京市,房山区,房山区,39.7452648,116.1315605,,,+86 10 8936 6877
洪洞县人民法院广胜寺人民法庭,山西省,临汾市,洪洞县,36.3050219,111.7898239,,,
潞州区人民法院,山西省,长治市,潞州区,36.1962116,113.1225246,,,
龙口市人民法院,山东省,烟台市,龙口市,37.6406384,120.5027642,,,
鱼台县人民法院,山东省,济宁市,鱼台县,34.9920667,116.6499766,,,
南京市雨花台区人民法院,江苏省,南京市,雨花台区,31.994254,118.7716231,,,
杭州市临平区人民法院,浙江省,杭州市,临平区,30.4089412,120.2967038,,,
常州市新北区人民法院孟河人民法庭,江苏省,常州市,新北区,32.0009871,119.8517606,,,
金坛区法院华罗庚高新区法庭,江苏省,常州市,金坛区,31.7139212,119.6772091,,,
厦门市海沧区人民法院,福建省,厦门市,海沧区,24.4869269,118.0253561,,,+86 592 530 8796
靖西市法院旧宿舍,广西壮族自治区,百色市,靖西市,23.1341622,106.4181565,,,
绍兴市柯桥区人民法院,浙江省,绍兴市,柯桥区,30.0882116,120.4790042,,,
简阳市人民法院,四川省,成都市,简阳市,30.4119136,104.545366,,,
杭州市临平区人民法院共享法庭(乐苑社区),浙江省,杭州市,临平区,30.4749281,120.1830614,,,
睢阳区人民法院,河南省,商丘市,睢阳区,34.3949493,115.6321232,,,
梁园区人民法院,河南省,商丘市,梁园区,34.4408161,115.6293905,,,
余杭区人民法院共享法庭(三白潭村),浙江省,杭州市,余杭区,30.4700416,120.1406808,,,
长治市上党区人民法院,山西省,长治市,上党区,36.0558118,113.0560262,,,
长春新区人民法院,吉林省,长春市,宽城区,43.9830539,125.423662,,http://ccgxfy.e-court.gov.cn/index.shtml,+86 431 8857 5046
通州区人民法院,江苏省,南通市,通州区,32.0251161,121.0658173,,,
潞城区人民法院,山西省,长治市,潞城区,36.3236836,113.2053781,,,
丹徒区人民法院,江苏省,镇江市,丹徒区,32.135722,119.4290248,,,
端州区人民法院,广东省,肇庆市,端州区,23.0840634,112.5103527,,,
南宁市青秀区人民法院,广西壮族自治区,南宁市,青秀区,22.8194998,108.3882133,,,
衡阳市雁峰区人民法院,湖南省,衡阳市,雁峰区,26.8432014,112.6099387,,,
建阳区人民法院,福建省,南平市,建阳区,27.3474122,118.1096742,,,
嵊州市人民法院,浙江省,绍兴市,嵊州市,29.6039172,120.8272409,,,
泗阳县人民法院,江苏省,宿迁市,泗阳县,33.7228204,118.700414,,,
江汉区人民法院,湖北省,武汉市,江汉区,30.6269509,114.224832,,,
东西湖区人民法院,湖北省,武汉市,东西湖区,30.640665,114.1164601,,,
衡阳市蒸湘区人民法院,湖南省,衡阳市,蒸湘区,26.9238496,112.5522663,,,
西塞山区人民法院,湖北省,黄石市,西塞山区,30.1963712,115.053119,,,
吴兴区人民法院,浙江省,湖州市,吴兴区,30.867285,120.1796553,,,
绍兴市柯桥区人民法院共享法庭(杨汛桥街道园里湖居),浙江省,绍兴市,柯桥区,30.1377089,120.3418103,,,
隆阳区人民法院,云南省,保山市,隆阳区,25.0948636,99.2336011,,,
洪山区法院,湖北省,武汉市,洪山区,30.4932435,114.391566,,,
青田县人民法院,浙江省,丽水市,青田县,28.1315865,120.2958417,,,
武昌区法院,湖北省,武汉市,武昌区,30.5589796,114.3088009,,,
宁波市海曙区人民法院西郊法庭,浙江省,宁波市,海曙区,29.8723812,121.5145292,,,
古冶区人民法院,河北省,唐山市,古冶区,39.7347999,118.4405482,,,
婺城区人民法院白龙桥人民法庭,浙江省,金华市,婺城区,29.096364,119.5604422,,,
闽侯县人民法院荆溪人民法庭,福建省,福州市,闽侯县,26.1341326,119.1913349,,,
古田县人民法院,福建省,宁德市,古田县,26.5896833,118.7593659,,,
徽州区人民法院,安徽省,黄山市,徽州区,29.8397868,118.3321457,,,
澄海区人民法院,广东省,汕头市,澄海区,23.4771818,116.7484873,,,
江宁区人民法院,江苏省,南京市,江宁区,31.950922,118.842785,,,(025)12368
封开县人民法院,广东省,肇庆市,封开县,23.3980647,111.5042854,,,
敦化市人民法院,吉林省,延边朝鲜族自治州,敦化市,43.3520519,128.2345026,,,
广汉市人民法院,四川省,德阳市,广汉市,30.9991453,104.2784352,,,
和平县人民法院,广东省,河源市,和平县,24.4537083,114.9312633,,,
顺德区人民法院容桂人民法庭,广东省,佛山市,顺德区,22.7597825,113.2651426,,,
余干县人民法院,江西省,上饶市,余干县,28.7023129,116.6937573,,,
桐梓县人民法院,贵州省,遵义市,桐梓县,28.1499182,106.8258206,,,
龙凤区人民法院,黑龙江省,大庆市,龙凤区,46.5169274,125.1098956,,,
苏仙区人民法院,湖南省,郴州市,苏仙区,25.7989923,113.1082367,,,
海口市琼山区人民法院,海南省,海口市,琼山区,19.9709912,110.3989541,,,
高邮市人民法院,江苏省,扬州市,高邮市,32.7823084,119.4782967,,,
雨城区人民法院,四川省,雅安市,雨城区,30.0258275,103.0535825,,,
红岗区人民法院,黑龙江省,大庆市,红岗区,46.394674,124.8814452,,,
汉中市汉台区人民法院,陕西省,汉中市,汉台区,33.0667586,107.0478716,,,
德保县人民法院,广西壮族自治区,百色市,德保县,23.3195532,106.5967756,,,
安顺西秀区人民法院,贵州省,安顺市,西秀区,26.2628013,105.9743873,,,
华安县人民法院,福建省,漳州市,华安县,24.9964764,117.5216502,,,
遂平县人民法院,河南省,驻马店市,遂平县,33.1243525,114.002734,,,
深圳市中级人民法院,广东省,深圳市,福田区,22.5620098,114.0615357,,,
江安县人民法院,四川省,宜宾市,江安县,28.7269046,105.0686826,,,
贵定县人民法院,贵州省,黔南布依族苗族自治州,贵定县,26.545801,107.2414528,,,
麻江县人民法院谷硐法庭,贵州省,黔东南苗族侗族自治州,麻江县,26.4855991,107.4484913,,,
望城区人民法院,湖南省,长沙市,望城区,28.3653804,112.8150281,,,
莎车县人民法院,新疆维吾尔自治区,喀什地区,莎车县,38.3894802,77.239831,,,
十堰市茅箭区人民法院,湖北省,十堰市,茅箭区,32.6095005,110.7941976,,,
宣州区人民法院,安徽省,宣城市,宣州区,30.9571924,118.7771288,,,
静宁县法院,甘肃省,平凉市,静宁县,35.5284809,105.730746,,,
和龙市人民法院,吉林省,延边朝鲜族自治州,和龙市,42.5548058,129.0070199,,,
石棉县人民法院,四川省,雅安市,石棉县,29.2300397,102.3604451,,,
河北省玉田县人民法院石臼窝人民法庭,河北省,唐山市,玉田县,39.6684348,117.686021,,,
安达市人民法院,黑龙江省,绥化市,安达市,46.448289,125.2981155,,,
闽清县法院集资楼小区,福建省,福州市,闽清县,26.2232893,118.8654563,,,
闽清县人民法院,福建省,福州市,闽清县,26.1952463,118.8752272,,,
龙圩区人民法院,广西壮族自治区,梧州市,龙圩区,23.3842088,111.2342623,,,
漯河市召陵区人民法院,河南省,漯河市,召陵区,33.5906101,114.0895154,,,
广州市天河区人民法院,广东省,广州市,天河区,23.1132556,113.4001682,,,
肥西县人民法院,安徽省,合肥市,肥西县,31.7257042,117.1553085,,,
彭州市人民法院,四川省,成都市,彭州市,30.9995662,103.9637864,,,
合江县人民法院,四川省,泸州市,合江县,28.8232097,105.8135334,,,
禅城区人民法院东区,广东省,佛山市,禅城区,23.018556,113.1034598,,,
禅城区人民法院西区,广东省,佛山市,禅城区,23.0182622,113.1026186,,,
莱阳市人民法院,山东省,烟台市,莱阳市,36.9488382,120.6935912,,,
四会市人民法院,广东省,肇庆市,四会市,23.3305307,112.7245102,,,
历城区人民法院鲍山法庭,山东省,济南市,历城区,36.7424924,117.171954,,,
万秀区人民法院,广西壮族自治区,梧州市,万秀区,23.4865495,111.2849317,,,
中卫市沙坡头区人民法院,宁夏回族自治区,中卫市,沙坡头区,37.5017703,105.1946081,,,
中卫市沙坡头区人民法院,宁夏回族自治区,中卫市,沙坡头区,37.5017823,105.1946681,,,
资溪县人民法院,江西省,抚州市,资溪县,27.721503,117.0655394,,,
大理市人民法院,云南省,大理白族自治州,大理市,25.5960237,100.2452832,,,
贺兰县人民法院,宁夏回族自治区,银川市,贺兰县,38.5794739,106.356139,,,
贺兰县人民法院,宁夏回族自治区,银川市,贺兰县,38.5794452,106.3560933,,,
贺兰县人民法院信访接待中心,宁夏回族自治区,银川市,贺兰县,38.5794855,106.3570383,,,
明光市人民法院,安徽省,滁州市,明光市,32.7860062,118.0165985,,,
南昌市西湖区人民法院,浙江省,杭州市,西湖区,28.6768937,115.8877227,,,
绥化市北林区人民法院,黑龙江省,绥化市,北林区,46.6561807,126.9710675,,,
都兰县人民法院,青海省,海西蒙古族藏族自治州,都兰县,36.3113361,98.0956489,,,
都兰县人民法院,青海省,海西蒙古族藏族自治州,都兰县,36.3116277,98.0949088,,,
都兰县人民法院,青海省,海西蒙古族藏族自治州,都兰县,36.3115611,98.0957399,,,
岳池县人民法院,四川省,广安市,岳池县,30.5355141,106.4555567,,http://gaycfy.scssfw.gov.cn,
双流区人民法院,四川省,成都市,双流区,30.5839704,103.8974819,,,
双流区人民法院,四川省,成都市,双流区,30.5837438,103.8974728,,,
东安区人民法院,黑龙江省,牡丹江市,东安区,44.5427206,129.6228888,,,
阳明区人民法院,黑龙江省,牡丹江市,阳明区,44.6003215,129.6753225,,,
北林区法院小区,黑龙江省,绥化市,北林区,46.6349478,126.97443,,,
大同市云冈区人民法院,山西省,大同市,云冈区,40.0290532,113.2008675,,,
光泽县法院,福建省,南平市,光泽县,27.5367869,117.3306793,,,
含山县人民法院塔岗人民法庭,安徽省,马鞍山市,含山县,31.5010651,118.0847146,,,
什邡市人民法院,四川省,德阳市,什邡市,31.1236385,104.182166,,,
长乐区人民法院,福建省,福州市,长乐区,25.9564361,119.4963125,,,
大庆市让胡路区人民法院,黑龙江省,大庆市,让胡路区,46.6160853,124.8505652,,,
邹平市人民法院,山东省,滨州市,邹平市,36.8630808,117.7389613,,,
滕州市人民法院龙泉法庭,山东省,枣庄市,滕州市,35.1007198,117.1574427,,,
丰南区人民法院,河北省,唐山市,丰南区,39.5749475,118.0769466,,,
温县人民法院,河南省,焦作市,温县,34.9426246,113.0957169,,,
海宁市人民法院盐官人民法庭,浙江省,嘉兴市,海宁市,30.4108954,120.5453299,,,
墨江哈尼族自治县人民法院,云南省,普洱市,墨江哈尼族自治县,23.4278869,101.6832979,,,
涧西区人民法院,河南省,洛阳市,涧西区,34.655094,112.3417027,,,
佳木斯市郊区人民法院,山西省,阳泉市,郊区,46.796756,130.3041906,,,
佳木斯市向阳区人民法院,黑龙江省,鹤岗市,向阳区,46.7814042,130.3732178,,,
延边州中级人民法院,吉林省,延边朝鲜族自治州,延吉市,42.8871939,129.4048024,,,
岱山县人民法院共享法庭,浙江省,舟山市,岱山县,30.2672407,122.221302,,,
济南市济阳区人民法院,山东省,济南市,济阳区,36.9638545,117.1698308,,,
岱山县人民法院,浙江省,舟山市,岱山县,30.2637084,122.2175923,,,
岱山县人民法院,浙江省,舟山市,岱山县,30.263883,122.2175496,,,
宁波市鄞州区人民法院,浙江省,宁波市,鄞州区,29.8196591,121.5357885,,,
苏尼特左旗人民法院,内蒙古自治区,锡林郭勒盟,苏尼特左旗,43.8549667,113.6436793,,,
嘉善县人民法院,浙江省,嘉兴市,嘉善县,30.8379448,120.9171621,,,
云梦县人民法院,湖北省,孝感市,云梦县,31.0179593,113.7619281,,,
义县法院,辽宁省,锦州市,义县,41.5215658,121.2353925,,,
安仁县人民法院,湖南省,郴州市,安仁县,26.7249214,113.2611371,,,
平顶山市新华区人民法院,河北省,石家庄市,新华区,33.7454355,113.2184032,,,
玉州区人民法院,广西壮族自治区,玉林市,玉州区,22.642308,110.1314379,,,
龙井市人民法院,吉林省,延边朝鲜族自治州,龙井市,42.7728618,129.4023528,,,
尉氏县人民法院,河南省,开封市,尉氏县,34.4214146,114.1956259,,,
界首市人民法院,安徽省,阜阳市,界首市,33.2456674,115.3887279,,,
广州市黄埔区人民法院东院区,广东省,广州市,黄埔区,23.1092588,113.456598,,,
敖汉旗人民法院,内蒙古自治区,赤峰市,敖汉旗,42.2912592,119.9162637,,,
中方县人民法院泸阳人民法庭,湖南省,怀化市,中方县,27.6145603,110.1068905,,,
成都市锦江区人民法院,四川省,成都市,锦江区,30.631151,104.0978531,,,
黄州区人民法院,湖北省,黄冈市,黄州区,30.4639928,114.8886901,,,
金牛区人民法院营门口人民法庭,四川省,成都市,金牛区,30.693031,104.0373385,,,
成都市金牛区人民法院,四川省,成都市,金牛区,30.708149,104.0396453,,,
成都市金牛区人民法院沙河源人民法庭,四川省,成都市,金牛区,30.7164286,104.0452344,,,
光明区人民法院,广东省,深圳市,光明区,22.7371006,113.9184906,,,
连云港市海州区人民法院,辽宁省,阜新市,海州区,34.572404,119.1537311,,,
尖山区人民法院,黑龙江省,双鸭山市,尖山区,46.6759043,131.129206,,,
定远县人民法院,安徽省,滁州市,定远县,32.5341119,117.6972174,,,
铜陵市义安区人民法院,安徽省,铜陵市,义安区,30.950416,117.9339375,,,
沭阳县中级人民法院,江苏省,宿迁市,沭阳县,34.1165465,118.7635152,,,
长沙县人民法院宿舍,湖南省,长沙市,长沙县,28.251912,113.0712037,,,
惠济区人民法院,河南省,郑州市,惠济区,34.8907726,113.5910255,,,
仓山区人民法院,福建省,福州市,仓山区,26.0497293,119.25054,,,
涟水县人民法院陈师人民法庭,江苏省,淮安市,涟水县,33.7777782,119.1531782,,,
连江县人民法院,福建省,福州市,连江县,26.2116864,119.5350072,,,
民权县人民法院,河南省,商丘市,民权县,34.6491189,115.1766473,,,
五华区人民法院-北门人民法庭,云南省,昆明市,五华区,25.0482578,102.7102599,,,
和田市人民法院,新疆维吾尔自治区,和田地区,和田市,37.085509,79.9288409,,,
墨玉县人民法院,新疆维吾尔自治区,和田地区,墨玉县,37.2749682,79.7240276,,,
延吉市人民法院朝阳川法庭,吉林省,延边朝鲜族自治州,延吉市,42.8789509,129.3767283,,,
上犹县人民法院,江西省,赣州市,上犹县,25.7869656,114.5369008,,,
龙陵县人民法院,云南省,保山市,龙陵县,24.5932194,98.699702,,,
将乐县法院,福建省,三明市,将乐县,26.7197488,117.4748222,,,
汪清县人民法院,吉林省,延边朝鲜族自治州,汪清县,43.3229698,129.7695559,,,
宝应县人民法院,江苏省,扬州市,宝应县,33.217124,119.3393407,,,
乌鲁木齐县人民法院,新疆维吾尔自治区,乌鲁木齐市,乌鲁木齐县,43.5094557,87.4638287,,,
珲春市人民法院,吉林省,延边朝鲜族自治州,珲春市,42.8873371,130.3798061,,,
丰城市人民法院荣塘法庭,江西省,宜春市,丰城市,28.1611628,115.7344379,,,
昔阳县人民法院,山西省,晋中市,昔阳县,37.6001457,113.7023561,,,
云县人民法院,云南省,临沧市,云县,24.4394064,100.1204544,,,
德安县人民法院,江西省,九江市,德安县,29.3146879,115.760398,,,
桦南县人民法院,黑龙江省,佳木斯市,桦南县,46.2414769,130.5472721,,,
广宁县人民法院,广东省,肇庆市,广宁县,23.6308069,112.4143773,,,
南海区人民法院桂城人民法庭,广东省,佛山市,南海区,23.0368517,113.1929557,,,
瑞昌市人民法院,江西省,九江市,瑞昌市,29.6689364,115.6692908,,,
梁河县人民法院,云南省,德宏傣族景颇族自治州,梁河县,24.8169845,98.307427,,,
娄星区人民法院,湖南省,娄底市,娄星区,27.6963212,112.0022352,,,
北京市东城区人民法院,山西省,阳泉市,城区,39.8600884,116.4043293,,,
青山湖区人民法院湖坊人民法庭,江西省,南昌市,青山湖区,28.6644222,115.9481818,,,
南京市溧水区人民法院,江苏省,南京市,溧水区,31.6508215,119.0124122,,,
南昌市东湖区人民法院,江西省,南昌市,东湖区,28.7035596,115.8950306,,,
崇义县人民法院,江西省,赣州市,崇义县,25.6809879,114.3033329,,,
榆社县人民法院,山西省,晋中市,榆社县,37.0766906,112.9808117,,,
岳阳市云溪区人民法院南山法庭,湖南省,岳阳市,云溪区,29.5293444,113.3583865,,,
建华区人民法院,黑龙江省,建华区,建华区,47.348781,123.9599215,,,
庐阳区人民法院,安徽省,合肥市,庐阳区,31.899813,117.2495837,,,
江南区人民法院吴圩人民法庭,广西壮族自治区,南宁市,江南区,22.6539081,108.2093605,,,
翁牛特旗人民法院,内蒙古自治区,赤峰市,翁牛特旗,42.9222281,118.9925668,,,
鄂托克前旗人民法院,内蒙古自治区,鄂尔多斯市,鄂托克前旗,38.1716598,107.467459,,,
贡山独龙族怒族自治县人民法院,云南省,怒江傈僳族自治州,贡山独龙族怒族自治县,27.7367416,98.6697979,,,
泸县人民法院,四川省,泸州市,泸县,29.1568935,105.3779975,,,
南山区人民法院西丽人民法庭,黑龙江省,深圳市,南山区,22.582384,113.9500781,,,
嘉兴市南湖区人民法院,浙江省,嘉兴市,南湖区,30.7520012,120.7833321,,,
阳泉市矿区人民法院,山西省,阳泉市,矿区,37.8771346,113.5120283,,,
潍坊市潍城区人民法院,山东省,潍坊市,潍城区,36.7212387,119.0749834,,,
哈尔滨市双城区人民法院,黑龙江省,哈尔滨市,双城区,45.3831991,126.3297452,,,
南海区人民法院狮山人民法庭,广东省,佛山市,南海区,23.1242738,113.0067052,,,
宁国市人民法院,安徽省,宣城市,宁国市,30.6562191,118.9743362,,,
阳泉市郊区人民法院,山西省,阳泉市,郊区,37.9426657,113.5929988,,,
湛河区人民法院,河南省,平顶山市,湛河区,33.724818,113.3294012,,,
湛河区法院家属院,河南省,平顶山市,湛河区,33.7247963,113.3287974,,,
伊宁市人民法院,新疆维吾尔自治区,伊犁哈萨克自治州,伊宁市,43.9446597,81.2359712,,,
宝安区人民法院,广东省,深圳市,宝安区,22.5595502,113.9059463,,https://www.bafy.gov.cn/,
南部县人民法院,四川省,南充市,南部县,31.3469449,106.0181965,,,
宝安区人民法院新安人民法庭,广东省,深圳市,宝安区,22.5732292,113.8900521,,,
鹤山市人民法院,广东省,江门市,鹤山市,22.7792423,112.9746902,,,
富锦市人民法院,黑龙江省,佳木斯市,富锦市,47.2301993,132.010624,,,
谷城县人民法院,湖北省,襄阳市,谷城县,32.2606989,111.6253061,,,
陆河县人民法院,广东省,汕尾市,陆河县,23.2788149,115.6509846,,,
李沧区人民法院楼山人民法庭,山东省,青岛市,李沧区,36.1774316,120.3800637,,,
武威市凉州区人民法院,甘肃省,武威市,凉州区,37.9347912,102.609253,,,
红原县人民法院,四川省,阿坝藏族羌族自治州,红原县,32.7991818,102.5367661,,,
开平市人民法院苍城人民法庭,广东省,江门市,开平市,22.4835436,112.557054,,,
清新区人民法院,广东省,清远市,清新区,23.7389263,113.0111147,,,
鼎城区人民法院,湖南省,常德市,鼎城区,29.0017738,111.6562201,,,
日照市东港区人民法院三庄法庭,山东省,日照市,东港区,35.5033777,119.1712574,,,
洛龙区人民法院,河南省,洛阳市,洛龙区,34.6205158,112.4593495,,,
桥东区人民法院,河北省,张家口市,桥东区,37.0757543,114.5135834,,,
濮阳县人民法院,河南省,濮阳市,濮阳县,35.7125437,115.0260028,,,
阜城县人民法院,河北省,衡水市,阜城县,37.8655117,116.1684349,,,
永年区人民法院,河北省,邯郸市,永年区,36.7614742,114.4980703,,,
淇滨区人民法院,河南省,鹤壁市,淇滨区,35.7215094,114.2868546,,,
魏县人民法院,河北省,邯郸市,魏县,36.357488,114.950082,,,
中牟县人民法院,河南省,郑州市,中牟县,34.7215737,113.9629546,,,
金水区人民法院,河南省,郑州市,金水区,34.7766851,113.6601419,,,
蜀山区人民法院,安徽省,合肥市,蜀山区,31.8603427,117.1572191,,,
西区裁判法院大楼,四川省,攀枝花市,西区,22.2867729,114.1405714,,,
凤阳县人民法院,安徽省,滁州市,凤阳县,32.8771569,117.5226416,,,
天水市秦州区人民法院,甘肃省,天水市,秦州区,34.5659497,105.6482243,,,
河南省濮阳市中级人民法院审判法庭,河南省,濮阳市,华龙区,35.7978354,115.0120023,,,
耒阳市人民法院,湖南省,衡阳市,耒阳市,26.4108791,112.8004588,,,
涿鹿县人民法院,河北省,张家口市,涿鹿县,40.3779075,115.199933,,,
未央区人民法院,陕西省,西安市,未央区,34.3168728,109.015575,,,
宁波市海曙区人民法院,浙江省,宁波市,海曙区,29.8878623,121.5204806,,,
深圳市龙华区人民法院,广东省,深圳市,龙华区,22.7002334,113.9800953,,,
