name,province,city,district,latitude,longitude,full_address,website,phone
防城区法院,广西壮族自治区,防城港市,防城区,21.771322,108.3539996,,,
观塘裁判法院,,,,22.3097289,114.2293473,,,
思明法院站,,,,24.4779852,118.111169,,,
易门县人民法院,云南省,玉溪市,易门县,24.6762959,102.1549469,,,
怡乐美食广场,,,,38.8890079,121.5415919,,,
黄冈市中级人民法院,湖北省,黄冈市,,30.4592017,114.8929885,,,
金钟站 - 高等法院,,,,22.278399,114.163885,,,
蒋集法庭,,,,32.2958875,115.7648654,,,
区域法院,,,,22.2801815,114.1724028,,,
石湖墟街市熟食中心,,,,22.5021288,114.1307598,,,
联和墟街市熟食中心,,,,22.4999443,114.1444033,,,
中级法院,,,,32.0174899,120.8775436,,,
中级法院,,,,32.0168951,120.878015,,,
大新法庭,,,,33.1512787,115.5449567,,,
奥运村法庭,,,,40.0089099,116.3588276,,,
图们市人民法院,吉林省,延边朝鲜族自治州,图们市,42.9618132,129.8446466,,,
九江市中级人民法院,江西省,九江市,,29.7059323,116.0225892,,,
金湖县人民法院,江苏省,金湖县,金湖县,33.0087876,119.0139972,,,
泉港区人民法院,福建省,泉港,泉港区,25.1246197,118.9273075,,,
成华区人民法院,四川省,成都市,成华区,30.6808206,104.1181832,,,
柴桑区人民法院,江西省,九江市,柴桑区,29.6148056,115.910551,,,
辽宁省高级法院,辽宁省,,,41.8154618,123.4409858,,,
士美非路街市熟食中心,,,,22.2817106,114.1286851,,,
观塘法院,,,,22.3097371,114.229932,,,
观塘法院,,,,22.3097936,114.2298413,,,
观塘法院,,,,22.3098519,114.2297479,,,
广州市司法局,广东省,广州市,,23.1314184,113.2665549,,,
宁德市中级法院,福建省,宁德市,,26.654463,119.521937,"閩東西路8號 352100 寧德市, 福建省, 中國",,+86 593 282 2072
宁德市蕉城区法院,福建省,宁德市,蕉城区,26.6397453,119.5383134,"蕉城南路56號 352100 寧德市, 福建省, 中國",,+86 593 296 9020
市中级法院,,,,26.654334,119.521508,"寧德市, 福建省, 中國",,
安多县法院,西藏自治区,那曲市,安多县,32.2570167,91.6740509,,,
武夷山市法院,福建省,南平市,武夷山市,27.7538142,118.0255674,,,
法院门口,,,,28.6580765,121.2732895,,,
遵义市红花岗区人民法院,贵州省,遵义市,红花岗区,27.6614884,106.8963511,,,
遵义市绥阳县法院郑场法庭,贵州省,遵义市,绥阳县,27.8942007,107.2522742,,,
城步苗族自治县人民法院西岩人民法庭,湖南省,邵阳市,城步苗族自治县,26.6199168,110.4747468,,,
江岸区法院,湖北省,武汉市,江岸区,30.633454,114.2853666,,,
义乌市检察院,浙江省,金华市,义乌市,29.297758,120.0597455,,,
义乌市人民法院,浙江省,金华市,义乌市,29.2967561,120.05954,,,
胡族铺法庭,,,,32.1824556,115.4558089,,,
上城区法院自行车租赁点,浙江省,杭州市,上城区,30.21782,120.16932,,,
向塘镇人民法庭,,,,28.4378467,115.9591807,,,
红谷滩区人民法院生米法庭,江西省,南昌市,红谷滩区,28.5735385,115.7884473,,,
法院,,,,31.4115586,119.4743243,,,
法院,,,,31.4111264,119.4745532,,,
峡江县人民法院,江西省,吉安市,峡江县,27.5911935,115.3154144,,,
高银美食街,浙江省,杭州市,上城区,30.2427809,120.1627984,,,
寿司蛋挞果茶,,,,34.8424427,115.5470038,,,
观音人民法院,,,,29.0918532,104.3838732,,,
西部美食城,,,,36.2407414,117.1886749,,,
崇川区法院,江苏省,南通市,崇川区,32.0008945,120.8804185,工农路e(门北)通启路-虹桥路北135&南川园路南335,http://www.nantongbike.com/,
昌邑市人民法院,山东省,潍坊市,昌邑市,36.8419986,119.4048321,,,
粉岭法院大楼,,,,22.4956587,114.1396913,,,
思明法院站,,,,24.4782573,118.1112258,,,
新蔡县人民法院,河南省,驻马店市,新蔡县,32.7668443,114.9499958,,,
山西省高级人民法院,山西省,,,37.8400604,112.5265611,,,
吴山夜市,浙江省,杭州市,上城区,30.2553114,120.1642344,,,
市法院,,,,35.1116634,117.1567107,,,
市法院,,,,35.1112575,117.1567871,,,
营地街市熟食中心,,,,22.1944166,113.5398263,,,
连城县法院,福建省,龙岩市,连城县,25.7087349,116.73593,,,
连城县法院,福建省,龙岩市,连城县,25.7090506,116.736153,,,
七里河区法院,甘肃省,兰州市,七里河区,36.0871877,103.7303567,,,
七里河区法院,甘肃省,兰州市,七里河区,36.0873026,103.7306035,,,
法院路口,,,,34.5592209,105.8929789,,,
法院路口,,,,34.5592695,105.8926436,,,
成都高新区法院,,,,30.5974613,104.0626241,,,
李字号臭豆腐,,,,26.9024138,112.6086818,,,
观塘法院,,,,22.309777,114.2299533,,,
安宁区人民法院,甘肃省,兰州市,安宁区,36.09462,103.70204,富强路农大北门西北马路对面,,
高级人民法院,,,,36.10338,103.69261,建宁西路高院综合楼马路对面东南农村信用社附近,,
七里河人民法院,,,,36.07544,103.76273,任家庄街敦煌路法庭马路对,,
城关区法院,西藏自治区,拉萨市,城关区,36.05938,103.88329,雁滩路城关区法院大门西侧,,
县法院,,,,28.5431325,115.9319052,,,
县法院,,,,28.5432833,115.9327152,,,
定西市检察院,甘肃省,定西市,,35.5797715,104.6146927,,,
新建区人民法院大塘坪人民法庭,江西省,南昌市,新建区,28.9948574,115.9016009,,,
新建区人民检察院驻石岗检察室,江西省,南昌市,新建区,28.4487985,115.6254441,,,
江西省高级人民法院,江西省,,,28.7048752,115.8585703,,,
江西省南昌市中级人民法院,江西省,南昌市,,28.6772306,115.967938,,,
鄱阳县人民法院古县渡人民法庭,江西省,上饶市,鄱阳县,29.0889449,116.8682268,,,
温泉人民法庭,,,,29.4353304,115.9448127,,,
元宝街,,,,40.3134824,116.6278254,,,
蓟州区人民法院,天津市,蓟州区,,40.0520056,117.4263177,,,+86 22 8285 3001
天津市高级人民法院,天津市,,,39.1237585,117.1669104,,,
进贤县温圳人民法庭,江西省,南昌市,进贤县,28.3516007,116.079475,,,
湾里区人民法院旅游速裁法庭,,,,28.7949268,115.7496437,,,
安义县人民法院万埠人民法庭,江西省,南昌市,安义县,28.8561412,115.6549785,,,
安义县人民法院,江西省,南昌市,安义县,28.8449338,115.5415524,,,
安义县人民法院石鼻人民法庭,江西省,南昌市,安义县,28.7304699,115.567853,,,
Street food,,,,22.7725912,100.963534,,,
头屯河区人民法院,新疆维吾尔自治区,乌鲁木齐市,头屯河区,43.8771151,87.4210626,,,
资兴市人民法院,湖南省,资兴市,资兴市,25.9657229,113.2302988,,http://zxsfy.chinacourt.org/,
成都市高新区检察院,四川省,成都市,,30.5982358,104.0624743,,,
红桥法庭,,,,27.9657936,116.2523729,,,
新建区人民法院恒湖人民法庭,江西省,南昌市,新建区,29.0019932,116.076137,,,
新建区昌邑法庭,江西省,南昌市,新建区,28.9927864,116.0482165,,,
乌鲁克垦区司法局三十四团司法所,,,,40.643033,87.6920205,,,
农二师三十四团社区司法所,,,,40.6553511,87.8055128,,,
乌鲁克垦区人民法院米兰人民法庭,,,,39.241769,88.8966318,,,
乌鲁克垦区司法局三十六团司法所,,,,39.2422478,88.8974163,,,
农二师三十一团司法所,,,,40.8828003,86.950732,,,
乌鲁克垦区法院,,,,40.8323385,87.1926552,,,
且末县司法局塔提让司法所,新疆维吾尔自治区,巴音郭楞蒙古自治州,且末县,38.4667123,85.6991784,,,
轮台县司法局草湖乡司法所,新疆维吾尔自治区,巴音郭楞蒙古自治州,轮台县,41.668468,84.3221604,,,
静安区人民法院,上海市,静安区,,31.2917234,121.4475845,,,
静安区人民法院登记立案厅,上海市,静安区,,31.2331354,121.4273639,,,
北京市第二中级人民法院第二审判区,北京市,,,39.8408314,116.4518173,,,
湖北省高级人民法院,湖北省,,,30.5571872,114.3163285,,,
騳街,,,,31.6839391,118.503982,,,
开发区法院,,,,31.937774,120.9134136,,https://www.ntbike.com/,
通州人民法院西侧,,,,32.0748576,121.0709598,,http://www.jsftkj.com/,
安宁法院,,,,36.0952446,103.749817,,,
原南昌市湾里区人民法院（旧）,江西省,南昌市,,28.7141917,115.7253402,,,
市中级法院,,,,23.6851284,113.0471463,,,
市中级法院,,,,23.6853805,113.0468241,,,
双源群宴广场,,,,30.5543318,104.0274241,,,
食堂,,,,30.6716518,104.0088887,,,
食堂,,,,30.6697656,104.0105787,,,
龙泉驿区法院,四川省,成都市,龙泉驿区,30.5700115,104.2637497,,,
潢溪镇司法所,,,,28.3344567,116.8789888,,,
余江县平定法庭,,,,28.2996953,116.8848967,,,
余江县锦江人民法庭,,,,28.4055129,116.9086618,,,
Underground Foodcourt,,,,22.605236,113.8409749,,,
南昌县泾口乡司法所,江西省,南昌市,南昌县,28.649811,116.1610892,,,
大食代,,,,22.2975357,114.1693679,,,
陇县法院,陕西省,宝鸡市,陇县,34.8935147,106.8587404,,,
四川省布拖县人民法院,四川省,凉山彝族自治州,布拖县,27.7133503,102.8054742,,,
B15美食广场,,,,22.6536642,114.0440348,,,
E10a餐厅广场,,,,22.659512,114.0464184,,,
市政大厦(市中级法院),,,,33.7643676,113.1890743,,,
市中级法院(市政大厦),,,,33.7639954,113.1909149,,,
日本关东法院旧址,,,,38.8153315,121.2631614,,,
渣华道街市熟食中心,,,,22.2923623,114.1995102,,,
临泉县人民法院,安徽省,阜阳市,临泉县,33.0488117,115.263134,,,
初级法院刑事大楼,,,,22.1845492,113.5375231,,,
陇川县人民法院,云南省,德宏傣族景颇族自治州,陇川县,24.1722508,97.7940865,,,
梁河县初级人民法院,云南省,德宏傣族景颇族自治州,梁河县,24.8083422,98.2977615,,,
天津市第二中级人民法院,天津市,,,39.0957932,117.2293174,,,
江陵县法院,湖北省,荆州市,江陵县,30.039986,112.4189061,,,
进贤县人民法院梅庄法庭,江西省,南昌市,进贤县,28.5851058,116.4115888,,,
六祖镇人民法庭,,,,22.6052989,112.2129342,,,
百老汇美食街,,,,22.1465608,113.5515732,,,
丽香园,,,,34.7843056,116.1101286,,,
七彩美食城,,,,30.1939441,120.1719863,,,
天津市第一中级人民法院,天津市,,,39.1362986,117.178157,,,
新兴县司法所,广东省,云浮市,新兴县,22.6968639,112.2286929,,,
南木林县司法局,西藏自治区,日喀则市,南木林县,29.686198,89.0992123,,,
措勤县人民法院,西藏自治区,阿里地区,措勤县,31.0171409,85.152508,,,
Tsui Ping Market Food Court,,,,22.315503,114.2297862,,,
观塘法院,,,,22.3098365,114.2298751,,,
中山路壹号,,,,36.0629829,120.3142565,,,
三江人民法庭,,,,28.2995536,115.9991026,,,
财大美食街,,,,30.6870203,103.8260277,,,
检察院,,,,47.0502226,130.2773365,,,
市法院,,,,36.6645945,116.9997576,,,
市法院,,,,36.6644032,117.0003451,,,
天津市河东区人民法院,山东省,临沂市,河东区,39.1166941,117.2311465,,,
老城隍庙小吃广场,,,,31.2279058,121.4872322,,,
徐州市泉山区人民法院,江苏省,徐州市,泉山区,34.2186164,117.1668436,,,
广州市海珠区司法局,广东省,广州市,海珠区,23.1065284,113.2537548,,,
北京石油化工学院体育馆小卖部,,,,39.7474196,116.3191205,,,
旺角美食城,,,,40.0003258,116.4572474,,,
沈南烧烤城,,,,41.6601983,123.3337234,,,
张家界市中级人民法院,湖南省,张家界市,,29.1210676,110.5179655,,,
资阳市小院法庭,四川省,资阳市,,29.9976604,104.8854533,,,
翠青食堂（地下）,,,,39.9732246,116.2495788,,,
法院,,,,30.6805722,121.0173922,,,
鸭脷洲街市熟食中心,,,,22.2444545,114.1552301,,,
富阳区法院,浙江省,杭州市,富阳区,30.0631562,119.9378809,,,
富阳区法院,浙江省,杭州市,富阳区,30.0629024,119.9376703,,,
沙洋人民法院社区,,,,30.7195547,112.5837493,,,
沙洋人民法院社区,,,,30.7200435,112.5791734,,,
云浮市法院宿舍,广东省,云浮市,,22.9235755,112.0344192,,,
长武县人民法院,陕西省,咸阳市,长武县,35.2122333,107.7764848,,,
人民检察院,,,,35.2157517,107.7757319,,,
司法所,,,,29.399692,108.7348732,,,
江门市中级人民法院,广东省,江门市,,22.6240692,113.0837743,,,
江门市人民检察院,广东省,江门市,,22.6240348,113.0855196,,,
新会区人民法院,广东省,江门市,新会区,22.4611213,113.0259723,,,
临平区人民法院,浙江省,杭州市,临平区,30.4088523,120.2982426,,,
临平区人民法院,浙江省,杭州市,临平区,30.4073888,120.2960271,,,
劝业场美食城,,,,44.5778822,129.613522,,,
东一商场二楼美食城,,,,44.5807175,129.6131012,,,
鸡西市中级人民法院,黑龙江省,鸡西市,,45.2808882,130.9514061,,,
检察院,,,,45.2813789,130.948799,,,
自留地私房菜餐厅,,,,22.5784539,113.0414251,,,
新会法院,,,,22.4611206,113.0259705,,,
鸡冠区法院,黑龙江省,鸡西市,鸡冠区,45.285406,130.9401287,,,
鸡冠区检察院,黑龙江省,鸡西市,鸡冠区,45.2856849,130.9429034,,,
益阳市大通湖区人民法院,湖南省,益阳市,,29.1940686,112.6277733,,,
仓后审判庭,,,,22.59056,113.0707223,,,
桐柏县人民法院安棚人民法院,河南省,南阳市,桐柏县,32.5817112,113.1644855,,,
堂前食坊,,,,22.304271,114.1657566,,,
中山市古镇法庭,广东省,中山市,,22.6159383,113.1869769,,,
赣州市中级法院,江西省,赣州市,,25.8476273,114.9195098,,,
章贡区人民法院,江西省,赣州市,章贡区,25.8253578,114.9177057,,,
祐汉熟食中心,,,,22.2111634,113.5518138,,,
下环街市熟食中心,,,,22.1908787,113.5346104,,,
圣堂人民法庭,,,,22.3014334,112.4118579,,,
雨湖区人民法院,湖南省,湘潭市,雨湖区,27.9613713,112.8554316,,,
马金法庭,,,,29.2971074,118.4094404,,,
雨湖法院餐厅,,,,27.8791517,112.8983821,,,
雨湖司法局,,,,27.8729766,112.8990328,,,
开平市人民法院水口人民法庭,广东省,江门市,开平市,22.4447754,112.7741802,,,
丹灶法院,,,,23.0566428,112.9201627,,,
丹灶法院,,,,23.0559525,112.9203052,,,
丹灶法院,,,,23.0552919,112.9167543,,,
新疆生产建设兵团第十师中级人民法院,,,,47.3265923,87.8353018,,,
新疆生产建设兵团人民检察院第十师分院,,,,47.3281012,87.8292346,,,
兰花苑餐厅,,,,25.6787727,100.1530079,,,
会城法庭,,,,22.5354802,113.0300339,,,
和乐海鲜大排档,,,,36.9347544,121.9153347,,,
蓬江法院环市审判庭,,,,22.5920325,113.0734715,,,
蓬江区法院东区审判庭,广东省,江门市,蓬江区,22.5991834,113.0894252,,,
象山县法院西周法庭,浙江省,宁波市,象山县,29.4840175,121.6685106,,,
婺源县人民法院,江西省,上饶市,婺源县,29.2628769,117.8418689,,,
开平市人民法院,广东省,江门市,开平市,22.3703318,112.7061424,,,
东莞市第一人民法院-松山湖人民法庭,广东省,东莞市,,22.9149656,113.8568158,,,
法院,,,,29.1263209,118.4019649,,,
榆林市人民法院,陕西省,榆林市,,38.2852094,109.7292288,,,
法院,,,,26.8884388,117.1577439,,,
法院,,,,26.8882644,117.1578193,,,
食遇,,,,31.222121,121.3547129,,,
信宜市人民法院北界人民法庭,广东省,茂名市,信宜市,22.3093076,110.8329835,,,
中级法院,,,,35.7320576,114.2834749,,,
青州市人民法院,山东省,潍坊市,青州市,36.6874356,118.4984979,,,
美食广场,,,,26.8756755,100.2333438,,,
洛门人民法庭,,,,34.755671,105.015808,,,
Dihuang 帝煌烤卤,江西省,南昌市,西湖区,28.6774949,115.8947935,,,
中山市第二市区人民检察院,广东省,中山市,小榄镇,22.6517189,113.2349796,,,
法院庭闸,,,,22.2808788,114.1544966,,,
九龙城街市熟食中心,,,,22.3294134,114.1890167,,,+852-2711-2493
昌邑市人民检察院,山东省,潍坊市,昌邑市,36.8423236,119.3984556,,,
职工餐厅,,,,25.604049,100.2156877,,,
对外服务一餐厅,,,,25.6041421,100.2158232,,,
对外服务二餐厅,,,,25.6039752,100.2159144,,,
法院路口,,,,27.2369876,119.8877883,,,
井冈山市人民法院,江西省,吉安市,井冈山市,26.7519662,114.2825917,,,
中山市第二人民法院,广东省,中山市,,22.6525971,113.2334576,,,
法院,,,,31.7342239,118.0934052,,,
东丰县人民法院执行局,吉林省,辽源市,东丰县,42.6854833,125.5144895,,,
东丰县人民法院,吉林省,辽源市,东丰县,42.6850613,125.5149508,,,
市法院,,,,23.0819591,112.5013638,,,
福州市中级人民法院,福建省,福州市,,26.0475905,119.2719213,,,
初级法院,,,,22.191481,113.5413916,,,
市法院,,,,23.0794219,112.5011469,,,
防城区人民法院大菉人民法庭,广西壮族自治区,防城港市,防城区,21.8630081,108.1250703,,,
含蕴,,,,29.8202198,106.4153376,,,
小吃部,,,,29.8192288,106.4161056,,,
城市市集,,,,39.9490851,116.4611024,,,
清徐县人民法院徐沟人民法庭,山西省,太原市,清徐县,37.5639044,112.4978333,,,
龙华法院,,,,22.701109,113.9793162,,,
龙华法院,,,,22.7007558,113.9793528,,,
新巴尔虎左旗人民法院,内蒙古自治区,呼伦贝尔市,新巴尔虎左旗,48.2250117,118.262671,,,
两江法院,,,,25.2032584,110.0263313,,,
兰州仲裁,,,,36.0565793,103.8262695,,,
青岛海事法院威海法庭,,,,37.4224066,122.1742439,,,
饶平县人民法院,广东省,潮州市,饶平县,23.6686665,116.9806489,,,
饶平县人民检察院,广东省,潮州市,饶平县,23.6742488,116.9718874,,,
里庄人民法庭,,,,28.2297447,101.8569669,,,
若尔盖县人民法院铁布人民法庭,四川省,阿坝藏族羌族自治州,若尔盖县,34.0969075,103.105805,,,
行政法院,,,,22.192394,113.5404461,,,
丰园餐厅,,,,39.9962317,116.3416113,,,
书院路人民法庭,,,,27.8210427,112.9183322,,,
庄河市人民法院,辽宁省,大连市,庄河市,39.6781841,122.9642162,,,
德奕棋院,,,,27.8113334,112.9171756,,,
香鸡城,,,,23.1242232,113.2894257,,,
宿城区法院,江苏省,宿迁市,宿城区,33.9614588,118.2348659,,,
宿城区法院,江苏省,宿迁市,宿城区,33.9616952,118.2330404,,,
瓯海区人民法院,浙江省,温州市,瓯海区,27.9704467,120.6092163,,,
徽县人民法院,甘肃省,陇南市,徽县,33.7890809,106.0641056,,,
礼县法院,甘肃省,陇南市,礼县,34.1884994,105.1872354,,,
古丁镇人民法院,,,,22.150963,111.1825446,,,
防城区法院,广西壮族自治区,防城港市,防城区,21.7712423,108.354249,,,
市中级法院,,,,30.4588865,114.8928362,,,
市中级法院,,,,30.4588865,114.8932251,,,
铁锋区人民法院,黑龙江省,龙华街道,齐齐哈尔市,47.3323324,123.9635748,,,
中级人民法院,,,,29.082948,119.6383808,,,
中级人民法院,,,,29.0825615,119.6381768,,,
南开人民法院执行庭,,,,39.1059592,117.1331669,,,
天津市河西区人民法院,四川省,攀枝花市,西区,39.10246,117.2070063,,,
沧源佤族自治县人民法院,云南省,临沧市,沧源佤族自治县,23.1575526,99.2577217,,,
茂南区法院,广东省,茂名市,茂南区,21.6668873,110.9084882,,,
茂南区法院,广东省,茂名市,茂南区,21.6667412,110.9082431,,,
千阳县人民法院,陕西省,宝鸡市,千阳县,34.6430437,107.1295038,,,
西楚生活广场,,,,33.9058458,118.242781,,,
第二审判庭,,,,44.8320594,126.5297206,,,
美食广场,,,,39.8539113,116.6785035,,,
马陵夜市美食广场,,,,33.9587357,118.2914,,,
楼德镇人民法庭,,,,35.8678982,117.2967888,,,
古塔夜市,,,,41.1117737,121.1332398,,,
凌河夜市,,,,41.1117859,121.1340032,,,
乐陵市司法局,山东省,德州市,乐陵市,37.7364223,117.2080536,,,
洋河人民法庭,,,,33.7834659,118.3472155,,,
More Than Eat,,,,31.2223739,121.4470824,,,
昌邑公共自行车(人民法院站),,,,36.8418204,119.4037459,,,
天津市滨海新区人民法院,天津市,滨海新区,,39.020575,117.6995571,,,
市法院,,,,36.6643561,117.0003968,,,
龙江人民法庭,,,,22.8710595,113.0660044,,,
市法院,,,,36.66463,116.9997205,,,
人民法院（老年活动中心）,,,,28.8015046,113.099727,,,
鱼梁洲旅游开发区人民法院,,,,32.0473327,112.1822219,,,
四海司法所,,,,40.5216082,116.4034777,,,
市法院,,,,36.6647964,117.0010737,,,
市法院,,,,36.6647848,117.0011919,,,
成武县人民法院,山东省,菏泽市,成武县,34.9506616,115.8874357,,,
中级法院,,,,22.5628681,114.062654,,,
中级法院,,,,22.5634082,114.0622885,,,
航天桥食宝街,,,,39.9236347,116.3055267,,,
广州市番禺区人民法院大学城法庭,广东省,广州市,番禺区,23.0364548,113.4160241,,,
鹤山市人民法院龙口法庭,广东省,江门市,鹤山市,22.7812456,112.9180825,,,
食光花园美食广场,,,,39.9322041,116.3034763,,,
屯昌县人民法院南坤庭,海南省,屯昌县,南坤镇,19.3215744,109.9565882,,,
宝安法院北,,,,22.559075,113.9047446,,,
宝安法院北,,,,22.5587667,113.9046372,,,
宝安法院,,,,22.5589053,113.9072058,,,
宝安法院,,,,22.5593718,113.9065093,,,
节庆广场,,,,38.0452882,112.644478,,,
永兴美食园,,,,16.8327726,112.3349675,,,
宿迁市中级人民法院,江苏省,宿迁市,,33.9625568,118.2577011,,,
葡京人夜市,,,,22.1421061,113.5731399,,,
鹅颈熟食中心,,,,22.2780917,114.1804576,,,
宿豫区人民检察院,江苏省,宿迁市,宿豫区,33.9528537,118.322421,,,
宿豫区人民法院,江苏省,宿迁市,宿豫区,33.951371,118.3276148,,,
宿城区人民法院,江苏省,宿迁市,宿城区,33.9609021,118.2349433,,,
宿城区人民检察院,江苏省,宿迁市,宿城区,33.9600604,118.2350684,,,
县法院,,,,35.8586222,106.6231674,,,
县法院,,,,35.8585092,106.6226792,,,
天宁区法院/天宁区检察院,江苏省,常州市,天宁区,31.7918958,119.9926117,,,
天宁区法院/天宁区检察院,江苏省,常州市,天宁区,31.7924537,119.9933104,,,
银座美食广场,,,,33.9551119,118.2935813,,,
河堤夜市,,,,22.7634169,108.4794197,,,
鹤山法院鹤城法庭,,,,22.6243291,112.8355749,,,
合水县人民法院,甘肃省,庆阳市,合水县,35.8273519,108.013882,,,
柳江区人民法院,广西壮族自治区,柳州市,柳江区,24.2508253,109.3317965,,,
南沙区人民法院万顷沙人民法庭,广东省,广州市,南沙区,22.7119468,113.5459739,,,
怀柔区人民法院庙城法庭,北京市,怀柔区,,40.2903838,116.6288956,,,
沙石人民法院,,,,25.8267968,114.9742252,,,
丝路餐厅,,,,31.1804466,121.5929943,,,
尚科美食广场,,,,31.1793061,121.592596,,,
白玉兰餐厅,,,,31.1785947,121.5922755,,,
玉龙县法院,,,,26.8276545,100.2337005,,,
固安县人民法院,河北省,廊坊市,固安县,39.4408319,116.2951345,,,
英那河水库灌区巡回法庭,,,,39.7658854,123.0713103,,,
新建县南矶司法所,,,,28.9483399,116.3540608,,,
新会区人民法院大泽法庭,广东省,江门市,大泽镇,22.5185432,112.9292409,,,
华龙区法院,河南省,濮阳市,华龙区,35.7777725,115.0711042,,,
华龙区法院,河南省,濮阳市,华龙区,35.7778962,115.0708217,,,
双河人民法院,,,,47.8644493,123.7527616,,,
阿尔山市人民法院,内蒙古自治区,兴安盟,阿尔山市,47.1833274,119.9333877,,,
华池县法院,甘肃省,庆阳市,华池县,36.4200239,107.9555405,,,
廊味坊熏鸡熟食,,,,39.9778166,116.3593944,,,
濮阳市华龙区人民法院,河南省,濮阳市,华龙区,35.777828,115.0705399,,,
华龙区人民法院执行局,河南省,濮阳市,华龙区,35.7879222,115.0736386,,,
体育场夜市,,,,35.7767553,115.0437227,,,
濮阳市华龙区人民法院中原人民法庭,河南省,濮阳市,华龙区,35.7759318,115.059589,,,
环县人民法院,甘肃省,庆阳市,环县,36.5669647,107.2992423,,,
桂林市七星区人民法院,广西壮族自治区,桂林市,七星区,25.2595373,110.3200521,,,
南乐县人民法院,河南省,濮阳市,南乐县,36.0579443,115.1992508,,,
台前县人民法院,河南省,濮阳市,台前县,35.9675173,115.8688549,,,
崇义县人民法院,江西省,赣州市,崇义县,25.6809585,114.3033886,,,
瓯海法院,,,,27.9715733,120.6091495,,,
自助餐厅,,,,40.0783955,117.1403606,,,
金鼎小吃街,,,,29.2920312,117.2114608,,,
海凌食堂,,,,31.2782809,120.7370251,,,
市中级法院,,,,22.8068465,108.3679605,,,
市中级法院,,,,22.805771,108.3677191,,,
宏愿食堂,,,,31.2752587,120.7369664,,,
芭菲餐饮,,,,31.2750957,120.7351365,,,
宏愿食堂,,,,31.2721889,120.73604,,,
长清区法院,山东省,济南市,长清区,36.5520645,116.7520308,,,
长清区法院,山东省,济南市,长清区,36.5518856,116.7520469,,,
长清区法院,山东省,济南市,长清区,36.5519103,116.7520553,,,
长清区法院,山东省,济南市,长清区,36.5520399,116.7520192,,,
宿城区法院站,江苏省,宿迁市,宿城区,33.961449,118.2345448,,,
芝罘区法院 芝罘区检察院,山东省,烟台市,芝罘区,37.6026801,121.3703899,,,
芝罘区法院 芝罘区检察院,山东省,烟台市,芝罘区,37.6008302,121.3700463,,,
市中级人民法院,,,,35.7980642,115.0108481,,,
市中级人民法院,,,,35.7986035,115.0106147,,,
龙湾区人民法院,浙江省,温州市,龙湾区,27.9354246,120.8033332,,,
开发区法院,,,,37.5477921,121.2530436,,,
开发区法院,,,,37.5475715,121.2526845,,,
市中级人民法院,,,,37.5256987,121.3791709,,,
市中级人民法院,,,,37.5256645,121.3785424,,,
防城港市医患纠纷人民调解委员会,广西壮族自治区,防城港市,,21.7646307,108.3507098,,,
法院,,,,37.3179421,117.1508246,,,
法院,,,,37.318027,117.150819,,,
法院,,,,37.3178884,117.1510255,,,
法院,,,,37.31795,117.151028,,,
巿法院,,,,21.7114584,108.3592091,,,
巿法院,,,,21.7111718,108.3588624,,,
朝阳区人民法院亚运村人民法庭,吉林省,长春市,朝阳区,39.9700703,116.4327837,,,
芝罘区法院 芝罘区检察院,山东省,烟台市,芝罘区,37.6016268,121.3695663,,,
黄石港区人民法院,湖北省,黄石市,黄石港区,30.2317417,115.0494075,,,
荷塘法庭,,,,22.6508326,113.1252997,,,
昆明环境资源法庭,,,,24.9909013,102.6656521,,,
港区法院,,,,30.2311393,115.0503205,,,
泰州市中级人民法院,江苏省,泰州市,,32.4575761,119.922386,,,
泰州市海陵区人民法院,江苏省,泰州市,海陵区,32.4894785,119.9397537,,,
怀柔区人民法院执行庭,北京市,怀柔区,,40.3101846,116.6330599,,,
江阴法院,,,,31.9197726,120.291266,,,
江阴法院,,,,31.9198671,120.2906424,,,
渭南市临渭区人民法院,陕西省,渭南市,临渭区,34.5231978,109.4815822,,,
纳溪区法院,四川省,泸州市,纳溪区,28.7897683,105.3809103,,,
纳溪区法院,四川省,泸州市,纳溪区,28.7899881,105.3805965,,,
江阳区法院,四川省,泸州市,江阳区,28.8891671,105.3939056,,,
江阳区法院,四川省,泸州市,江阳区,28.889935,105.3936951,,,
渭南市临渭区人民法院高新法庭,陕西省,渭南市,临渭区,34.5034831,109.4334051,,,
银泰步行街,,,,27.5114981,120.4208225,,,
新会区人民法院崖门法庭,广东省,江门市,新会区,22.2994683,113.0521311,,,
阳春市人民法院春湾人民法庭,广东省,阳江市,阳春市,22.4543964,111.9491978,,,
市中级法院西,,,,28.6546362,121.418471,,,
市中级法院西,,,,28.6551187,121.4182323,,,
西九龙法院大楼,,,,22.33045,114.1537596,,,
西九龙法院大楼,,,,22.3304846,114.153715,,,
信宜市人民法院,广东省,茂名市,信宜市,22.3284554,110.9294572,,,
下庄法院,,,,25.4317889,100.7871003,,,
普宁市人民法院洪阳人民法庭,广东省,揭阳市,普宁市,23.4325129,116.2002833,,,
鸡西不夜城,,,,45.3110654,130.985306,,,
惠来县人民法院,广东省,揭阳市,惠来县,23.0255256,116.2978642,,,
法院,,,,37.8094491,120.7719272,,,
法院,,,,37.8098179,120.7716858,,,
高陂人民法庭,,,,24.1938575,116.6395585,,,
庐江法院,,,,31.2522217,117.3108369,,,
庐江法院,,,,31.2525107,117.3070952,,,
龙马潭区法院,四川省,泸州市,龙马潭区,28.9189197,105.4256442,,,
蓬江法院杜阮法庭,,,,22.6037212,113.0009813,,,
桥西法院,,,,40.778518,114.8686954,,,
桥西法院,,,,40.7777549,114.8688222,,,
广州互联网法院,广东省,广州市,海珠区,23.100617,113.3370845,,https://gzinternetcourt.gov.cn/,+86 20 3195 0526
京江大酒店(江都人民法院),,,,32.4111291,119.5815206,,,
京江大酒店(江都人民法院),,,,32.4114279,119.5847059,,,
留隍法庭,,,,23.9192305,116.4574128,,,
滑集人民法庭,,,,32.7431703,115.3888942,,,
河东人民法庭,,,,23.9284825,115.7772485,,,
华城人民法庭,,,,24.0711588,115.625138,,,
沙洲湖美食城,,,,31.8884347,120.5658845,,,
多彩夜沙洲,,,,31.8741227,120.5723776,,,
南安市人民法院,福建省,泉州市,南安市,24.9728539,118.4119523,,,
泉州市中级人民法院,福建省,泉州市,,24.8813081,118.6128437,,,
南昌市红谷滩区人民检察院,江西省,南昌市,红谷滩区,28.698816,115.7336897,,,
南昌市红谷滩区人民法院,江西省,南昌市,红谷滩区,28.6964285,115.7348844,,,
南昌市新建区人民法院招贤法庭,江西省,南昌市,新建区,28.6965663,115.7351183,,,
惠阳人民法院,,,,22.8312892,114.4690374,,,
惠阳人民法院,,,,22.8310116,114.4690701,,,
啦喜街美食广场,,,,30.1725859,120.1500841,,,
港口区人民法院,广西壮族自治区,防城港市,港口区,21.6455941,108.3789924,,,
桧溪人民法庭,,,,28.3236402,103.8775007,,,
中级法院,,,,32.0169102,120.8779229,,,
中级法院,,,,32.0174873,120.877625,,,
云食集美食广场,,,,32.0405297,118.6375291,,,
九州假日广场,,,,42.2672319,86.861469,,,
深圳市深汕特别合作区人民法院,广东省,深圳市,,22.8294521,115.0348685,,,
深圳市深汕特别合作区劳动人事争议仲裁院,广东省,深圳市,,22.8302588,115.0362562,,,
海事法院,,,,38.918148,121.6700403,,,
海事法院,,,,38.9182109,121.670395,,,
巍山县司法局,,,,25.2427558,100.3125892,,,
锦小馆,,,,39.9706715,116.3941301,,,
Food Oasis,,,,22.2883926,114.2722652,,,
阿勒泰地区中级人民法院,新疆维吾尔自治区,阿勒泰地区,,47.7923173,88.1278493,,,
宁波海事法院自由贸易试验区海事法庭,,,,29.995978,122.1853249,,,
舟山市定海区人民法院临城人民法庭,浙江省,舟山市,定海区,29.9963218,122.1857638,,,
审判庭,,,,29.996431,122.1855584,,,
舟山市中级人民法院,浙江省,舟山市,,29.9966159,122.1991686,,,
信宜市人民法院计生专项执法工作组,广东省,茂名市,信宜市,22.3593318,110.9265372,,,
潮巷,,,,22.5272623,113.9858892,,,
泗泾人民法庭,,,,31.1214697,121.276054,,,
福建省高级人民法院,福建省,,,26.1022271,119.2751069,,,
人民法庭,,,,33.9085392,118.2682442,,,
茶悦豆香,,,,34.0387653,118.1097212,,,
怪屋,,,,34.0398092,118.1118689,,,
西秀区人民法院,贵州省,安顺市,西秀区,26.2633902,105.9738685,,,
港区法院,,,,30.2319303,115.0498058,,,
天门美食街,,,,30.6617997,113.1579052,,,
天门美食街,,,,30.6612719,113.163774,,,
俏江安美食餐吧,,,,30.5551803,103.9987692,,,
玉真法院,,,,24.4810439,117.9810327,,,
梓潼县人民法院,四川省,绵阳市,梓潼县,31.6429898,105.1661087,,,
北京市第三中级人民法院,北京市,,,39.9997139,116.462589,,,
观塘法院,,,,22.309896,114.2297806,,,
法院,,,,41.8344657,114.5812333,,,
法院,,,,41.8344178,114.5812279,,,
法院,,,,41.8347335,114.5821077,,,
涿鹿县人民法院,河北省,张家口市,涿鹿县,40.3779832,115.1998856,,,
涿鹿县人民法院,河北省,张家口市,涿鹿县,40.3780587,115.1998794,,,
涿鹿县人民法院,河北省,张家口市,涿鹿县,40.3777563,115.1999867,,,
涿鹿县人民法院,河北省,张家口市,涿鹿县,40.3778849,115.1999741,,,
食顺街美食荟,,,,39.9213606,116.3476691,,,
Food Loft,,,,22.2837465,114.1918043,,,
安流镇人民法庭,,,,23.7150258,115.677203,,,
一番街,,,,39.9439875,116.4654036,,,
港区法院,,,,30.2318784,115.0497039,,,
丹江口市人民法院,湖北省,十堰市,丹江口市,32.5433798,111.5089453,,,
凉水河人民法庭,,,,32.6483217,111.4644064,,,
法院路口,,,,27.2371503,119.8877934,,,
法院路口,,,,27.2371408,119.8877451,,,
罍+村,,,,31.2458317,117.2735465,,,
法院,,,,37.1643351,116.4277947,,,
法院,,,,37.1644762,116.4274755,,,
法院,,,,37.1644377,116.4274594,,,
南汽大食堂,,,,32.0834645,118.7780878,,,
浮滨司法所,,,,23.8555168,116.8724026,,,
延庆法院,,,,40.4499748,115.9636031,,,
阿拉山口市人民法院,新疆维吾尔自治区,博尔塔拉蒙古自治州,阿拉山口市,45.1761634,82.5602881,,,
粉岭法院大楼,,,,22.4956839,114.1397883,,,
商城鞋箱包市场(婺城区法院),浙江省,金华市,婺城区,29.0821378,119.6461559,,,
商城鞋箱包市场(婺城区法院),浙江省,金华市,婺城区,29.0813298,119.6465551,,,
白塔人民法庭,,,,23.5657594,116.2110094,,,
人民法院,,,,29.1445251,113.101528,,,
观塘法院,,,,22.3099508,114.2296941,,,
房山法院,,,,39.7462245,116.1327601,,,
房山法院,,,,39.7463034,116.132807,,,
德保餐厅,,,,22.3532341,113.5173151,,,
电气道街市熟食中心,,,,22.2895444,114.1935474,,,
开发区法院,,,,32.3654689,119.414405,,,
1905 美食广场,,,,25.1179116,104.9189704,,,
城中不夜城,,,,33.9217287,118.2722951,,,
美食广场,,,,45.3481237,130.8366978,,,
小吃世界,,,,34.0369016,118.323059,,,
金山区人民法院亭林人民法庭,上海市,金山区,,30.8927848,121.3162001,,,
食堂,,,,34.0211899,118.2988029,,,
法院,,,,34.9913197,116.6492766,,,
法院,,,,34.9915144,116.6489921,,,
宿迁经济技术开发区司法局,,,,33.9035013,118.2672151,,,
牛头崖人民法庭,,,,39.8229522,119.3994761,,,
蜀香园,,,,22.3531493,113.5129963,,,
琢乐汇,,,,22.3538399,113.5134789,,,
粉岭法院大楼,,,,22.4956263,114.1397217,,,
泉山法院,,,,34.2182121,117.1662063,,,
泉山法院,,,,34.2179291,117.1652536,,,
美新点心店,,,,31.2274238,121.4517395,,,
浙影餐厅,,,,31.2340574,121.4752731,,,
法院站,,,,28.1578891,104.4956957,,,
法院站,,,,28.1580549,104.4958273,,,
高要区法院,广东省,肇庆市,高要区,23.0315709,112.464927,,,
高要区法院,广东省,肇庆市,高要区,23.0312782,112.4655957,,,
UIC 休闲小栈,,,,22.3531514,113.5124993,,,
味旋律,,,,22.3532581,113.5128,,,
潮州市中级人民法院,广东省,潮州市,,23.6506497,116.6243265,,,
宿迁市劳动人事争议仲裁委员会巡回仲裁庭,江苏省,宿迁市,,33.9599662,118.2682369,,,
汤旺县人民法院,黑龙江省,伊春市,汤旺县,48.453793,129.5524199,,,
市法院,,,,42.8913383,129.4590676,,,
市法院,,,,42.8915622,129.4589502,,,
筑梦夜市集,,,,33.9439747,118.3476664,,,
临湘市人民法院,湖南省,岳阳市,临湘市,29.4757278,113.4308846,,,
人民法院,,,,29.4755495,113.4301745,,,
人民法院,,,,29.4758654,113.429835,,,
查特花园,,,,39.9093669,116.3663851,,,
杭州市富阳区人民法院共享法庭(鹳山社区),浙江省,杭州市,富阳区,30.0503342,119.9581815,,,
晓店食家庄,,,,34.0595488,118.3130954,,,
汫洲人民法庭,,,,23.6189493,116.9399407,,,
宿迁市法院行政争议化解中心,江苏省,宿迁市,,34.0501718,118.2758881,,,
宿城区人民法院骆马湖流域环境资源法庭,江苏省,宿迁市,宿城区,34.0501614,118.2761389,,,
骆马湖旅游度假区人民法院,,,,34.0501674,118.2760183,,,
洋河滩杨柳路渔村美食街,,,,34.0080413,118.2516445,,,
五邑大学第二食堂,,,,22.5971377,113.0800375,,,
Фудкорт,,,,45.5443324,131.8702167,,,
大四川饭店,,,,25.3954578,102.8377326,,,
新城美食汇,,,,30.6508726,113.143403,,,
口福美食广场,,,,22.1242646,113.5445801,,https://css.cmdo.um.edu.mo/outlets/,
上营人民法庭,,,,40.3131224,118.4606269,,,
嘉友美食广场,,,,31.1701241,121.5302546,,,
延庆法院,,,,40.4501171,115.9629239,,,
延庆法院,,,,40.4500424,115.9628992,,,
法院小区,,,,29.5294314,112.5425087,,,
法院小区,,,,29.5294796,112.5426274,,,
州法院,,,,42.8860128,129.4056092,,,
金山大道金山区人民法院,上海市,金山区,,30.740222,121.334483,,,
金山大道金山区人民法院,上海市,金山区,,30.7402669,121.3344575,,,
金山大道金山区人民法院,上海市,金山区,,30.7396215,121.3334088,,,
州法院,,,,42.8863281,129.4055646,,,
常青美食广场,,,,36.1672544,120.4204282,,,
邻里中心美食街,,,,31.184864,121.5511001,,,
金鼎美食广场,,,,36.093429,120.4582633,,,
泗阳县人民法院,江苏省,宿迁市,泗阳县,33.7230218,118.7004355,,,
泗阳县人民检察院,江苏省,宿迁市,泗阳县,33.7227555,118.7023871,,,
绥芬河市人民法院,黑龙江省,牡丹江市,绥芬河市,44.3970839,131.1248192,,,
新城美食汇,,,,30.6513196,113.1437475,,,
会盟人民法院,,,,34.8170785,112.6130916,,,
广汉市人民法院,四川省,德阳市,广汉市,30.9992109,104.2784774,,,
陵水黎族自治县人民法院,海南省,陵水黎族自治县,,18.5048435,110.0005122,,,
宿迁经济技术开发区人民法院,江苏省,宿迁市,宿城区,33.9049588,118.2508267,,,
壹捌壹捌大润发美食广场,,,,33.9592978,118.2801609,,,
长治市潞州区人民法院审判庭,山西省,长治市,潞州区,36.2230591,113.119788,,,
NANA吃街,,,,29.6055739,106.2977594,,,
餐饮美食城,,,,33.9551922,118.3395149,,,
法院,,,,30.6798631,121.015622,,,
法院,,,,30.6805067,121.0174325,,,
四川省高级人民法院,四川省,,,30.6905835,104.0195878,,,
中式快餐连锁,,,,34.0567956,118.2825914,,,
百家旺美食广场,,,,34.0546234,118.2810575,,,
英特伦斯精致餐厅,,,,34.0539773,118.2781514,,,
京彩商业街,,,,34.0539286,118.2814378,,,
PANDORA美食集市,,,,34.0549633,118.2806849,,,
稻城人民法院,,,,29.042337,100.3040699,,,
金钟站 - 高等法院,,,,22.278421,114.1638399,,,
富兴街便民夜市,,,,22.8108799,108.4413198,,,
市法院,,,,43.8021173,125.2700537,,,
市法院,,,,43.8020417,125.2699079,,,
南京东路街道社区食堂,,,,31.2407596,121.4664567,,,
蓬江区法院,广东省,江门市,蓬江区,22.5832713,113.0682531,,,
温肯师生和泊岙村民附近居民的大福地“三食堂”,,,,27.9190271,120.6483773,,,
王远熏肉,,,,33.9555477,118.2918173,,,
审判法庭,,,,30.5590686,104.0253234,,,
濮阳市华龙区劳动人事争议仲裁委员会,河南省,濮阳市,华龙区,35.7779879,115.0513119,,,
今雨轩,,,,22.3628296,113.5114736,,,
嵊泗县人民法院共享法庭(东升村),浙江省,舟山市,嵊泗县,30.7228099,122.7837473,,,
乍浦人民法院,,,,30.6170541,121.1182036,,,
乍浦人民法院,,,,30.6166208,121.117632,,,
乍浦人民法院,,,,30.6165419,121.1176559,,,
乍浦人民法院,,,,30.6171582,121.1181173,,,
宋庄人民法庭,,,,39.9397389,116.7222887,,,
上海第二食品商店,,,,31.1412927,121.4174076,,,
梅陇美食广场,,,,31.1410824,121.4169283,,,
鱼台县人民法院,山东省,济宁市,鱼台县,34.9920469,116.6492489,,,
宜昌市中级人民法院,湖北省,宜昌市,,30.7184693,111.3239201,,,
麻辣香锅,,,,31.1545002,121.4270651,,,
牛蛙,,,,31.1544397,121.4270638,,,
酸菜鱼,,,,31.154378,121.4270611,,,
美食一条街,,,,31.1567866,121.5597508,,,
乌鲁木齐市天山区人民法院,新疆维吾尔自治区,乌鲁木齐市,天山区,43.78075,87.6238136,,,
沙梨头美食广场,,,,22.2024537,113.5371708,,,
人民法院,,,,32.7814572,119.4783095,,,
牛栏山人民法庭,,,,40.208533,116.6451292,,,
漯河市郾城区人民法院,河南省,漯河市,郾城区,33.5880115,114.0057653,,,
漯河市源汇区人民法院,河南省,漯河市,源汇区,33.5693336,114.010909,,,
堆龙德庆区人民法院,西藏自治区,拉萨市,堆龙德庆区,29.6496599,90.9936283,,,
威远县人民检察院,四川省,内江市,威远县,29.5419273,104.667638,,,
人民法院·丰瑞路,,,,32.7848088,119.4772473,,,
人民法院·丰瑞路,,,,32.7839132,119.4774207,,,
人民法院,,,,32.7813646,119.4783052,,,
小镇美食广场,,,,31.0486699,121.7576837,,,
亚洲夜市,,,,31.0435738,121.7523072,,,
水云天夜市,,,,23.473803,111.247317,,,
瓯海法院,,,,27.9721393,120.6133309,,,
熹乐谷熹村不夜山谷民俗文化村,,,,23.7721609,113.4843799,,,
南湖法庭,,,,32.0288292,118.7557165,,,
中华苏维埃共和国最高法院旧址,,,,25.8839966,116.0032144,,,
食次方美食城,,,,39.9121033,116.582551,,,
石塘咀街市熟食中心,,,,22.2853744,114.1360714,,,
茂名市茂南区人民法院,广东省,茂名市,茂南区,21.6671863,110.9084547,,,
固原市原州区人民法院,宁夏回族自治区,固原市,原州区,36.0282233,106.2497765,,,
香洲区人民法院,广东省,珠海市,香洲区,22.2689387,113.5323738,,,
云冈区法院,山西省,大同市,云冈区,40.0278812,113.2009754,,,
云冈区法院,山西省,大同市,云冈区,40.0280846,113.1996021,,,
古里铺,,,,39.9735791,116.3325915,,,
长沙市中级人民法院,湖南省,长沙市,,28.1771949,112.9962875,,,
人民法院,,,,43.3219399,129.7691019,,,
人民法院,,,,43.3225827,129.7688402,,,
汪林局法院,,,,43.3169618,129.7471877,,,
汪林局法院,,,,43.3166687,129.7472654,,,
蟠龙荟美食街,,,,29.5059775,106.4821959,,,
路北法院,,,,39.6485095,118.1570679,,,
路北法院,,,,39.6486547,118.157211,,,
唐河县人民法院,河南省,南阳市,唐河县,32.6918463,112.7976476,,,
方城县人民法院(办公二区),河南省,南阳市,方城县,33.2464846,112.9870365,,,
西城区劳动人事争议仲裁委员会,山西省,阳泉市,城区,39.8872201,116.3522561,,,
海南省高级人民法院,海南省,,,19.9918712,110.337853,,,
嘉黎县人民法院,西藏自治区,那曲市,嘉黎县,30.643739,93.2339877,,,
建邺区人民法院金融法庭,江苏省,南京市,建邺区,32.002357,118.7429577,,,
新会人民法院,,,,22.4606707,113.0260045,,,
新会人民法院,,,,22.4626095,113.0275394,,,
骆克道街市熟食中心,,,,22.2781624,114.175388,,,
牛池湾街市熟食中心,,,,22.3345328,114.2087729,,,
红磡街市熟食中心,,,,22.3073464,114.1873384,,,
上环街市熟食中心,,,,22.2862102,114.1497844,,,
土瓜湾街市熟食中心,,,,22.317393,114.1880823,,,
大角咀街市熟食中心,,,,22.3219302,114.1629007,,,
旺角熟食中心,,,,22.3182664,114.1681222,,,
北河街街市熟食中心,,,,22.3294031,114.1608425,,,
官涌街市熟食中心,,,,22.3044815,114.1685327,,,
柴湾街市熟食中心,,,,22.2634096,114.239954,,,
保安道街市熟食中心,,,,22.3384504,114.1575664,,,
大埔墟街市熟食中心,,,,22.4462107,114.1665681,,,
花园街街市熟食中心,,,,22.3209011,114.1705797,,,
鲤鱼门街市熟食中心,,,,22.2920332,114.2386717,,,
香港仔街市熟食中心,,,,22.2492893,114.1546395,,,
黄泥涌街市熟食中心,,,,22.2690358,114.185648,,,
鲗鱼涌街市熟食中心,,,,22.2838585,114.2116714,,,
牛头角街市熟食中心,,,,22.3218363,114.2165621,,,
瑞和街街市熟食中心,,,,22.3157969,114.2242277,,,
开发区法院,,,,32.3659707,119.4159901,,,
渔光道街市熟食中心,,,,22.2503232,114.1566622,,,
渔湾街市熟食中心,,,,22.265343,114.240648,,,
田湾街市熟食中心,,,,22.2502128,114.1481809,,,
正街街市熟食中心,,,,22.2863737,114.1420447,,,
爱秩序湾街市熟食中心,,,,22.2799524,114.2273448,,,
索县人民法院,西藏自治区,那曲市,索县,31.8865814,93.7831405,,,
巴青人民法院,,,,31.9201608,94.0541241,,,
杂多县人民法院,青海省,玉树藏族自治州,杂多县,32.898144,95.2547479,,,
慧谷里美食街（地下）,,,,39.9759081,116.2494884,,,
白化美良街,,,,18.2345813,109.6392935,,,
Food Gala,,,,22.3261698,114.1964294,,,
干窑司法所,,,,30.8885797,120.8950315,,,
First Food Mall,,,,31.2303802,121.5139492,,,
武侯区人民法院晋阳人民法庭,四川省,成都市,武侯区,30.6475754,104.0027789,,,
万佳美食街,,,,21.6912649,108.3994174,,,
中级法院南门,,,,33.5938923,119.0429586,,,
中级法院南门,,,,33.5934145,119.041543,,,
蜜蜂世界,,,,23.1991291,113.2882782,,,
天凝法庭,,,,30.893212,120.8091727,,,
区法院,,,,30.4638247,114.8890719,,,
区法院,,,,30.4624088,114.889962,,,
金钟站 - 高等法院,,,,22.2785384,114.1637856,,,
枣庄市市中区人民法院,山东省,济南市,市中区,34.8527085,117.5337348,,,
成都市锦江区人民法院牛市口人民法庭,四川省,成都市,锦江区,30.6478143,104.0841879,,,
鹤山法院,,,,22.778736,112.9753201,,,
鹤山法院,,,,22.7793512,112.9759044,,,
麦加牛肉馆,,,,30.8751285,105.3841032,,,
麦加牛肉馆（虹桥店）,,,,30.8766136,105.3838526,,,
滕州市人民法院木石人民法庭,山东省,枣庄市,滕州市,34.9845144,117.2647668,,,
市中级人民法院宿舍楼,,,,30.4600295,114.8924609,,,
人民法院,,,,31.798297,121.6638207,,,
人民法院,,,,31.7982924,121.6640729,,,
人民法院,,,,31.7982442,121.6638737,,,
人民法院,,,,31.7983484,121.6639552,,,
区法院宿舍,,,,30.4530223,114.8643445,,,
朱家角人民法庭,,,,31.1051971,121.0412494,,,
川沙人民法庭,,,,31.1989356,121.6736836,,,
锦江区人民法院三圣人民法庭,四川省,成都市,锦江区,30.5925349,104.1062248,,,
人民法院,,,,22.3695839,112.706909,,,
人民法院,,,,22.3694917,112.7069192,,,
子昂李烧腊,,,,30.8762616,105.3832875,,,
北门小火锅,,,,30.8761084,105.3840577,,,
许三毛白砍,,,,30.8760773,105.3832229,,,
赤水人民法院,,,,22.1446187,112.5779345,,,
赤水人民法院,,,,22.1447236,112.5780101,,,
张三白砍,,,,30.8681805,105.381098,,,
张氏酸辣粉,,,,30.8708025,105.3824349,,,
天津海事法院,,,,39.0211327,117.7109437,,,
食通天·美食市集,,,,37.4695714,121.4463741,,,
唐宋美食街,,,,30.6621218,104.0761873,,,
唐宋美食街,,,,30.6610447,104.0754435,,,
中级法院东门,,,,33.5953717,119.0446168,,,
高等法院,,,,22.2784036,114.1638756,,,
是轩小站,,,,39.9687323,116.3115185,,,
兵哥臭豆腐,,,,27.9273228,120.6487873,,,
金堂县人民法院,四川省,成都市,金堂县,30.861482,104.4104149,,http://cdjtfy.chinacourt.org/index.shtml,+86 28 8493 5611
二七区人民法院环境资源保护巡回法院,河南省,郑州市,二七区,34.6670634,113.5604908,,,
中级法院东门,,,,33.5963636,119.044252,,,
海曙人民法院共享法庭,浙江省,宁波市,海曙区,29.8635507,121.5475931,,,
贡觉县人民法院,西藏自治区,昌都市,贡觉县,30.8534652,98.2729787,,,
县人民法院,,,,30.5328549,120.9238259,,,
县人民法院,,,,30.5328474,120.9239422,,,
南亚美食广场,,,,25.0416782,102.6699507,,,
于田县人民法院,新疆维吾尔自治区,和田地区,于田县,36.8572701,81.6643682,,,
市法院,,,,30.5048307,120.6817445,,,
市法院,,,,30.5032394,120.6817855,,,
市法院,,,,30.5032446,120.6816977,,,
市法院,,,,30.5048484,120.6818506,,,
Xijiade,,,,31.2369182,121.4691201,,,
喜家德水饺,,,,31.2178451,121.4537866,,http://xijiade.com.cn,
喜家德水饺,,,,31.2309328,121.4547695,,http://xijiade.com.cn,
人民法院,,,,27.7211618,111.3125788,,,
人民法院,,,,27.7208951,111.3128893,,,
泽达·振勤食堂,,,,34.023104,118.2786147,,,
郑州经济技术开发区人民法院（院机关）,,,,34.7511708,113.7984657,,,
刘庄夜市街,河北省,秦皇岛,北戴河区,39.8240412,119.500501,,,
羊记鲜肉锅盔,,,,30.8695896,105.3820235,,,
洪明米粉,,,,30.8712995,105.3812101,,,
桥头面馆,,,,30.8713566,105.3856657,,,
李薄饼,,,,30.8749703,105.3792198,,,
樊记薄饼,,,,30.8743572,105.3836287,,,
抚松县人民法院,吉林省,白山市,抚松县,42.1717092,127.4691517,,,
税务局（法院）,,,,42.8866887,130.3808263,,,
二期桃蹊饭堂,,,,23.269035,112.6663983,,,
江州区人民法院,广西壮族自治区,崇左市,江州区,22.4173111,107.3447506,,,
玉林市中级人民法院,广西壮族自治区,玉林市,,22.6399037,110.1618186,,,
慈溪市人民法院逍林派出法庭,浙江省,宁波市,慈溪市,30.1922983,121.3164747,,,
南宁铁路运输法院,,,,22.7416747,108.3473855,,,
德安县人民法院黄㛚人民法庭,江西省,九江市,德安县,29.3912649,115.7136697,,,
沙依巴克区人民法院,新疆维吾尔自治区,乌鲁木齐市,沙依巴克区,43.8101911,87.5930912,,,
沙区法院,,,,43.8105677,87.593347,,,
沙区法院,,,,43.8107402,87.5931397,,,
安义米粉(右营街社区店),,,,28.6890481,115.8853612,,,
昔阳县人民法院司法警察大队,山西省,晋中市,昔阳县,37.5975476,113.6977485,,,
静海区人民检察院,天津市,静海区,,38.9472675,116.9653404,,,
静海区人民法院,天津市,静海区,,38.9463914,116.971134,,,
州法院,,,,44.010451,87.2946262,,,
州法院,,,,44.0103012,87.2957742,,,
市法院,,,,44.0069112,87.2890137,,,
深圳市光明区人民检察院,广东省,深圳市,光明区,22.7363569,113.9422736,,,
水上雅丹小吃街,,,,37.6250941,93.7336014,,,
法院,,,,39.3768976,117.7378416,,,
内蒙古高级人民法院,,,,40.7977904,111.715325,,,
内蒙古高级人民法院,,,,40.797364,111.7162029,,,
玉泉区法院,内蒙古自治区,呼和浩特市,玉泉区,40.7712966,111.6121371,,,
玉泉区法院,内蒙古自治区,呼和浩特市,玉泉区,40.7715377,111.609716,,,
梨树县人民法院,吉林省,四平市,梨树县,43.2953936,124.3435591,,,
蛤蟆街烟火巷,,,,28.6890688,115.8820025,,,
西充县人民法院,四川省,南充市,西充县,30.9928209,105.8942501,,,
宝坻区方家庄人民法庭,天津市,宝坻区,,39.7038766,117.3972737,,,
武清区崔黄口人民法庭,天津市,武清区,,39.531494,117.190671,,,
亚洲美食坊,,,,22.1495327,113.5547049,,,
威尼斯人美食广场,,,,22.1482332,113.5610376,,,
馥乐庭,,,,22.147218,113.5727872,,,
八方美食广场,,,,22.1420565,113.5607243,,,
津津,,,,22.1914218,113.5413025,,,
新八佰伴美食广场,,,,22.1910232,113.5404574,,,
巴黎人美食广场,,,,22.1438739,113.5606756,,,
苏濠 SOHO,,,,22.1485647,113.5666967,,,
上葡美食坊,,,,22.1439277,113.5738975,,,
中级法院,,,,46.6469912,126.9666405,,,
东阳市江北街道华店共享法庭,浙江省,金华市,东阳市,29.2939999,120.2761531,,,
中级法院,,,,46.6463937,126.9672978,,,
石锅拌饭 炒面 炒饭中旗商城,,,,45.5448861,131.8712248,,,
美食区家乐,,,,45.5445427,131.8704301,,,
衡山县法院,湖南省,衡阳市,衡山县,27.2608093,112.8459495,,,
佳膳美食广场,,,,30.5549649,114.499618,,,
宝坻法院,,,,39.6894269,117.2807966,,,
宝坻法院,,,,39.6890894,117.2806175,,,
宝安区人民法院执行局,广东省,深圳市,宝安区,22.5590559,113.9071925,,,
观山湖人民法院,,,,26.6187128,106.5939543,,,
宅梧镇人民法院,,,,22.6140714,112.6254516,,,
阳东法院,,,,21.8689031,111.9990221,,,
阳东法院,,,,21.8705836,111.9988385,,,
天津市第二中级人民法院驻天津铁厂审判庭,天津市,,,36.5815165,113.7340414,,,
方舟美食广场,,,,38.8712539,121.5167011,,,
密山点点姐烧烤店,,,,45.5378239,131.841126,,,
包子铺,,,,22.5508856,113.9458489,,,
法院,,,,36.5630008,116.2310654,,,
法院,,,,36.5629136,116.2310655,,,
法院,,,,36.5627164,116.2308508,,,
法院,,,,36.5628135,116.2308452,,,
安信餐厅,,,,38.8718086,121.5281418,,,
白山市中级人民法院,吉林省,白山市,,41.9413408,126.4019052,,,
宁波市镇海区人民法院,浙江省,宁波市,镇海区,29.9552529,121.6880733,,,
谷城县人民法院,湖北省,襄阳市,谷城县,32.2605753,111.6253375,,,
台山市人民法院海宴人民法庭,广东省,江门市,台山市,21.7736229,112.5507608,,,
淄博高新区法院,,,,36.8427933,118.0490443,,,
淄博高新区法院,,,,36.8428849,118.0495831,,,
连云区法院,江苏省,连云港市,连云区,34.7561786,119.33819,,,
连云区法院,江苏省,连云港市,连云区,34.754732,119.3375654,,,
机关食堂,,,,33.9527766,118.323905,,,
海州区法院,辽宁省,阜新市,海州区,34.5715273,119.1527365,,,
海州区法院,辽宁省,阜新市,海州区,34.5717791,119.1490672,,,
法院检察院,,,,23.5600801,113.6025997,,,
汉沽法院,,,,39.2402858,117.7758645,,,
汉沽法院,,,,39.2400391,117.7756309,,,
曲麻莱县人民法院办公楼,青海省,玉树藏族自治州,曲麻莱县,34.1298627,95.7990714,,,
法院道,,,,22.2768241,114.1643644,,,
高等法院大楼,,,,22.2782544,114.1632695,,,
沙田裁判法院,,,,22.3800309,114.1890782,,,
法院道,,,,22.2766867,114.1645829,,,
法院道,,,,22.2767977,114.1640491,,,
终审法院,,,,22.2809121,114.1603575,,,
法院道,,,,22.2773835,114.1636937,,,
东区法院大楼,四川省,攀枝花市,东区,22.2843301,114.224144,,,
高等法院大楼,,,,22.2785153,114.1634149,,,
法院道,,,,22.2777648,114.1633988,,,
乌鲁木齐县人民法院,新疆维吾尔自治区,乌鲁木齐市,乌鲁木齐县,43.8235523,87.6097774,,,
乌鲁木齐中级人民法院,,,,43.8244534,87.6214465,,,
天津海事法院秦皇岛审判庭,,,,39.934231,119.526751,,,
观塘法院大楼,,,,22.3097388,114.2293582,,,
南京市白下区人民法院,江苏省,南京市,,32.02203,118.8240733,,,
普洱市中级法院,云南省,普洱市,,22.7652673,100.9827869,,,
南京市中级人民法院,江苏省,南京市,,32.0516152,118.775813,,,
明苑美食广场,,,,32.026274,118.8492539,,,
九龙城法院大楼,,,,22.3251547,114.1852858,,,
浦江人民法庭,,,,31.0827739,121.4916152,,,
北京市海淀区人民法院,北京市,海淀区,,39.9770228,116.3056701,,,
南国水乡,,,,39.8312525,116.3486727,,,
固始县人民法院,河南省,信阳市,固始县,32.1876166,115.6476158,,,
晴天美食广场,,,,32.0992787,118.9085099,,,
终审及中级法院大楼,,,,22.1828389,113.540857,,,
西九龙法院大楼,,,,22.3311027,114.1532425,,,
火炭熟食市场 (西),,,,22.3980481,114.192864,,,
佛山市中级人民法院,广东省,佛山市,,22.9953536,113.1331192,,,
荆州区人民法院,湖北省,荆州市,荆州区,30.3466716,112.1843524,,,
柴湾角熟食市场,,,,22.3739553,114.105609,,,
屯门法院大楼,,,,22.3903264,113.9756902,,,
沙区法院,,,,38.9303201,121.5645149,,,
青杨熟食市场,,,,22.3991746,113.970242,,,
荃湾裁判法院,,,,22.3712106,114.1128856,,,
荃湾法院大楼,,,,22.3712301,114.1129282,,,
击壤路熟食市场,,,,22.4451381,114.0245308,,,
东湖法院宿舍,,,,28.682539,115.9302072,,,
南昌高新技术产业开发区人民法院,,,,28.6964188,115.9744916,,,
南朗山道熟食市场,,,,22.2474166,114.1664304,,,
永清县人民法院后奕法庭,河北省,廊坊市,永清县,39.2130702,116.5620965,,,
禾𪨶熟食中心,,,,22.3886451,114.1957814,,,
朝阳区法院,吉林省,长春市,朝阳区,39.9318067,116.4690768,,,
骏业熟食市场,,,,22.3117975,114.2229323,,,
怀柔区人民法院汤河口人民法庭,北京市,怀柔区,,40.7332456,116.6347102,,,
火炭熟食市场 (东),,,,22.3967534,114.194283,,,
二至坊,,,,27.9024933,112.9192192,,,
三白馆,,,,27.902989,112.9194076,,,
深圳市南山区人民法院,广东省,深圳市,南山区,22.5499782,113.9266133,,,
深圳市龙岗区人民法院,广东省,深圳市,龙岗区,22.721655,114.238614,,,
浙江省人民检察院,浙江省,杭州市,西湖区,30.2788288,120.1264465,,,
越城区法院,浙江省,绍兴市,越城区,30.0069492,120.5852482,,,
南山区人民法院粤海人民法庭,广东省,深圳市,南山区,22.5286976,113.9161841,,,
初级法院大楼 (兴建中),,,,22.1855851,113.537374,,,
法院街,,,,34.3390836,108.728304,,,
泰兴市人民法院,江苏省,泰州市,泰兴市,32.1711212,120.0387334,,,
巫山法院,,,,31.0750479,109.8679352,,,
餐饮中心,,,,34.026641,109.004052,,,
锡山区法院,江苏省,无锡市,锡山区,31.5898814,120.3498203,,,
西区食堂,四川省,攀枝花市,西区,39.9678918,116.3015427,,,
中踏广场,,,,40.4588129,115.9701149,,,
法院路,,,,28.1574965,104.496082,,,
海珠区人民法院,广东省,广州市,海珠区,23.0838716,113.2982106,,,
新都法院,,,,30.8144998,104.1737524,,,
江阴市中级法院,江苏省,无锡市,江阴市,31.9188264,120.2914128,,,
无锡市中级人民法院,江苏省,无锡市,,31.576456,120.3012668,,,
上饶市中级人民法院,江西省,上饶市,,28.4578157,117.9346404,,,
珙桐园食堂,,,,30.6751423,104.1469135,,,
芙蓉食堂,,,,30.6769397,104.137851,,,
盘锦市中级人民法院,辽宁省,盘锦市,,41.1076319,122.067258,,,
学一食堂,,武汉,,30.5244378,114.390682,,,
天台县人民法院,浙江省,台州市,天台县,29.1559339,120.9855919,,,
新繁人民法庭,,,,30.886359,104.0124471,,,
中南大学二食堂,,,,28.1623918,112.9299149,,,
沙角熟食中心,,,,22.3770565,114.1940023,,,
饶平县人民法院三饶法庭,广东省,潮州市饶平县三饶镇,饶平县,23.9826058,116.8237611,,,
杭州市中级人民法院,浙江省,杭州市,,30.2235856,120.1863793,,,
永州市中级人民法院,湖南省,永州市,,26.2477944,111.6200017,,,
广州市中级人民法院,广东省,广州市,,23.1304882,113.2671558,,,
婺城区检察院,浙江省,金华市,婺城区,29.1266065,119.6475257,,,
孟津区人民法院,河南省,孟津区,孟津区,34.8255386,112.4446902,,,
审判法庭,,,,34.825108,112.4444084,,,
大棠路熟食市场,,,,22.4436401,114.0285986,,,
新能源美食广场,,,,32.1698079,120.0426623,,,
法院西胡同,,,,43.8843709,125.33079,,,
江北区人民法院,浙江省,宁波市,江北区,29.8931477,121.5523575,,,
合肥市中级人民法院,安徽省,合肥市,,31.8241314,117.2184733,,,
邗江区人民法院,江苏省,扬州市,邗江区,32.3815152,119.3901145,,,
锦园一餐厅,,,,22.58575,113.9357818,,,
锦园二餐厅,,,,22.5862671,113.9362291,,,
阳朔县法院,广西壮族自治区,桂林市,阳朔县,24.7733786,110.4757124,,,
江都人民法院,,,,32.4118674,119.5823582,,,
湖南大学天马一食堂,,,,28.170341,112.9401582,,,
北苑餐厅,,,,43.8602958,125.3267442,,,
南昌铁路运输中级法院,,,,28.6228684,115.7815679,,,
法院街,,,,45.742731,126.6242342,,,
终审法院前地,,,,22.1825363,113.5410575,,,
终审法院前地,,,,22.1827522,113.5411496,,,
枣庄市中级人民法院,山东省,枣庄市,薛城区,34.8071348,117.3257535,,,+86 63212368
西区裁判法院大楼,四川省,攀枝花市,西区,22.2867623,114.1405235,,,
一食堂,,,,30.7792675,103.9496961,,,
三食堂,,,,32.2019739,119.5111585,,,
北京知识产权法院,,,,39.9379197,116.2780288,,,
北塘区人民法院,,,,31.6071443,120.287292,,,
法院巷,,,,34.8537861,117.534616,,,
泰安市中级人民法院,山东省,泰安市,,36.1985324,117.0833374,,,
广州市白云区人民法院,广东省,广州市,白云区,23.2033836,113.2588501,,,
峄城区人民法院榴园法庭,山东省,枣庄市,峄城区,34.7685581,117.5568542,,,
枣庄市峄城区人民法院,山东省,枣庄市,峄城区,34.7812706,117.575801,,,
枣庄市山亭区人民法院,山东省,枣庄市,山亭区,35.1002514,117.4591425,,,
平湖市人民法院新埭法庭,浙江省,新埭镇,平湖市,30.8219753,121.0751364,,,
遵义市遵义县人民法院虾子人民法庭,辽宁省,锦州市,义县,27.6933415,107.1867993,,,
遵义市红花岗区人民法院 长征人民法庭,贵州省,遵义市,红花岗区,27.6901828,106.9468947,,,
遵义县人民法院三合镇人民法庭,辽宁省,锦州市,义县,27.4223486,106.764063,,,
上海市松江区人民法院,上海市,松江区,,31.0357493,121.2199153,,,
上海市松江区人民检察院,上海市,松江区,,31.0357126,121.2189283,,,
遵义县人民法院 尚嵇人民法庭,辽宁省,锦州市,义县,27.3769354,106.9659958,,,
大窝口熟食中心,,,,22.3683895,114.1232226,,,
皇室宴会厅,,,,22.3121427,114.0409515,,https://www.hongkongdisneyland.com/dining/hong-kong-disneyland-park/royal-banquet-hall/,
楠园第一食堂,,,,29.8203281,106.415309,,,
银杏餐厅,,,,30.6725582,104.1410326,,,
大武口区白芨沟人民法院,宁夏回族自治区,石嘴山市,大武口区,39.1054743,106.1333803,,,
通州区法院,江苏省,南通市,通州区,32.0751871,121.0713607,,,
法院街,,,,36.6241427,101.7848494,,,
法院宿舍区,,,,36.8596314,119.3898016,,,
昌邑市人民法院柳疃人民法庭,山东省,潍坊市,昌邑市,36.9397401,119.3903912,,,
滨江区法院,浙江省,杭州市,滨江区,30.2124736,120.2089526,,,
洪祥熟食市场,,,,22.3930011,113.9689994,,,
花山区人民法院,安徽省,马鞍山市,花山区,31.7028191,118.5258147,,,
上海市高级人民法院,上海市,,,31.2365499,121.4819636,,,
南苑餐厅,,,,43.8575831,125.3264936,,,
中南大学七食堂,,,,28.16231,112.9320828,,,
中南大学八食堂,,,,28.1604233,112.9315345,,,
饮食文化城,,,,28.1769114,112.9236086,,,
中南大学九食堂,,长沙,,28.1714575,112.9271096,,,
Local People's Procuratorate,,,,27.3332251,117.4912374,,,
Local People's Court,,,,27.3331671,117.4919629,,,
嘉定熟食市场,,,,22.3592514,114.1320164,,,
和宜合道熟食市场,,,,22.3654888,114.1367662,,,
浦口区人民法院,江苏省,南京市,浦口区,32.0608409,118.6211114,,,
食堂,,,,28.7024503,115.8492556,,,
土地审裁处,,,,22.3082469,114.1727489,,,
劳资审裁处,,,,22.3078966,114.1730175,,,
安宁市人民法院,云南省,昆明市,安宁市,24.9226593,102.4618127,,,
人民法院,,,,44.3940129,126.9430307,,,
古冶区人民法院,河北省,唐山市,古冶区,39.7348628,118.4405464,,,
颛桥法庭,,,,31.0654062,121.3912806,,,
玄武区人民法院,江苏省,南京市,玄武区,32.0524656,118.7905297,,,
七里河区法院,甘肃省,兰州市,七里河区,36.086593,103.7297088,,,
甘肃省高级人民法院,甘肃省,,,36.104327,103.6915337,,,
安宁区人民法院,甘肃省,兰州市,安宁区,36.0948105,103.7038302,,,
法院家属院,,,,35.0730014,118.3435966,,,
兰州市中级人民法院,甘肃省,兰州市,,36.0553285,103.8854899,,,
广东省高级人民法院,广东省,,,23.1238333,113.3479832,,,
临沂市兰山区人民法院,山东省,临沂市,兰山区,35.045649,118.3380629,,,
临沂市中级人民法院,山东省,临沂市,,35.1066853,118.3455414,,,
临沂市罗庄区法院,山东省,临沂市,罗庄区,34.999617,118.2820258,,,
临沂市河东区人民法院,山东省,临沂市,河东区,35.0744071,118.3892545,,,
敦煌路人民法庭,,,,36.0752251,103.7625406,,,
平沙法庭,,,,22.1118824,113.1902024,,,
常熟市人民法院辛庄人民法庭,江苏省,苏州市,常熟市,31.5421941,120.6679549,,,
天水市人民检察院,甘肃省,天水市,,34.575144,105.7362787,,,
南食堂,,,,30.8918921,121.8861456,,,
陈集镇法院,,定陶区陈集镇,,35.1962304,115.6322779,,,
滕州市人民法院,山东省,枣庄市,滕州市,35.1147166,117.1576346,,,
鲁南美食城,,,,35.0834018,117.1675437,,,
仪征市人民法院,江苏省,扬州市,仪征市,32.2822619,119.1688372,,,
法院小区,,,,36.7652653,119.1867012,,,
寒亭区人民法院,山东省,潍坊市,寒亭区,36.7638959,119.1874815,,,
寿光市羊口人民法庭,山东省,潍坊市,寿光市,37.2374891,118.8761392,,,
祥云美食城,,,,25.0383021,102.7117356,,,
白银区人民法庭水川法庭,甘肃省,白银市,白银区,36.3620121,104.2330315,,,
青岛市中级人民法院,山东省,青岛市,,36.0891353,120.454833,,,
半程镇人民法院,,,,35.2344785,118.3058497,,,
汇川区人民检察院,贵州省,遵义市,汇川区,27.7603471,106.9290968,,,
播州区司法局,贵州省,遵义市,播州区,27.5555575,106.8341392,,,
播州区人民法院,贵州省,遵义市,播州区,27.5856889,106.852038,,,
播州区人民检察院,贵州省,遵义市,播州区,27.586347,106.8526988,,,
中级法院大楼 (兴建中),,,,22.1827445,113.5416616,,,
兰山区人民法院,山东省,临沂市,兰山区,35.0878659,118.3073117,,,
唐山市中级人民法院,河北省,唐山市,,39.6642107,118.1304583,,,
励业街熟食小贩市场,,,,22.3137666,114.2167006,,,
玉环市人民法院,浙江省,台州市,玉环市,28.1167157,121.2445439,,,
尚识堂,,,,31.1860232,121.5039761,,,
雨林美食广场,,,,30.1539341,119.9819304,,,
富顺县人民法院,四川省,自贡市,富顺县,29.1835391,104.9769421,,,
富顺县人民法院东湖人民法庭,四川省,自贡市,富顺县,29.1816184,104.9538726,,,
博海餐厅,,,,31.1707465,121.5737321,,,
泰山区人民法院,山东省,泰安市,泰山区,36.1950181,117.1666475,,,
北辰区法院,天津市,北辰区,,39.2234533,117.1267614,,,
北辰区检察院,天津市,北辰区,,39.2231774,117.126131,,,
北苑食堂,,,,30.7638021,103.9527858,,,
南苑食堂,,,,30.7581206,103.9537523,,,
高新区法院,,,,36.1261426,117.1090317,,,
桃李餐厅,,,,30.3242567,120.381651,,,
文华餐厅,,,,30.3246454,120.3840043,,,
法院,,,,31.7985923,121.6629776,,,
临安市法院,,,,30.2272257,119.7033541,,,
邹城市人民法院,山东省,济宁市,邹城市,35.4078193,116.9978157,,,
会泽县人民法院,云南省,曲靖市,会泽县,26.4160171,103.2832798,,,
餐厅,,,,35.0894481,117.1535894,,,
中山市第一人民法院,广东省,中山市,,22.5032851,113.3934887,,,
岳阳市中级人民法院,湖南省,岳阳市,,29.355848,113.1055139,,,
普陀区检察院,浙江省,舟山市,普陀区,31.258713,121.3909242,,,
蚌埠市人民检察院,安徽省,蚌埠市,,32.9153425,117.3875249,,,
潍坊市中级人民法院,山东省,潍坊市,,36.7097695,119.0972464,,,
深圳市中级人民法院,广东省,深圳市,,22.5548718,113.983638,,,
自流井区人民法院,四川省,自贡市,自流井区,29.3250614,104.7503384,,,
葵顺街熟食市场,,,,22.3541358,114.1241949,,,
法院,,,,37.0621264,114.5164261,,,
临沂市兰山区人民法院义堂法庭,山东省,临沂市,兰山区,35.1636807,118.2267885,,,
初级法院刑事大楼,,,,22.1847244,113.5372822,,,
二七区人民法院,河南省,郑州市,二七区,34.7256363,113.6354979,,,
二七区人民检察院,河南省,郑州市,二七区,34.7291226,113.6415468,,,
勐巴娜西美食城,云南省,德宏傣族景颇族自治州,芒市,24.430756,98.5918526,,,
平顶山市中级人民法院,河南省,平顶山市,,33.7654466,113.191066,,,
杭州市上城区人民法院,浙江省,杭州市,上城区,30.2172378,120.1690374,,,
西城法院第三办公区,,,,39.8696887,116.3620136,,,
西城区人民法院（南区）,山西省,阳泉市,城区,39.8721325,116.3626795,,,
安徽省高级人民法院,安徽省,,,31.7375999,117.31541,,,
小灵山灵显法院 Siu Ling Shan Ling Hin Fat Yuen,,,,22.4485697,114.1528155,,,
裕丰豪庭,,,,22.9665848,113.0859758,,,
沂南县人民法院界湖人民法庭,山东省,临沂市,沂南县,35.5606267,118.4528975,,,
沂南县人民法院,山东省,临沂市,沂南县,35.5329555,118.4665587,,,
汕头市金平区人民法院,广东省,汕头市,金平区,23.3637988,116.7110663,,,
甘州区人民法院,甘肃省,张掖市,甘州区,38.9406523,100.4155916,,,
蓝山法院,,,,25.3848153,112.1802786,,,
河东区九曲法庭,山东省,临沂市,河东区,35.0754206,118.3798685,,,
单县人民法院,山东省,菏泽市,单县,34.7796358,116.1026538,,,
福田区人民法院,广东省,深圳市,福田区,22.5237705,114.0491188,,,
法院大厦,,,,31.3240426,120.7174314,,,
南澳县人民检察院,广东省,汕头市,南澳县,23.4275196,117.012325,,,
胶州帝国法院旧址,Shandong,Qingdao,Shinan,36.0639944,120.3185309,,,
邹城市人民法院中心人民法庭,山东省,济宁市,邹城市,35.4330349,116.901885,,,
两当县法院,甘肃省,陇南市,两当县,33.9209153,106.3003178,,,
荔湾区法院,广东省,广州市,荔湾区,23.0747647,113.2113966,,,
双流区太平法院,四川省,成都市,双流区,30.4302208,104.1994993,,,
呼和浩特市赛罕区人民法院,内蒙古自治区,呼和浩特市,赛罕区,40.7752302,111.7324731,,,
常州市武进区人民法院,江苏省,常州市,武进区,31.712475,119.9588136,,,
江苏省盐城市中级人民法院,江苏省,盐城市,,33.347532,120.1565861,,,
和平大院,山东省,济南市,,36.6601393,117.0641117,,,
三江人民法庭,,,,28.2997016,115.9990235,,,
扶沟法院,,,,34.0320752,114.3983602,,,
新兴县人民法院,广东省,云浮市,新兴县,22.715299,112.2289988,,,
小蓝经济开发区人民法庭,,,,28.5440547,115.8728349,,,
上海铁路运输中级法院,,,,31.1556253,121.4318511,,,
最高人民检察院西区,四川省,攀枝花市,西区,39.9032409,116.2286487,,,
右安门人民法院,,,,39.8577375,116.3627264,,,
霞浦县人民法院,福建省,宁德市,霞浦县,26.8925553,120.0175428,,,
霞浦县检察院,福建省,宁德市,霞浦县,26.8925625,120.0166376,,,
河西友谊路下岗职工海鲜加工广场,,,,18.266597,109.4914372,,,
徐汇区人民法院,上海市,徐汇区,,31.1706835,121.4344977,,,
荣县人民法院,四川省,自贡市,荣县,29.4592365,104.3969773,,,
安岳法院,,,,30.1053564,105.3447169,,,
集美区人民检察院,福建省,厦门市,集美区,24.5940953,118.1021511,,,
永靖县人民法院,甘肃省,临夏回族自治州,永靖县,35.9381183,103.3078628,,,
向前广场,,,,32.0645421,108.0312587,,,
济南市中级人民法院,山东省,济南市,,36.6652781,117.0003919,,,
蔡甸区人民法院,湖北省,武汉市,蔡甸区,30.5709207,114.034717,,,
二食堂,,,,32.2021531,119.5121477,,,
清真食堂,,,,32.2022052,119.511643,,,
市南区人民法院云南路法庭,山东省,青岛市,市南区,36.0646681,120.2981276,,,
沙坡尾吃堡,,,,24.4410488,118.0813053,,,
柳州市城中区人民法院,广西壮族自治区,柳州市,城中区,24.3576124,109.4304578,,,
涠洲人民法庭,,,,21.034417,109.1122101,,,
青岛市黄岛区人民法院,山东省,青岛市,黄岛区,35.9569597,120.1920159,,,
白河县人民法院,陕西省,安康市,白河县,32.8013204,110.1100739,,,
阿勒泰市人民法院,新疆维吾尔自治区,阿勒泰地区,阿勒泰市,47.8274552,88.1305114,,,
阿勒泰地区中级人民法院,新疆维吾尔自治区,阿勒泰地区,,47.8285714,88.1265071,,,
千人桥镇法庭,,,,31.4789476,117.058923,,,
三明市中院,福建省,三明市,,26.2492587,117.6236227,,,
三明市中级人民法院,福建省,三明市,,26.2497627,117.6243523,,,
法院,,,,45.3497343,130.8353082,,,
常州市新北区人民法院,江苏省,常州市,新北区,31.8206903,119.9553968,,,
丽水市中级人民法院,浙江省,丽水市,,28.4665573,119.9139523,,,
大兴区人民法院,北京市,大兴区,,39.7612276,116.3229376,,,
湾仔海味中心,,,,22.1939049,113.5275031,,,
常州市天宁区人民法院,江苏省,常州市,天宁区,31.7927019,119.9920977,,,
东莞市第一人民法院,广东省,东莞市,,23.1147954,113.8680906,,,
南通市崇川区人民法院,江苏省,南通市,崇川区,32.0006729,120.8812178,,,
汕头市劳动人事争议调解仲裁院,广东省,汕头市,金平区,23.3597237,116.6983758,,,
上海市金山区人民法院,上海市,金山区,,30.7406646,121.3325169,,,
上虞区人民法院,浙江省,绍兴市,上虞区,30.0381252,120.8610146,,,
绍兴市中级人民法院,浙江省,绍兴市,,29.9909181,120.5728133,,,
哈铁牡丹江铁路运输法院,,,,44.5863677,129.6048479,,,
杭州市下城区人民法院,山西省,阳泉市,城区,30.3110637,120.1764405,,,
汕头市中级人民法院,广东省,汕头市,,23.3601137,116.7369574,,,
常州市中级人民法院,江苏省,常州市,,31.7944157,119.9666804,,,
杭州市富阳区人民法院,浙江省,杭州市,富阳区,30.0630821,119.9387146,,,
广东省云浮市中级人民法院,广东省,云浮市,,22.916769,112.042518,,,
薛城区人民法院临山人民法庭,山东省,枣庄市,薛城区,34.8146475,117.282265,,,
柳南区人民法院,广西壮族自治区,柳州市,柳南区,24.2783053,109.3893419,,,
泉州市丰泽区人民法院,福建省,泉州市,丰泽区,24.8930154,118.5945462,,,
铁路运输法院,,,,23.1270936,113.2959763,,,
法院庭,,,,22.2809618,114.1543923,,,
四君子美食广场,,,,34.7870833,116.0954191,,,
河北省高级人民法院,河北省,,,38.0350209,114.4547588,,,
司法局,,,,32.5201148,120.1525368,,,
北川羌族自治县人民法院,四川省,绵阳市,北川羌族自治县,31.6183958,104.4660251,,,
济南市中级人民法院,山东省,济南市,,36.6651493,117.0004189,,,
姚家人民法庭,,,,36.655113,117.0796852,,,
富宁县人民法院,云南省,文山壮族苗族自治州,富宁县,23.6263526,105.6318462,,,
杭州市西湖区人民法院上泗人民法庭,浙江省,杭州市,西湖区,30.14088,120.0836469,,,
杭州市西湖区人民法院上泗人民法庭主楼,浙江省,杭州市,西湖区,30.1409131,120.0838323,,,
市法院宿舍,,,,36.6644281,116.9992706,,,
香樟食堂,,,,30.6793269,104.1523601,,,
广州海事法院汕头法庭,广东省,汕头市,龙湖区,23.3569683,116.7407659,,,
三食堂,,,,30.7774939,103.9459332,,,
金州区人民法院,辽宁省,大连市,金州区,39.1099664,121.7140861,,,
大安区人民检察院,四川省,自贡市,大安区,29.3948514,104.8202071,,,
历城区法院华山法庭,山东省,济南市,历城区,36.6781558,117.067818,,,
广州海事法院司法警察支队,,,,23.096454,113.3008648,,,
经开区人民法院,,,,35.0126242,118.4084943,,,
江苏省苏州市人民检察院,江苏省,苏州市,,31.2834938,120.5999288,,,
江苏省苏州市中级人民法院,江苏省,苏州市,,31.2829468,120.5982006,,,
安庆市中级人民法院,安徽省,安庆市,,30.5322686,117.103718,,,
宏运海鲜码头自助餐厅,,,,35.8978068,120.0936337,,,
圣源餐厅,,,,34.6282597,113.6874372,,,
广州海事法院,,,,23.0662763,113.3121086,,,
江海区人民法院,广东省,江门市,江海区,22.5633352,113.1030612,,,
恒山区人民法院,黑龙江省,鸡西市,恒山区,45.2081666,130.899333,,,
恩平市人民法院,广东省,江门市,恩平市,22.1993452,112.3321909,,,
双水法庭,,,,22.4347319,113.0021526,,,
礼乐人民法庭,,,,22.549385,113.0782375,,,
济南市历下区人民法院,山东省,济南市,历下区,36.6581618,117.0315921,,,
江门市中级人民法院信访中心,广东省,江门市,,22.6241257,113.082881,,,
江门市中级人民法院审判区,广东省,江门市,,22.6245516,113.0831758,,,
江门市中级人民法院,广东省,江门市,,22.6246698,113.0838486,,,
江门市中级人民法院停车场,广东省,江门市,,22.6241651,113.0824773,,,
威信县法院,云南省,昭通市,威信县,27.8505835,105.0395374,,,
犀浦春天,,,,30.7632375,103.9785576,,,
中级法院,,,,31.6763593,118.5227936,,,
中级法院,,,,31.6761504,118.5227966,,,
中级法院门岗,,,,31.6760169,118.5223232,,,
新会区人民法院,广东省,江门市,新会区,22.4611825,113.0255237,,,
新会区人民法院三江法庭,广东省,江门市,三江镇,22.4279444,113.0998273,,,
北京市高级人民法院,北京市,北京市,朝阳区,39.9028044,116.43171,,,
陡沟人民法庭,,,,36.5949558,116.890458,,,
山东省高级人民法院,山东省,,,36.6612599,117.1098473,,,
肥乡区人民法院,河北省,邯郸市,肥乡区,36.5553007,114.7905326,,,
岳阳市步行街,湖南省,岳阳市,,29.3755924,113.1008385,,,
乌兰浩特检察院,,,,46.0680666,122.0904096,,,
乌兰浩特法院,,,,46.0682664,122.0928342,,,
理化楼及食堂,,,,38.9171093,117.7421683,,,
济钢法院,,,,36.7195194,117.1777621,,,
市检查院,,,,41.8013283,123.4109859,,,
陵川县人民检察院反贪污贿赂局,山西省,晋城市,陵川县,35.7597849,113.2744217,,,
凤城食都,,,,22.8188429,113.2603616,,,
顺德美食城,,,,22.825302,113.2556216,,,
味行天下美食城,,,,28.200485,112.8747727,,,
长沙县榔梨人民法庭,湖南省,长沙市,长沙县,28.1832722,113.1156392,,,
雨花区人民法院马王堆宿舍,湖南省,长沙市,雨花区,28.2025121,113.0196271,,,
湖南省高级人民法院,湖南省,,,28.2148643,113.0148025,,,
湖南省人民检察院,湖南省,,,28.2141851,113.0194053,,,
思明区人民法院,福建省,厦门市,思明区,24.477699,118.1121606,,,
建邺区人民法院,江苏省,南京市,建邺区,31.987217,118.7144265,,,
历城区人民法院,山东省,济南市,历城区,36.685285,117.0901197,,,
邢台市中级人民法院,河北省,邢台市,,37.0921875,114.4678177,,,
大良法庭,,,,22.8206833,113.2547985,,,
天桥人民法院,,,,36.682129,116.9616028,,,
知行餐厅,,,,37.9572859,112.5355773,,,
单县人民法院审判法庭,山东省,菏泽市,单县,34.779889,116.1029697,,,
雨湖区人民法院,湖南省,湘潭市,雨湖区,27.8787278,112.8978557,,,
邢台县人民检察院,,,,37.0984473,114.5081296,,,
任丘市人民法院,河北省,沧州市,任丘市,38.7106481,116.1032608,,,
沙河市人民法院,河北省,邢台市,沙河市,36.8760229,114.5112182,,,
清河县人民法院,河北省,邢台市,清河县,37.0574252,115.6513039,,,
南宫市人民法院,河北省,邢台市,南宫市,37.3570121,115.4118941,,,
夏县法院,山西省,运城市,夏县,35.1262608,111.2141316,,,
应县检察院反贪局,山西省,朔州市,应县,39.5536204,113.1997578,,,
应县人民法院,山西省,朔州市,应县,39.5531328,113.1721252,,,
海南省第一中级人民法院,海南省,,,20.0162407,110.4066331,,,
沧州市中级人民法院,河北省,沧州市,,38.3234887,116.848089,,,
青县人民法院,河北省,沧州市,青县,38.5809955,116.7999486,,,
顺德大良人民法院,,,,22.8259742,113.2459846,,,
武强县人民法院,河北省,衡水市,武强县,38.0413949,115.9374165,,,
浔阳区人民法院,江西省,九江市,浔阳区,29.7401022,116.0087797,,,
勒流人民法庭,,,,22.8570992,113.1158633,,,
勒流人民法庭,,,,22.8570649,113.1157572,,,
均安人民法庭,,,,22.7143045,113.138704,,,
学生餐厅,,,,35.0987633,117.1808087,,,
济南市劳动人事仲裁院,山东省,济南市,,36.6643939,116.987856,,,
佛山市高明区人民法院,广东省,佛山市,高明区,22.9122193,112.8610542,,,
禹城市人民法院,山东省,德州市,禹城市,36.9339304,116.6412543,,,
贵州高级人民法院,,,,26.6508217,106.6353761,,,
棠下人民法庭,,,,22.6821492,113.0224364,,,
九江市中级人民法院,江西省,九江市,,29.7059628,116.0228057,,,
柴桑区人民法院,江西省,九江市,柴桑区,29.6145566,115.9106344,,,
丽水市中级人民法院,浙江省,丽水市,,28.4667327,119.9139437,,,
丹灶镇人民法院,,,,23.0573235,112.9210159,,,
天回镇法庭,,,,30.7651266,104.1166564,,,
泊头市人民法院,河北省,沧州市,泊头市,38.0828508,116.5793723,,,
茶花苑餐厅,,,,25.671061,100.1552771,,,
常州市武进区人民法院嘉泽人民法庭,江苏省,常州市,武进区,31.6807465,119.7808919,,,
含山县人民法院,安徽省,马鞍山市,含山县,31.7337634,118.0937219,,,
含山县人民检察院,安徽省,马鞍山市,含山县,31.7356412,118.1008495,,,
威海市环翠区人民法院,山东省,威海市,环翠区,37.5123382,122.1232566,,,
百色市中级人民法院,广西壮族自治区,百色市,,23.8829583,106.6489209,,,
威海火炬高技术开发区人民法院,,,,37.5200156,122.0285517,,,
环翠区人民法院张村人民法庭,山东省,威海市,环翠区,37.4889218,122.0244189,,,
燕喜餐饮,,,,40.3611871,116.6554767,,,
包河区人民法院,安徽省,合肥市,包河区,31.7984554,117.302869,,,
樱花苑食堂,,,,25.6694755,100.1529988,,,
华庄人民法庭,,,,31.4775287,120.3462503,,,
江门市江海区人民法院审判区,广东省,江门市,江海区,22.5636604,113.1028059,,,
共青城市人民法院,江西省,九江市,共青城市,29.2540045,115.7908577,,,
共青法院审判大楼,,,,29.2541693,115.790851,,,
新会区人民法院古井法庭,广东省,江门市,新会区,22.352922,113.1082935,,,
馆陶县人民法院,河北省,邯郸市,馆陶县,36.5485205,115.2731746,,,
吴桥县人民法院,河北省,沧州市,吴桥县,37.6365191,116.4094055,,,
下关校区一食堂,,,,25.6085108,100.2097144,,,
嘉定区人民法院南翔人民法庭,上海市,嘉定区,嘉定区,31.2951768,121.3165765,,,
玉环市人民法院,浙江省,台州市,玉环市,28.1168063,121.2443514,,,
浚县人民法院,河南省,鹤壁市,浚县,35.6600826,114.5469727,,,
安康市中级人民法院,陕西省,安康市,,32.6900634,109.0009036,,,
华宇购物广场,,,,37.8736995,112.5438425,,,
沿滩区人民法院,四川省,自贡市,沿滩区,29.2710139,104.8735235,,,
陈村镇人民法院,,,,22.9564793,113.2270027,,,
伦教人民法庭,,,,22.8680763,113.2168012,,,
广州市中级人民法院,广东省,广州市,,23.2289611,113.2857994,,,
杏坛镇人民法庭,,,,22.7908821,113.1457068,,,
同心县人民法院,宁夏回族自治区,吴忠市,同心县,36.9525679,105.9003647,,,
同心县人民检察院,宁夏回族自治区,吴忠市,同心县,36.952508,105.898905,,,
平山县人民法院,河北省,石家庄市,平山县,38.264555,114.1756065,,,
寿光市人民法院,山东省,潍坊市,寿光市,36.8662274,118.7813402,,,
畅达路法院家属院小区,,,,38.2628921,109.7464744,,,
法院街,,,,34.8055503,114.3358079,,,
法院街,,,,34.8056148,114.3369956,,,
法院街,,,,34.8056583,114.3358156,,,
法院街,,,,34.8056732,114.3369954,,,
法院街,,,,34.8054305,114.3402209,,,
1818美食广场,,,,34.2712881,117.1814016,,,
南城晚钟风情街,,,,29.9863194,106.2582405,,,
新化县人民法院,湖南省,娄底市,新化县,27.7219085,111.3119252,,,
衢江区法院,浙江省,衢州市,衢江区,28.9778292,118.9550285,,,
南通市通州区人民法院平潮法庭,江苏省,南通市,通州区,32.0961975,120.7368336,,,
建业大食堂,,,,35.65,114.2770151,,,
沂源县检察院,山东省,淄博市,沂源县,36.1845557,118.1709279,,,
鱼峰区人民法院,广西壮族自治区,柳州市,鱼峰区,24.3197188,109.4447035,,,
圣井法庭,,,,36.6712974,117.4300262,,,
法院东街,,,,34.7529313,113.673467,,,
桥东区人民法院,河北省,张家口市,桥东区,40.7823018,114.8920621,,,
中山市中级人民法院,广东省,中山市,,22.5170665,113.3846403,,,
石景山区法院,北京市,石景山区,,39.9244097,116.187043,,,
西九龙调解中心,,,,22.3305166,114.1533168,,,
人民法院旧址,,,,36.6834171,118.4834254,,,
福清市人民法院,福建省,福州市,福清市,25.7180674,119.3468183,,,
建设路法院里,,,,23.4792902,111.3113053,,,
梧州市中级人民法院,广西壮族自治区,梧州市,,23.4805536,111.2631244,,,
梧州市万秀区人民检察院,广西壮族自治区,梧州市,万秀区,23.4895041,111.2976546,,,
玫瑰湖一条街,,,,23.4827175,111.2453275,,,
中山市人民法院坦洲人民法庭,广东省,中山市,坦洲镇,22.2744943,113.463311,,,
原中南制药食堂,,,,27.2659685,111.5045225,,,
江苏省苏州市人民检察院,江苏省,苏州市,,31.3054548,120.5848888,,,
姑苏区人民法院金阊人民法庭,江苏省,苏州市,姑苏区,31.3054039,120.5753025,,,
平川区司法局,甘肃省,白银市,平川区,36.7214519,104.8105556,,,
上杭县人民法院,福建省,龙岩市,上杭县,25.058713,116.4301626,,,
人民法院,,,,34.9428196,113.0959123,,,
中山市第二人民法院,广东省,中山市,小榄镇,22.6524802,113.2335122,,,
餐厅,,,,39.8662791,116.0658345,,,
玉环市人民法院港北人民法庭,浙江省,台州市,玉环市,28.2207382,121.2850138,,,
人民法院,,,,45.7748076,130.9987975,,,
Food Service,,,,32.1930076,119.4782488,,,
龙湖美食广场,,,,29.3166517,104.8042724,,,
溧阳市人民法院,江苏省,常州市,溧阳市,31.4112718,119.4728648,,,
北京市怀柔区人民法院,北京市,怀柔区,,40.3419278,116.6230286,,,
怀柔区司法局北房司法所,北京市,怀柔区,,40.3244544,116.6954433,,,
吉安市中级人民法院,江西省,吉安市,,27.0916873,114.952148,,,
怒江州中级人民法院,,,,25.8240752,98.8555076,,,
怀远县人民法院,安徽省,蚌埠市,怀远县,32.9728631,117.2121515,,,
南溪区检察院,四川省,宜宾市,南溪区,28.8488083,104.9654097,,,
大名县人民法院,河北省,邯郸市,大名县,36.2924081,115.1518289,,,
合肥铁路运输法院,,,,31.8205865,117.2606977,,,
四食堂,,,,30.7849457,103.9537504,,,
二食堂,,,,30.7779566,103.9527414,,,
汉阳区人民法院,湖北省,江堤街道,武汉市,30.5396422,114.2471978,,,
临清市人民法院,山东省,聊城市,临清市,36.8257857,115.7171583,,,
虹口区人民法院,上海市,虹口区,,31.2777917,121.4583957,,,
合川区人民法院,重庆市,合川区,,29.9703228,106.2756531,,,
大安区人民法院,四川省,自贡市,大安区,29.369622,104.7734531,,,
老余杭美食街,,,,30.2634727,119.9370196,,,
食堂,,,,30.5113038,120.6839353,,,
余杭法庭,,,,30.2591633,119.9524244,,,
天津市高级人民法院,天津市,,,39.1240657,117.1671005,,,
福州市晋安区人民法院执行局,福建省,福州市,晋安区,26.0758417,119.360385,,,
襄阳市铁路运输法院,湖北省,襄阳市,,32.0552091,112.143069,,,
湖北省潜江市人民法院,湖北省,潜江市,,30.3973107,112.8929746,,,
故城县人民法院,河北省,衡水市,故城县,37.3574606,115.9696707,,,
时代美食广场,,,,29.0485545,106.6362477,,,
重庆市綦江区人民法院,重庆市,綦江区,,29.0568762,106.6388929,,,
辛集市人民法院,河北省,石家庄市,辛集市,37.9428886,115.2236287,,,
粉岭裁判法院,,,,22.4954701,114.1388913,,,
宁波东部新城中心幼儿园,,,,29.8724384,121.6239302,,,
岐山县人民法院,陕西省,宝鸡市,岐山县,34.3127449,107.6291365,,,
上海市高级人民法院,上海市,,,31.205271,121.4548565,,,
南漳县人民检察院,湖北省,襄阳市,南漳县,31.7834911,111.862663,,,
孟村回族自治县人民法院,河北省,沧州市,孟村回族自治县,38.0751103,117.1078699,,,
下岗街,,,,23.9034074,106.6223996,,,
防城区人民法院诉讼服务中心,广西壮族自治区,防城港市,防城区,21.7311608,108.363221,,,
徐州市云龙区人民法院,江苏省,徐州市,云龙区,34.251897,117.2243196,,,
徐州市云龙区检察院,江苏省,徐州市,云龙区,34.2513161,117.2242367,,,
美食城,,,,34.2441688,117.247254,,,
徐州经济技术开发区人民法院,,,,34.2702709,117.275438,,,
徐州经济技术开发区人民检察院,,,,34.2694319,117.275385,,,
三沙市三沙群岛人民法院和检察院,海南省,三沙市,,16.8326379,112.3343067,,,
青州市人民法院,山东省,潍坊市,青州市,36.6874142,118.4987196,,,
晋安区人民法院,福建省,福州市,晋安区,26.0845941,119.3418332,,,
徐州市鼓楼区人民法院,江苏省,南京市,鼓楼区,34.292689,117.2344179,,,
顺德美食城,,,,22.8266035,113.2546629,,,
南溪区法院,四川省,宜宾市,南溪区,28.8499586,104.9679041,,,
武安市人民法院,河北省,邯郸市,武安市,36.6926823,114.1653239,,,
黑龙江省法官学校,黑龙江省,,,45.7417155,126.6841985,,,
坑梓人民法庭,,,,22.746339,114.3787924,,,
无锡市梁溪区人民法院,江苏省,无锡市,梁溪区,31.5880118,120.3113204,,,
无锡市崇安区人民检察院,江苏省,无锡市,,31.5884185,120.3121359,,,
上街区人民法院,河南省,郑州市,上街区,34.8134106,113.3005412,,,
南康区塘江人民法院,江西省,赣州市,南康区,25.8128111,114.7416468,,,
延年食街,,,,22.8132205,113.2582551,,,
法院住宅小区,,,,29.9729017,106.2696716,,,
安徽省高级人民法院,安徽省,,,31.8535835,117.2343997,,,
襄阳市中级人民法院,湖北省,襄阳市,,32.0074193,112.100794,,,
法院宿舍,,,,31.8346567,117.2471944,,,
法院路,,,,28.1574622,104.4960191,,,
合肥高新技术产业开发区人民法院,,,,31.8274975,117.1314227,,,
福清市检察院,福建省,福州市,福清市,25.7213446,119.3570757,,,
望都县人民法院,河北省,保定市,望都县,38.6940699,115.1467547,,,
武汉市中级人民法院,湖北省,武汉市,,30.6254672,114.2374599,,,
宜昌市中级人民法院,湖北省,宜昌市,,30.7182579,111.3242642,,,
鞍山市中级人民法院,辽宁省,鞍山市,,41.1047321,123.0189979,,,
光山县人民法院,河南省,信阳市,光山县,32.0103091,114.9168057,,,
如皋法院,,,,32.3660001,120.5575982,,,
江苏省如皋市人民检察院,江苏省,南通市,如皋市,32.3667853,120.5597132,,,
如皋市人民法院,江苏省,南通市,如皋市,32.3659082,120.5576552,,,
如皋法院环境资源法院,,,,32.3663533,120.5573974,,,
长春中级人民法院,,,,43.8034639,125.2717885,,,
坪山区人民法院,广东省,深圳市,坪山区,22.6834139,114.3344044,,,
中山路美食街,,,,22.8139513,108.3188163,,,
赣榆区人民法院,江苏省,连云港市,赣榆区,34.8255161,119.1097784,,,
海头人民法庭,,,,34.9466049,119.1855105,,,
防城港美食广场,,,,21.6322027,108.3450032,,,
山西省高级人民法院,山西省,,,37.8403771,112.5267076,,,
太原市中级人民法院,山西省,太原市,,37.8048123,112.5183713,,,
太原市人民检察院,山西省,太原市,,37.8090972,112.5187281,,,
防城区人民法院大院,广西壮族自治区,防城港市,防城区,21.7714481,108.3549018,,,
梅州市中级人民法院,广东省,梅州市,,24.2782062,116.1268486,,,
襄州区人民法院,湖北省,襄阳市,襄州区,32.0948973,112.2050128,,,
常熟市人民检察院,江苏省,苏州市,常熟市,31.6726118,120.7641881,,,
后街273文化创意园,,,,23.6696406,117.0002889,,,
独山县人民法院,贵州省,黔南布依族苗族自治州,独山县,25.8247691,107.5399392,,,
泰兴市人民法院 交通事故巡回审判庭,江苏省,泰州市,泰兴市,32.1976023,120.0469038,,,
合肥市瑶海区人民法院,安徽省,合肥市,瑶海区,31.8984235,117.3410886,,,
定安天九美食文化广场,,,,19.6670217,110.3455857,,,
北京市昌平区人民法院,北京市,昌平区,,40.2121686,116.2222969,,,
柳州市城中区人民法院,广西壮族自治区,柳州市,城中区,24.3577635,109.4306622,,,
南华西司法所,,,,23.1082574,113.2513856,,,
宁强县人民法院,陕西省,汉中市,宁强县,32.8322169,106.2560887,,,
西青人民法院,,,,39.1408386,117.0011679,,,
肥东县人民法院,安徽省,合肥市,肥东县,31.8952073,117.4510829,,,
北食堂,,,,30.8961485,121.8875503,,,
宿城区人民法院,江苏省,宿迁市,宿城区,33.9608076,118.2349479,,,
李园学生食堂,,,,29.8225649,106.4224241,,,
禾丰楼,,,,29.8290928,106.4273906,,,
阳信县人民法院,山东省,滨州市,阳信县,37.6316152,117.5929428,,,
梅园学生食堂,,,,29.8268301,106.4191051,,,
桃园学生食堂,,,,29.8303377,106.4230439,,,
橘园学生食堂,,,,29.8291482,106.4221141,,,
常州市金坛区人民法院,江苏省,常州市,金坛区,31.7459942,119.5890411,,,
三河市人民法院,河北省,廊坊市,三河市,39.9883277,117.0413245,,,
南苑食堂,,,,33.6451799,118.9962859,,,
北苑食堂,,,,33.6457994,118.9962857,,,
杏园餐厅,,,,33.6387553,119.0055981,,,
理工食堂,,,,33.6487515,119.0056579,,,
微山县人民法院执行工作局,山东省,济宁市,微山县,34.8215281,117.1121505,,,
梨树区法院,黑龙江省,鸡西市,梨树区,45.095295,130.6985318,,,
食街,,,,22.9569375,113.2232169,,,
生态餐厅,,,,33.7564069,118.4426304,,,
栏杆集镇司法所,,,,31.980555,117.8061609,,,
学苑餐厅,,,,31.1701634,121.5713946,,,
防城港市中级人民法院,广西壮族自治区,防城港市,,21.7103868,108.3601994,,,
站前广场,,,,46.4419293,127.1131493,,,
乐亭县人民法院,河北省,唐山市,乐亭县,39.428922,118.8795827,,,
成都铁路运输中级法院,四川省,成都市,郫都区,30.748176,103.9923493,,,
肥西县人民法院执行局,安徽省,合肥市,肥西县,31.7437663,117.1651102,,,
成山卫法庭,,,,37.3733459,122.5730123,,,
人民法庭,,,,45.2956063,130.6992709,,,
西青区人民法院中北人民法庭,天津市,西青区,,39.1250753,117.088132,,,
原阳县人民法院,河南省,新乡市,原阳县,35.0674146,113.9300229,,,
台山市人民法院,广东省,江门市,台山市,22.2337569,112.7934397,,,
沙富食街,,,,22.8702845,113.0601725,,,
欢城法庭,,,,34.8942341,117.0683705,,,
长宁区法院,上海市,长宁区,,31.1989817,121.4052296,,,
People's Courthouse of Jiangbei District,,,,29.6073724,106.5694859,,,
潍坊市奎文区人民法院,山东省,潍坊市,奎文区,36.6986287,119.1432233,,,
昌邑市人民法院围子人民法庭,山东省,潍坊市,昌邑市,36.8502326,119.4641454,,,
婺城区人民法院,浙江省,金华市,婺城区,29.0822565,119.6455733,,,
金华市中级人民法院,浙江省,金华市,,29.0837358,119.6395328,,,
金东区人民法院,浙江省,金华市,金东区,29.1013616,119.6996265,,,
大同市中级人民法院,山西省,大同市,,40.0763735,113.3294182,,,
来安县人民法院,安徽省,滁州市,来安县,32.4166057,118.4223956,,,
东区检察院,四川省,攀枝花市,东区,26.5610773,101.7277107,,,
东区法院,四川省,攀枝花市,东区,26.5611594,101.726851,,,
南沙区人民法院,广东省,广州市,南沙区,22.7864382,113.5913197,,,
盐亭县人民法院,四川省,绵阳市,盐亭县,31.2099819,105.3834199,,,
大铁棚食堂,,,,22.1858096,113.5310866,,,
槐林人民法庭,,,,31.4247025,117.6187235,,,
江西省南昌市青山湖区人民检察院,江西省,南昌市,青山湖区,28.6626926,115.9615785,,,
南昌市青山湖区人民法院,江西省,南昌市,青山湖区,28.6633799,115.961612,,,
南昌市中级人民法院小区,江西省,南昌市,,28.6888844,115.9083431,,,
花山区人民检察院,安徽省,马鞍山市,花山区,31.7028757,118.5247279,,,
饶平县人民法院,广东省,潮州市,饶平县,23.6685193,116.9806398,,,
江西省高新技术产业开发区人民法院,江西省,,,28.6848429,115.9865231,,,
陕西省西安市中级人民法院,陕西,西安,未央区,34.3126482,108.9825616,,,
市法院宿舍,,,,31.868121,117.2684165,,,
宿豫区人民法院,江苏省,宿迁市,宿豫区,33.9514047,118.3274773,,,
宿迁市中级人民法院,江苏省,宿迁市,,33.9627591,118.2576662,,,
长安法庭,,,,30.4480789,120.4455954,,,
湘潭市中级人民法院,湖南省,湘潭市,,27.8322154,112.9486579,,,
自贡市中级人民法院,四川省,自贡市,,29.3175336,104.759743,,,
微山县人民法院,山东省,济宁市,微山县,34.8070194,117.132336,,,
番禺区人民检察院,广东省,广州市,番禺区,22.931881,113.3775407,,,
虹桥人民法院,,,,28.2254624,121.033536,,,
九龙城裁判法院,,,,22.3252351,114.1852674,,,
明德二食堂,,,,27.8504743,112.9293177,,,
芮城县人民法院,山西省,运城市,芮城县,34.6988288,110.6745045,,,
柳北区人民法院,广西壮族自治区,柳州市,柳北区,24.3662544,109.4133505,,,
温州市中级人民法院,浙江省,温州市,,27.9936672,120.6910546,,,
宝清县法院,黑龙江省,双鸭山市,宝清县,46.3203211,132.1756003,,,
永济市人民法院蒲州法庭,山西省,运城市,永济市,34.8294526,110.3286291,,,
朝阳湾人民法庭,,,,42.0511317,117.9339628,,,
台州市中级人民法院审判庭,浙江省,台州市,,28.6552516,121.4196216,,,
克勒沟人民法庭,,,,41.9438964,118.1692606,,,
桂林市雁山区人民检察院,广西壮族自治区,桂林市,雁山区,25.0688734,110.2989261,,,
品香苑餐厅,,,,34.7959646,113.8841782,,,
乐惠苑餐厅,,,,34.7973298,113.880999,,,
永济市人民法院,山西省,运城市,永济市,34.8686786,110.4425193,,,
菏泽市牡丹区人民法院,山东省,菏泽市,牡丹区,35.2546807,115.4074529,,,
菏泽市中级人民法院,山东省,菏泽市,,35.235275,115.4658429,,,
忻州市中级人民法院,山西省,忻州市,,38.4288475,112.712324,,,
法院巷,,,,29.8776193,121.5404102,,,
椒江区人民法院,浙江省,台州市,椒江区,28.6744121,121.4159936,,,
双湖县人民法院,西藏自治区,那曲市,双湖县,33.189779,88.833432,,,
山南市人民检察院,西藏自治区,山南市,,29.2527967,91.7839747,,,
县人民法院,,,,26.6869529,109.2083445,,,
当涂人民法院太白人民法庭,,,,31.5146331,118.4748707,,,
平原县人民法院,山东省,德州市,平原县,37.1648392,116.4274569,,,
平凉市中级人民法院,甘肃省,平凉市,,35.554187,106.6719751,,,
航一食堂,,,,39.1103856,117.3428513,,,
肇庆市中级人民法院,广东省,肇庆市,,23.082943,112.5029559,,,
东兴区人民法院,四川省,内江市,东兴区,29.6055178,105.1091995,,,
榆树市人民检察院,吉林省,长春市,榆树市,44.8260365,126.5170018,,,
南开区人民法院,天津市,南开区,,39.1055019,117.1334474,,,
杭州市上城区人民检察院,浙江省,杭州市,上城区,30.286144,120.2083937,,,
湘江风情,,,,36.6721714,117.119455,,,
那片草原,,,,36.6718156,117.1213231,,,
穆斯林兰州拉面,,,,36.671364,117.1221816,,,
楼兰香西域抓饭,,,,36.6713278,117.122231,,,
张亮麻辣烫,,,,36.6712915,117.1222986,,,
天津市河西区人民法院,四川省,攀枝花市,西区,39.1024556,117.2071121,,,
新兴县司法局,广东省,云浮市,新兴县,22.7019292,112.2469819,,,
广德市人民法院,安徽省,宣城市,广德市,30.879243,119.4237014,,,
正楼,,,,40.219846,116.2298224,,,
北院综合食堂,,,,39.112087,117.3430046,,,
扶余市检察院,吉林省,松原市,扶余市,44.9871953,126.0606658,,,
阿勒泰市人民法院,新疆维吾尔自治区,阿勒泰地区,阿勒泰市,47.7909497,88.1202347,,,
常熟市人民法院,江苏省,苏州市,常熟市,31.676144,120.765176,,,
路桥夜市,,,,28.5811109,121.36474,,,
高新区人民法院,,,,34.6220931,112.3851397,,,
厚和德小区(高新区法院家属院),,,,34.6239611,112.3839813,,,
南宁市江南区人民法院,广西壮族自治区,南宁市,江南区,22.7880223,108.3194098,,,
兴宁区人民法院,广西壮族自治区,南宁市,兴宁区,22.854163,108.3624234,,,
广西壮族自治区高级人民法院,广西壮族自治区,,,22.8166332,108.3709047,,,
齐齐哈尔市中级人民法院,黑龙江省,齐齐哈尔市,,47.292219,123.9463427,,,
开发区法院,,,,21.2290904,110.3953718,,,
广州海事法院湛江法庭,,,,21.2277494,110.3961539,,,
全椒县人民法院,安徽省,滁州市,全椒县,32.0772914,118.2761318,,,
南宁市中级人民法院,广西壮族自治区,南宁市,,22.8057544,108.3685981,,,
榆树市初级人民法院,吉林省,长春市,榆树市,44.8317312,126.5303521,,,
椒江区人民法院椒北法庭,浙江省,台州市,椒江区,28.7094304,121.4146537,,,
汤山人民法庭,,,,32.0079395,119.0458507,,,
吉木萨尔县人民法院五彩湾人民法庭,新疆维吾尔自治区,昌吉回族自治州,吉木萨尔县,44.7840997,88.8650095,,,
大新县人民法院,广西壮族自治区,崇左市,大新县,22.8444725,107.2004816,,,
天等县人民法院,广西壮族自治区,崇左市,天等县,23.0605781,107.1398168,,,
番禺区人民刑事审判庭,广东省,广州市,番禺区,22.9127466,113.317147,,,
食堂,,,,30.7091681,103.8576182,,,
番禺区人民法院,广东省,广州市,番禺区,22.9660438,113.3435489,,,
麻城市人民法院,湖北省,黄冈市,麻城市,31.1651353,114.969597,,,
旭阳镇人民法庭,,,,29.4297566,104.4068406,,,
荣县检察院,四川省,自贡市,荣县,29.4545462,104.4051027,,,
防城人民法庭,,,,21.7408778,108.3610898,,,
茂名市中级人民法院,广东省,茂名市,茂南区,21.6668156,110.9411319,,,
南校区美食城,,,,30.6666546,104.1349982,,,
怀柔区人民法院桥梓人民法庭,北京市,怀柔区,,40.28993,116.5655262,,,
吴松街临时熟食小贩市场,,,,22.3077113,114.170535,,,
唐山市高新区法院 检察院,河北省,唐山市,,39.6940193,118.1737332,,,
丰庭餐厅,,,,24.6107288,118.2982389,,,
一期竞丰食堂,,,,24.6136985,118.3127406,,,
固镇县人民法院,安徽省,蚌埠市,固镇县,33.3343637,117.3130994,,,
麻山区检察院,黑龙江省,鸡西市,麻山区,45.2094632,130.4717202,,,
麻山区法院,黑龙江省,鸡西市,麻山区,45.2079883,130.4726783,,,
法院街,,,,45.7398522,126.6208384,,,
东平县人民法院,山东省,泰安市,东平县,35.9327818,116.4285264,,,
东平县检察院,山东省,泰安市,东平县,35.933834,116.4286581,,,
中大街美食城,,,,33.7825605,118.3830444,,,
万里美食休闲广场,,,,31.2699783,121.4080149,,,
汕尾市中级人民法院,广东省,汕尾市,,22.7901719,115.3761378,,,
南海区人民法院,广东省,佛山市,南海区,23.0593923,113.1365656,,,
新洲区人民法院,湖北省,武汉市,新洲区,30.8350357,114.794313,,,
潜山市法院,安徽省,安庆市,潜山市,30.6322918,116.5943331,,,
法院路,,,,45.9991728,129.2389469,,,
利辛县人民法院,安徽省,亳州市,利辛县,33.1469116,116.1574827,,,
舒城县人民法院,安徽省,六安市,舒城县,31.4758443,116.941938,,,
珠海市金湾区人民法院,广东省,珠海市,金湾区,22.1275757,113.3560767,,,
唐山市路北区人民法院,河北省,唐山市,路北区,39.6480798,118.1593322,,,
雨山区人民法院,安徽省,马鞍山市,雨山区,31.6601474,118.4919256,,,
濉溪县人民法院,安徽省,淮北市,濉溪县,33.9205971,116.7294909,,,
莎车牌楼地区人民检察院,,,,38.9558835,77.4443244,,,
皮山县人民法院,新疆维吾尔自治区,和田地区,皮山县,37.5802762,78.283859,,,
市法院,,,,36.6648916,117.0011189,,,
上海第一中级人民法院,,,,31.1971585,121.4103525,,,
方城县人民法院,河南省,南阳市,方城县,33.2512003,112.9974936,,,
遇樱·食巷 美食街,,,,39.9240191,116.3102985,,,
团风县人民法院,湖北省,黄冈市,团风县,30.6456795,114.870351,,,
赣州市人民检察院,江西省,赣州市,,25.831615,114.9384362,,,
淅川县人民法院,河南省,南阳市,淅川县,33.1559068,111.4659025,,,
夷陵区人民法院,湖北省,宜昌市,夷陵区,30.7617272,111.3415266,,,
开发区法庭,,,,36.1334767,117.8321283,,,
环江毛南族自治县人民法院,广西壮族自治区,河池市,环江毛南族自治县,24.8268464,108.2492352,,,
检察院,,,,45.9889943,128.7432908,,,
法院,,,,45.988938,128.7421173,,,
哈尔滨林区法院,,,,45.7285986,126.7149038,,,
新泰市人民法院楼德人民法庭（在建）,山东省,泰安市,新泰市,35.8683897,117.2981456,,,
2160餐厅,,,,40.8761487,115.4291784,,,
安镇人民法庭,,,,31.6112317,120.4704585,,,
朝阳区人民法院第二办公区,吉林省,长春市,朝阳区,39.8397919,116.4521661,,,
北京破产法庭,,,,39.8868731,116.2329219,,,
清远市中级人民法院,广东省,清远市,,23.6867639,113.0461109,,,
古城人民法庭,,,,25.6729694,100.1609856,,,
新县人民法院,河南省,信阳市,新县,31.6780105,114.8676983,,,
新县人民法院,河南省,信阳市,新县,31.6763105,114.8689176,,,
未央区法院家属院,陕西省,西安市,未央区,34.3084731,108.9474656,,,
桥东区人民检察院,河北省,张家口市,桥东区,40.7822269,114.8930869,,,
襄城区人民法院,湖北省,襄阳市,襄城区,32.0100043,112.1264801,,,
襄阳号,,,,32.0395209,112.129878,,,
固始县人民法院,河南省,信阳市,固始县,32.1715095,115.6323173,,,
百思特美食,云南省,德宏傣族景颇族自治州,芒市,24.4372234,98.583916,,,
迁安市人民法院,河北省,唐山市,迁安市,39.9957884,118.6926862,,,
遵化市人民法院,河北省,唐山市,遵化市,40.1973399,117.9417681,,,
博望区人民法院,安徽省,马鞍山市,博望区,31.5558,118.8009871,,,
赣州市经济技术开发区人民检察院,江西省,赣州市,,25.8418798,114.8809294,,,
赣州市经济技术开发区人民法院,江西省,赣州市,,25.8418774,114.8797993,,,
小食堂,,,,34.3797809,108.984483,,,
大食堂,,,,34.3796667,108.9837629,,,
洛社人民法庭,,惠山区,,31.6418823,120.1977034,,,
乐清市人民法院,浙江省,温州市,乐清市,28.1147826,120.973552,,,
洛阳市中级人民法院,河南省,洛阳市,,34.6156359,112.4348692,,,
龙马潭区人民法院,四川省,泸州市,龙马潭区,28.9199577,105.4252331,,,
常州市金坛区人民法院薛埠人民法庭,江苏省,常州市,金坛区,31.7188559,119.3805261,,,
湖边镇法院,,,,25.8745624,114.8971157,,,
洛阳市老城区人民法院,河南省,洛阳市,老城区,34.7010839,112.4381069,,,
东营市中级人民法院,山东省,东营市,,37.4335045,118.6658511,,,
宿豫区人民法院皂河法庭,江苏省,宿迁市,宿豫区,34.035084,118.1042029,,,
餐厅,,,,31.0560829,121.5039206,,,
武山县司法局,甘肃省,天水市,武山县,34.7272893,104.9195757,,,
一食万巷美食城,湖北省,武汉市,江岸区,30.5842036,114.2856454,,,
广州知识产权法院,,,,23.1785153,113.4804539,,,
黄舣人民法庭,,,,28.8842274,105.5796096,,,
点军区人民法院,湖北省,宜昌市,点军区,30.6758347,111.2736657,,,
歙县人民法院,安徽省,黄山市,歙县,29.8708519,118.3854198,,,
遂溪县旧人民法院内院小区,广东省,湛江市,遂溪县,21.3835013,110.244174,,,
遂溪县人民法院,广东省,湛江市,遂溪县,21.3858509,110.2639527,,,
唐山市古冶区人民法院,河北省,唐山市,古冶区,39.7083506,118.4433275,,,
通州区人民法院漷县人民法庭,江苏省,南通市,通州区,39.7747078,116.7894287,,,
阳新县人民法院太子法庭,湖北省,黄石市,阳新县,30.0321562,115.1720107,,,
武冈市人民法院,湖南省,邵阳市,武冈市,26.7430243,110.6350255,,,
邕宁区 人民法院,广西壮族自治区,南宁市,邕宁区,22.7816312,108.4615054,,,
泾县人民法院,安徽省,宣城市,泾县,30.6826577,118.4251666,,,
泾县人民法院检察院,安徽省,宣城市,泾县,30.6869377,118.4263059,,,
洪江市人民法院,湖南省,怀化市,洪江市,27.2142765,109.8265504,,,
汉人街美食城,,,,43.9118912,81.3357991,,,
喀什老城夜市美食广场,,,,39.4731698,75.9972314,,,
唐山市中级人民法院,河北省,唐山市,,39.6644602,118.1304445,,,
玉龙纳西族自治县人民法院,云南省,丽江市,玉龙纳西族自治县,26.8247728,100.2338128,,,
丽江市中级人民法院,云南省,丽江市,,26.9007948,100.2104125,,,
古城区人民法院,云南省,丽江市,古城区,26.8922952,100.2139217,,,
北京互联网法院,,,,39.8274861,116.2989664,,,
长丰县人民法院,安徽省,合肥市,长丰县,32.4610407,117.1586001,,,
豪情美食广场,,,,21.6759221,108.3627965,,,
中心区烧烤美食城,,,,21.6931437,108.3603892,,,
丰南区钱营人民法庭,河北省,唐山市,丰南区,39.5664703,118.3656509,,,
兰州新区法院,,,,36.4774409,103.6634941,,,
西苑饭堂,,,,23.0238063,113.0892327,,,
路南区人民法院,河北省,唐山市,路南区,39.6126644,118.1394182,,,
东南亚 美食街区,,,,22.7704316,108.4191334,,,
怀来县人民法院,河北省,张家口市,怀来县,40.4140411,115.5212107,,,
宿松县人民法院,安徽省,安庆市,宿松县,30.1756778,116.1311075,,,
河池市中级人民法院,广西壮族自治区,河池市,,24.6938927,108.0841917,,,
金岭夜市城,,,,30.5339262,111.4255602,,,
大港区人民法院,,,,38.848777,117.4932771,,,
祁连县人民法院,青海省,海北藏族自治州,祁连县,38.1704812,100.256534,,,
华龙区人民检察院,河南省,濮阳市,华龙区,35.7588782,115.0708009,,,
宜昌市猇亭区法院,湖北省,宜昌市,猇亭区,30.552031,111.4606799,,,
河南省漯河市人民检察院,河南省,漯河市,,33.6041452,114.0122059,,,
新泰市人民法院,山东省,泰安市,新泰市,35.9190827,117.7615206,,,
绩溪县人民法院,安徽省,宣城市,绩溪县,30.0669224,118.5683504,,,
青秀区 人民法院仙葫住宅区,广西壮族自治区,南宁市,青秀区,22.8075762,108.4362293,,,
北京市清河人民检察院,北京市,,,39.2286036,117.6634151,,,
北京市第一中级人民法院清河法庭,北京市,,,39.2286684,117.6620631,,,
四川省广安市中级人民法院,四川省,广安市,,30.4599173,106.6428246,,,
叠彩区法院,广西壮族自治区,桂林市,叠彩区,25.3178067,110.3094947,,,
泗县公安局,安徽省,宿州市,泗县,33.4858907,117.9088461,,,
宝坻区人民法院,天津市,宝坻区,,39.6902172,117.2801158,,,
五河县人民法院,安徽省,蚌埠市,五河县,33.1321739,117.8661582,,,
密云区人民法院,北京市,密云区,,40.3678667,116.8259724,,,
小西门美食城,,,,25.0460178,102.6981909,,,
南昌市中级人民法院贤士湖住宅区,江西省,南昌市,,28.6918841,115.910697,,,
江永县人民法院,湖南省,永州市,江永县,25.2722349,111.3470201,,,
灵璧县人民法院,安徽省,宿州市,灵璧县,33.5583342,117.542679,,,
青云谱区法院宿舍,江西省,南昌市,青云谱区,28.6351735,115.9054155,,,
虞城县人民法院,河南省,商丘市,虞城县,34.4058856,115.8155306,,,
腾冲市人民法院,云南省,保山市,腾冲市,25.0694132,98.4814359,,,
商丘市睢阳区人民法院凯旋人民法庭,河南省,商丘市,睢阳区,34.3660609,115.6451567,,,
鹤庆县人民法院,云南省,大理白族自治州,鹤庆县,26.5636257,100.1476026,,,
滁州市琅琊区人民法院,安徽省,滁州市,琅琊区,32.3359323,118.3178532,,,
青阳县人民法院,安徽省,池州市,青阳县,30.6365164,117.8601386,,,
萧山区人民法院,浙江省,杭州市,萧山区,30.1846731,120.2554842,,,
通化县人民法院,吉林省,通化市,通化县,41.6777992,125.7679592,,,
蚌埠市龙子湖区人民法院,安徽省,蚌埠市,龙子湖区,32.9101456,117.4487158,,,
团结美食城,,,,22.756617,108.3213946,,,
丰台区人民法院立案庭,北京市,丰台区,,39.8614647,116.2825968,,,
桂林市中级人民法院,广西壮族自治区,桂林市,,25.2583245,110.3123958,,,
伍家岗区人民法院,湖北省,宜昌市,伍家岗区,30.6720894,111.3425185,,,
良庆区 人民法院,广西壮族自治区,南宁市,良庆区,22.732284,108.3331879,,,
济南市长清区人民法院长清法庭,山东省,济南市,长清区,36.3926334,116.7650063,,,
济南市长清区人民法院,山东省,济南市,长清区,36.5523841,116.7521009,,,
苏桥法院,,,,25.0994455,110.0418121,,,
渝中区人民法院,重庆市,渝中区,渝中区,29.5472484,106.5064958,,,+86 23 6390 5888
梅江区人民法院,广东省,梅州市,梅江区,24.314409,116.1116272,,,
梅县区法院,广东省,梅州市,梅县区,24.2676634,116.0741968,,,
朝阳县人民法院,辽宁省,朝阳市,朝阳县,41.4935946,120.3826483,,,
常州市天宁区人民法院兰陵人民法庭,江苏省,常州市,天宁区,31.7640862,119.945616,,,
信阳市中级人民法院,河南省,信阳市,,32.1497413,114.1276965,,,
天津市东丽区人民法院,天津市,东丽区,,39.0785001,117.3303076,,,
阜南县人民法院,安徽省,阜阳市,阜南县,32.6656328,115.5910568,,,
益阳市中级人民法院,湖南省,益阳市,,28.5639381,112.3567929,,,
中华人民共和国最高人民法院,,,,39.901464,116.3990127,,,
八公山区人民法院,安徽省,淮南市,八公山区,32.6390351,116.8261676,,,
仁和区法院,四川省,攀枝花市,仁和区,26.4793412,101.7452453,,,
枝江市人民法院,湖北省,宜昌市,枝江市,30.4527406,111.737883,,,
梅江区人民法院,广东省,梅州市,梅江区,24.2883514,116.142376,,,
栖霞区人民法院迈皋桥法庭,江苏省,南京市,栖霞区,32.1195933,118.8182289,,,
晋源区人民法院,山西省,太原市,晋源区,37.7141468,112.4692094,,,
沙流河人民法庭,,,,39.8724431,117.9482909,,,
樊城区人民法院,湖北省,襄阳市,樊城区,32.0635341,112.1354023,,,
法院路,,,,32.0641124,112.134663,,,
仙游县人民法院,福建省,莆田市,仙游县,25.343322,118.6956153,,,
宁德市中级人民法院,福建省,宁德市,,26.6726567,119.5538537,,,
临桂区法院,广西壮族自治区,桂林市,临桂区,25.2241589,110.1709581,,,
宁城县人民法院,内蒙古自治区,赤峰市,宁城县,41.6026226,119.3168764,,,
北京市第四中级人民法院,北京市,,,39.8868076,116.2260152,,,
茶马花街,,,,24.9861079,102.6196888,,,
庙街小吃街,,,,22.6997906,112.2258042,,,
远安县人民法院,湖北省,宜昌市,远安县,31.0727225,111.6366328,,,
遂宁市中级人民法院,四川省,遂宁市,,30.5260233,105.5995638,,,
莱州市人民法院,山东省,烟台市,莱州市,37.2015361,119.9431981,,,
射洪市人民法院,四川省,遂宁市,射洪市,30.855384,105.4035459,,,
射洪市人民检察院,四川省,遂宁市,射洪市,30.8553322,105.4026632,,,
师大南院食堂,,,,28.1683297,112.9325926,,,
山东省烟台市人民检察院,山东省,烟台市,,37.4604357,121.4458468,,,
津南区人民法院,天津市,津南区,,38.9777189,117.389807,,,
防城区人民法院,广西壮族自治区,防城港市,防城区,21.7308574,108.3633043,,,
清苑区人民法院,河北省,保定市,清苑区,38.7691879,115.4945825,,,
日照市东港区人民法院城郊法庭,山东省,日照市,东港区,35.4185842,119.4212268,,,
莱山区人民法院,山东省,烟台市,莱山区,37.4648701,121.4384485,,,
仁和区劳动争议仲裁院,四川省,攀枝花市,仁和区,26.4976707,101.7373395,,,
郑州市中级人民法院,河南省,郑州市,,34.7667048,113.742063,,,
湖南省临武县人民法院,湖南省,郴州市,临武县,25.2790657,112.5685259,,,+86 0735 12368
东明县人民法院,山东省,菏泽市,东明县,35.31209,115.0876704,,,
常州市钟楼区人民法院,江苏省,常州市,钟楼区,31.8051615,119.8976693,,,
海北州法院,,,,36.9475103,100.9040623,,,
北京市高级人民法院办公及技术业务用房,北京市,,,39.9070021,116.7201076,,,
柳州市中级人民法院宿舍,广西壮族自治区,柳州市,,24.3166935,109.3995097,,,
南昌市新建区人民法院,江西省,南昌市,新建区,28.6846958,115.7940986,,,
南昌经济技术开发区人民检察院,,,,28.7506875,115.8387139,,,
滦州市人民法院,河北省,唐山市,滦州市,39.746027,118.7054464,,,
岚山区人民法院,山东省,日照市,岚山区,35.1217274,119.3001265,,,
安岚人民法庭,,,,35.1296953,119.2931997,,,
南昌市人民检察院,江西省,南昌市,,28.7035961,115.8602393,,,
江西省高级人民法院,江西省,,,28.7050287,115.8585388,,,
金汉餐饮街,,,,40.1356039,116.6533993,,,
金汉餐饮街,,,,40.1365769,116.6555072,,,
庐江县人民法院,安徽省,合肥市,庐江县,31.2529973,117.30803,,,
东阳市人民法院,浙江省,金华市,东阳市,29.2904422,120.2419658,,,
常州经济开发区人民法院,,,,31.7173654,120.0517943,,,
滦州市人民法院,河北省,唐山市,滦州市,39.7460536,118.705399,,,
德阳市旌阳区人民法院,四川省,德阳市,旌阳区,31.1623149,104.4179035,,,
乐亭县人民法院,河北省,唐山市,乐亭县,39.4287142,118.8796242,,,
汨罗市人民法院,湖南省,岳阳市,汨罗市,28.7998671,113.1000128,,,
望江县人民法院,安徽省,安庆市,望江县,30.1447629,116.6725737,,,
聊城大学博苑餐厅,,,,36.4296722,116.0074685,,,
聊城大学楠苑餐厅,,,,36.4355776,115.9904069,,,
聊城大学雅苑餐厅,,,,36.4344266,115.9880954,,,
聊城大学湖苑餐厅,,,,36.4328588,115.9881046,,,
法院冻结区域,,,,29.993705,106.2590193,,,
金马广场,,,,29.9913169,106.2618114,,,
丰润区人民法院,河北省,唐山市,丰润区,39.8255171,118.0838649,,,
离石区人民法院,山西省,吕梁市,离石区,37.5071406,111.1228749,,,
吕梁市中级人民法院,山西省,吕梁市,,37.624186,111.1481914,,,
屯溪区人民法院,安徽省,黄山市,屯溪区,29.6904755,118.2981914,,,
岱岳区法院,山东省,泰安市,岱岳区,36.1876592,117.0334697,,,
苍南县人民法院,浙江省,温州市,苍南县,27.518012,120.4353431,,,
港口区人民法院,广西壮族自治区,防城港市,港口区,21.6462323,108.3791097,,,
无为市人民法院,安徽省,芜湖市,无为市,31.3112048,117.8936273,,,
当涂县人民法院,安徽省,马鞍山市,当涂县,31.5723074,118.4895666,,,
仓山区法院单位宿舍,福建省,福州市,仓山区,26.0436898,119.3237572,,,
黄石市中级人民法院,湖北省,黄石市,下陆区,30.2073223,115.0321361,,,
岱岳区法院执行局,山东省,泰安市,岱岳区,36.1769697,116.9931116,,,
永泰县人民法院,福建省,福州市,永泰县,25.858512,118.9338092,,,
郎溪县人民法院,安徽省,宣城市,郎溪县,31.1403868,119.1877468,,,
栖霞区人民法院,江苏省,南京市,栖霞区,32.1303768,118.8911997,,,
萧县人民法院,安徽省,宿州市,萧县,34.2046923,116.9574827,,,
乐亭县人民法院汀流河人民法庭,河北省,唐山市,乐亭县,39.5033439,118.8216187,,,
西城区人民检察院,山西省,北京,城区,39.9404207,116.3610543,,,
西城区人民法院,山西省,北京,城区,39.9449885,116.3612491,,,
大山铺人民法庭,,,,29.4123362,104.794432,,,
中华人民共和国最高人民法院第三巡回法庭,江苏省,南京市,浦口区,32.1113713,118.6637793,,,
江北新区人民法院,,,,32.1086467,118.6666448,,,
丰顺县人民法院,广东省,梅州市,丰顺县,23.7406993,116.1774008,,,
汤南法庭,,,,23.7293307,116.2059113,,,
益阳市资阳区人民法院,湖南省,益阳市,资阳区,28.6076683,112.3498316,,,
金山区人民法院,上海市,金山区,,30.740565,121.3324502,,,
惠安县人民法院,福建省,泉州市,惠安县,25.0436751,118.8050644,,,
富宁县人民法院旅游法庭,云南省,文山壮族苗族自治州,富宁县,23.8873899,106.0788793,,,
自贡市中级人民法院,四川省,自贡市,,29.3342213,104.7773476,,,
南谯区人民法院,安徽省,滁州市,南谯区,32.3061695,118.3464896,,,
五华县人民法院,广东省,梅州市,五华县,23.9174004,115.7574817,,,
顺义区人民法院,北京市,顺义区,,40.1292673,116.661977,,,
兴宁市人民法院,广东省,梅州市,兴宁市,24.1330781,115.7165875,,,
英吉沙县人民法院,新疆维吾尔自治区,喀什地区,英吉沙县,38.9524371,76.1648507,,,
检察院·法院,,,,46.4382405,127.1161044,,,
水富市人民法院,云南省,昭通市,水富市,28.6135974,104.4084497,,,
江山市人民法院贺村人民法庭,浙江省,衢州市,江山市,28.6628345,118.5355486,,,
松北区人民法院,黑龙江省,哈尔滨市,松北区,45.8377742,126.6053914,,,
法院南路,,,,32.0061305,112.1008753,,,
鹤城区人民法院,湖南省,怀化市,鹤城区,27.5946877,110.0296184,,,
潢川县人民法院,河南省,信阳市,潢川县,32.1461156,115.0243688,,,
郫都区人民法院,四川省,成都市,郫都区,30.7995442,103.9010466,,,
天门市人民法院,湖北省,天门市,,30.6689728,113.146393,,,
福安人民法院畲区人民法庭,,,,27.0559568,119.5362674,,,
无棣县人民法院,山东省,滨州市,无棣县,37.7450583,117.6180462,,,
沿江人民法院,,,,45.99819,129.2380304,,,
顺义区人民法院执行局,北京市,顺义区,,40.1283468,116.6766827,,,
滨海新区人民法院塘沽审判区,天津市,滨海新区,,39.0242942,117.642525,,,
普陀区法院,浙江省,舟山市,普陀区,31.252384,121.3887873,,,
河北省玉田县人民法院鸦鸿桥人民法庭,河北省,唐山市,玉田县,39.758045,117.85086,,,
奎文区法院宿舍区,山东省,潍坊市,奎文区,36.6986225,119.1440047,,,
西湖区司法局转塘司法所,浙江省,杭州市,西湖区,30.1521858,120.0766099,,,
伙牌人民法庭,,,,32.1710511,112.1279292,,,
张家口市中级人民法院立案大厅,河北省,张家口市,,40.8168111,114.8913481,,,
张家口市中级人民法院,河北省,张家口市,,40.8167797,114.8905673,,,
法院街,,,,45.7408536,126.6220151,,,
赫山区人民法院,湖南省,益阳市,赫山区,28.5680452,112.3811822,,,
杭州市余杭区瓶窑镇凤都村共享法庭,浙江省,杭州市,余杭区,30.3744339,119.995479,,,
余杭区人民法院瓶窑人民法庭,浙江省,杭州市,余杭区,30.3699773,119.974629,,,
理塘县人民法院,四川省,甘孜藏族自治州,理塘县,29.9982018,100.2691678,,,
祥云县人民检察院,云南省,大理白族自治州,祥云县,25.4877065,100.5572381,,,
泸西县人民法院,云南省,红河哈尼族彝族自治州,泸西县,24.5542091,103.7539869,,,
襄阳市高新区人民法院,湖北省,襄阳市,,32.0953341,112.1176924,,,
江津区人民法院,重庆市,江津区,,29.3111701,106.2599295,,,
源汇区法院执行局,河南省,漯河市,源汇区,33.5531267,114.0205266,,,
人民法院宿舍,,,,35.9109786,117.7621079,,,
终审法院 (兴建中),,,,22.1921097,113.5397517,,,
迁安市人民法院沙河驿人民法庭,河北省,唐山市,迁安市,39.8649971,118.5663937,,,
沙河驿人民法庭,,,,39.8650435,118.5663857,,,
萧山区人民法院临浦人民法庭,浙江省,杭州市,萧山区,30.0479693,120.2411393,,,
临东社区共享法庭,,,,30.0427555,120.2538541,,,
石家庄铁路运输法院,,,,37.994528,114.4527206,,,
南昌市红谷滩区人民法院和南昌市新建区人民法院招贤法庭,江西省,南昌市,红谷滩区,28.696378,115.7349069,,,
田林县人民法院,广西壮族自治区,百色市,田林县,24.3124557,106.2127575,,,
学生食堂,,,,26.9018274,112.549455,,,
城厢街道人民法院共享法庭(南门江社区),,,,30.1572013,120.2597622,,,
萧山区人民法院共享法庭(油树下社区),浙江省,杭州市,萧山区,30.1642122,120.2893381,,,
郑庄子中心法庭,,,,39.6997911,118.200813,,,
萧山区人民法院共享法庭(前塘社区),浙江省,杭州市,萧山区,30.1479568,120.3053027,,,
南岗区人民法院,黑龙江省,哈尔滨市,南岗区,45.7574077,126.6669281,,,
浦口区人民法院,江苏省,南京市,浦口区,32.0929413,118.657012,,,
哈尔滨市中级法院,黑龙江省,哈尔滨市,,45.7477814,126.6690273,,,
市法院家属楼,,,,45.7482433,126.6710462,,,
黑龙江省检察院,黑龙江省,,,45.7478244,126.6708063,,,
法院家属楼,,,,45.7483443,126.6735928,,,
萧山区人民法院共享法庭(霞江村),浙江省,杭州市,萧山区,30.1465588,120.3179819,,,
萧山区人民法院共享法庭(新塘街道),浙江省,杭州市,萧山区,30.1522709,120.3023813,,,
萧山区人民法院共享法庭(新丰村),浙江省,杭州市,萧山区,30.1560018,120.327992,,,
初级法院大楼 (兴建中),,,,22.1844042,113.5372749,,,
初级法院大楼 (兴建中),,,,22.1850534,113.5373008,,,
成都市武侯区人民法院,四川省,成都市,武侯区,30.6467521,103.9801614,,,
均园餐厅,,,,22.5900078,113.9457039,,,
格物园餐厅,,,,22.5877019,113.9477799,,,
柳园餐厅,,,,22.5919395,113.9461776,,,
如心广场,,,,29.9751822,122.1741262,,,
浦沿人民法庭,,,,30.1648474,120.157099,,,
赵各庄人民法庭,,,,39.7677506,118.4198624,,,
萧山区人民法院共享法庭(三江社区),浙江省,杭州市,萧山区,30.1262043,120.1749277,,,
新华共享法庭,,,,30.2149604,120.2917115,,,
萧山区人民法院刑事审判法庭,浙江省,杭州市,萧山区,30.246418,120.3757801,,,
锦园三餐厅,,,,22.5868811,113.9357946,,,
知行园,,,,22.585082,113.929613,,,
瀚园一餐厅,,,,22.5952787,113.9395167,,,
建水县人民法院,云南省,红河哈尼族彝族自治州,建水县,23.6373647,102.8271831,,,
延吉市人民法院,吉林省,延边朝鲜族自治州,延吉市,42.8921826,129.461011,,,
宁海县人民法院,浙江省,宁波市,宁海县,29.3010967,121.4371933,,,
吴桥县人民检察院,河北省,沧州市,吴桥县,37.6363586,116.4062833,,,
福山区人民法院,山东省,烟台市,福山区,37.4763183,121.2373475,,,
福山美食城,,,,37.4805562,121.2541079,,,
食堂,,,,39.9286645,116.6121678,,,
漳州市中级人民法院,福建省,漳州市,,24.5057856,117.6841063,,,
杭州市萧山区长巷村共享法庭,浙江省,杭州市,萧山区,30.1613615,120.4328282,,,
杭州市萧山区东社村共享法庭,浙江省,杭州市,萧山区,30.1996908,120.4078448,,,
眉县人民法院,陕西省,宝鸡市,眉县,34.2659147,107.7626728,,,
郑州铁路中级法院,,,,34.7870885,113.8831865,,,
滦南县人民法院,河北省,唐山市,滦南县,39.5198187,118.6837619,,,
呼兰区法院,黑龙江省,哈尔滨市,呼兰区,45.888211,126.5790936,,,
昆都仑区人民法院,内蒙古自治区,包头市,昆都仑区,40.6184473,109.8143108,,,
燕京航城生活广场,,,,39.9719743,116.7908472,,,
春妮粥铺 品客祥烤鸭 熟食,,,,39.972184,116.7916283,,,
合浦县人民法院,广西壮族自治区,北海市,合浦县,21.66029,109.2165772,,,
北京市东城区人民法院,山西省,阳泉市,城区,39.9401245,116.4094016,,,
烟台经济技术开发区人民法院,,,,37.5490645,121.2506532,,,
小集人民法庭,,,,39.4678253,118.266006,,,
大理州中级人民法院,,,,25.6193278,100.2161263,,,
烟台市芝罘区人民检察院,山东省,烟台市,芝罘区,37.6012995,121.3713902,,,
烟台市芝罘区人民法院,山东省,烟台市,芝罘区,37.6030803,121.3712159,,,
运城市中级人民法院,山西省,运城市,,35.0355458,111.0243686,,,
叶城县人民法院,新疆维吾尔自治区,喀什地区,叶城县,37.8764989,77.4517763,,,
叶城县人民检察院,新疆维吾尔自治区,喀什地区,叶城县,37.8825536,77.436742,,,
珠海市中级人民法院,广东省,珠海市,,22.2828445,113.5319086,,,
小吃区,,,,26.0570612,102.8224691,,,
杭州市萧山区进化村共享法庭,浙江省,杭州市,萧山区,30.1904051,120.4686654,,,
昭阳区中级人民法院,云南省,昭通市,昭阳区,27.3295682,103.7003656,,,
襄城区铁路运输法院,湖北省,襄阳市,襄城区,32.0216506,112.1790914,,,
白银区西郊人民法庭,甘肃省,白银市,白银区,36.5422244,104.1547045,,,
潘村人民法庭,,,,33.0893193,118.1315426,,,
食堂,,,,31.3117515,117.9037153,,,
海阳市人民检察院,山东省,烟台市,海阳市,36.6900763,121.1648011,,,
海阳市人民法院,山东省,烟台市,海阳市,36.6912743,121.1642982,,,
靖西市人民法院,广西壮族自治区,百色市,靖西市,23.1449128,106.4101651,,,
富顺县人民法院审判庭,四川省,自贡市,富顺县,29.1907702,104.9529135,,,
烟台市经济技术开发区人民检察院,山东省,烟台市,,37.5634411,121.236337,,,
黎城县人民法院,山西省,长治市,黎城县,36.5230534,113.3885285,,,
筠连县人民法院,四川省,宜宾市,筠连县,28.1574476,104.4954135,,,
福山区人民检察院,山东省,烟台市,福山区,37.4762364,121.2391868,,,
北京市第三中级人民法院,北京市,,,39.9990436,116.4640172,,,
滨海新区人民法院汉沽审判区,天津市,滨海新区,,39.2408459,117.7746479,,,
横山桥人民法院,,,,31.7825077,120.1175907,,,
杭州市萧山区益农镇赵家湾共享法庭,浙江省,杭州市,萧山区,30.1849259,120.5706798,,,
上海市四岔河农场区人民法院,上海市,,,33.3225477,120.5240906,,,
静园食堂,,,,30.2116142,115.0222764,,,
成都市金牛区金泉派出法庭,四川省,成都市,金牛区,30.7272208,103.9976732,,,
大兴区人民法院,北京市,大兴区,,39.7609992,116.3229657,,,
香坊人民法院,,,,45.7379145,126.6698676,,,
常州市武进区人民法院前黄法庭,江苏省,常州市,武进区,31.5902249,119.9696523,,,
滁州市中级人民法院,安徽省,滁州市,,32.2783491,118.3233735,,,
熊猫食堂,,,,32.0003894,112.256358,,,
星际大排档,,,,32.0008391,112.2542555,,,
营地食堂,,,,32.0082569,112.2542148,,,
铜仁市中级人民法院,贵州省,铜仁市,,27.7376001,109.1827886,,,
花天锦地,,,,30.5739405,104.0024823,,,
青岛市市北区人民法院审判法庭,山东省,青岛市,市北区,36.0742376,120.334717,,,
北京市房山区人民法院,北京市,房山区,房山区,39.7452648,116.1315605,,,+86 10 8936 6877
洪洞县人民法院广胜寺人民法庭,山西省,临汾市,洪洞县,36.3050219,111.7898239,,,
潞州区人民法院,山西省,长治市,潞州区,36.1962116,113.1225246,,,
国民政府最高法院旧址,,,,29.7433649,106.353926,,,
龙口市人民检察院,山东省,烟台市,龙口市,37.6402903,120.5014211,,,
龙口市人民法院,山东省,烟台市,龙口市,37.6406384,120.5027642,,,
市府路小吃街,,,,26.8985815,112.606747,,,
鱼台县人民法院,山东省,济宁市,鱼台县,34.9920667,116.6499766,,,
清河镇人民法院,,,,35.0214006,116.6128373,,,
南京市雨花台区人民法院,江苏省,南京市,雨花台区,31.994254,118.7716231,,,
杭州市临平区人民法院,浙江省,杭州市,临平区,30.4089412,120.2967038,,,
杭州市临平区临平街道星火社区共享法庭,浙江省,杭州市,临平区,30.4303885,120.2968034,,,
杭州市临平区临平街道桂芳桥社区共享法庭,浙江省,杭州市,临平区,30.424526,120.3023263,,,
常州市新北区人民法院孟河人民法庭,江苏省,常州市,新北区,32.0009871,119.8517606,,,
长治市中级人民法院,山西省,长治市,,36.2312553,113.1079797,,,
北港夜市,,,,21.6200024,108.3362857,,,
北港音乐美食街区,,,,21.6190014,108.3366568,,,
深甽派出法庭,,,,29.4252337,121.3423825,,,
海珠人民法院,,,,23.0838006,113.298231,,,
金坛区法院华罗庚高新区法庭,江苏省,常州市,金坛区,31.7139212,119.6772091,,,
厦门市海沧区人民法院,福建省,厦门市,海沧区,24.4869269,118.0253561,,,+86 592 530 8796
靖西市新靖镇司法所,广西壮族自治区,百色市,靖西市,23.1347284,106.4191048,,,
靖西市法院旧宿舍,广西壮族自治区,百色市,靖西市,23.1341622,106.4181565,,,
绍兴市柯桥区人民法院,浙江省,绍兴市,柯桥区,30.0882116,120.4790042,,,
塘栖人民法庭,,,,30.4745651,120.2037379,,,
简阳市人民法院,四川省,成都市,简阳市,30.4119136,104.545366,,,
临平区司法局塘栖司法所,浙江省,杭州市,临平区,30.4760982,120.182911,,,
杭州市临平区人民法院共享法庭(乐苑社区),浙江省,杭州市,临平区,30.4749281,120.1830614,,,
睢阳区人民法院,河南省,商丘市,睢阳区,34.3949493,115.6321232,,,
梁园区人民法院,河南省,商丘市,梁园区,34.4408161,115.6293905,,,
隆都人民法庭,,,,23.5782898,116.7272117,,,
贵港市中级人民法院,广西壮族自治区,贵港市,,23.1195491,109.5910684,,,
余杭区人民法院共享法庭(三白潭村),浙江省,杭州市,余杭区,30.4700416,120.1406808,,,
吴中区人民检察院,江苏省,苏州市,吴中区,31.2040106,120.5773061,,,
长治市上党区人民法院,山西省,长治市,上党区,36.0558118,113.0560262,,,
长春新区人民法院,吉林省,长春市,宽城区,43.9830539,125.423662,,http://ccgxfy.e-court.gov.cn/index.shtml,+86 431 8857 5046
通州区人民法院,江苏省,南通市,通州区,32.0251161,121.0658173,,,
丁河村共享法庭,,,,30.4571143,120.1882345,,,
潞城区人民法院,山西省,长治市,潞城区,36.3236836,113.2053781,,,
河北省秦皇岛市中级人民法院,河北省,秦皇岛市,,39.8901002,119.5109241,,,
法院路,,,,27.7861302,106.3952954,,,
法院路,,,,27.7860293,106.3952119,,,
丹徒区人民法院,江苏省,镇江市,丹徒区,32.135722,119.4290248,,,
法院道,,,,22.276573,114.1649911,,,
法院道,,,,22.2765996,114.1648751,,,
法院道,,,,22.2764365,114.1651405,,,
管村村共享法庭,,,,29.9154464,120.1461713,,,
一号食堂,,,,23.2909156,113.655068,,,
二号食堂,,,,23.2923263,113.6575192,,,
南苑千喜鹤美食广场,,,,27.8863904,112.8609915,,,
端州区人民法院,广东省,肇庆市,端州区,23.0840634,112.5103527,,,
重庆市第一中级人民法院,重庆市,,,29.5989049,106.5315141,,,
皇后街熟食市场,,,,22.2872406,114.1474231,,,
重庆市高级人民法院,重庆市,,,29.5954069,106.5209035,,,
南宁市青秀区人民法院,广西壮族自治区,南宁市,青秀区,22.8194998,108.3882133,,,
衡阳市雁峰区人民法院,湖南省,衡阳市,雁峰区,26.8432014,112.6099387,,,
潭柘寺人民法庭,,,,39.878938,116.0444107,,,
东河食品街,,,,40.5830319,110.0228749,,,
黑龙江省林区中级人民法院,黑龙江省,,,45.8706265,126.5114316,,,
麦浪餐厅,,,,34.799203,113.9940495,,,
建阳区人民法院,福建省,南平市,建阳区,27.3474122,118.1096742,,,
杭州市富阳区人民检察院,浙江省,杭州市,富阳区,30.0748726,119.9380364,,,
彭水县人民法院,,,,29.2898196,108.0830695,,,
嵊州市人民法院,浙江省,绍兴市,嵊州市,29.6039172,120.8272409,,,
泗阳县人民法院,江苏省,宿迁市,泗阳县,33.7228204,118.700414,,,
江汉区人民法院,湖北省,武汉市,江汉区,30.6269509,114.224832,,,
双江县人民法院,,,,23.4854079,99.8264431,,,
肇庆学院第二食堂,,,,23.1090516,112.4925412,,,
雍园,,,,23.1448574,113.3418015,,,
湖南省衡阳市中级人民法院,湖南省,衡阳市,,26.8977603,112.5556911,,,
东西湖区人民法院,湖北省,武汉市,东西湖区,30.640665,114.1164601,,,
武汉铁路运输法院,,,,30.6079612,114.3338236,,,
荣昌区人民法院,重庆市,荣昌区,,29.4170706,105.609287,,,
荣昌区人民检察院,重庆市,荣昌区,,29.4174365,105.6092766,,,
江岸区人民法庭二七人民法庭,湖北省,武汉市,江岸区,30.6302724,114.3052341,,,
衡阳市蒸湘区人民法院,湖南省,衡阳市,蒸湘区,26.9238496,112.5522663,,,
西塞山区人民法院,湖北省,黄石市,西塞山区,30.1963712,115.053119,,,
黄石经济技术开发区人民法庭,湖北省,黄石市,下陆区,30.205698,115.0272478,,,
延安市中级人民法院,陕西省,延安市,,36.6508192,109.497996,,,
南太湖新区法院,,,,30.9265097,120.1586495,,,
吴兴区人民法院,浙江省,湖州市,吴兴区,30.867285,120.1796553,,,
绍兴市柯桥区人民法院共享法庭(杨汛桥街道园里湖居),浙江省,绍兴市,柯桥区,30.1377089,120.3418103,,,
隆阳区人民法院,云南省,保山市,隆阳区,25.0948636,99.2336011,,,
延庆区人民法院,北京市,延庆区,,40.4490798,115.9642605,,,
洪山区法院,湖北省,武汉市,洪山区,30.4932435,114.391566,,,
诉讼服务中心,,,,30.4931775,114.392163,,,
青田县人民法院,浙江省,丽水市,青田县,28.1315865,120.2958417,,,
江北法院共享法庭(浮石社区),,,,29.8910275,121.5474375,,,
崔寨街道人民法庭,,,,36.8289913,117.0875942,,,
武昌区法院,湖北省,武汉市,武昌区,30.5589796,114.3088009,,,
永安广场,,,,23.1770362,112.8918147,,,
温榆河人民法庭,,,,39.9819366,116.5997495,,,
宁波市海曙区人民检察院,浙江省,宁波市,海曙区,29.8949686,121.5177882,,,
宁波市海曙区人民法院西郊法庭,浙江省,宁波市,海曙区,29.8723812,121.5145292,,,
古冶区人民法院,河北省,唐山市,古冶区,39.7347999,118.4405482,,,
学子时代广场,,,,37.7394231,112.6582348,,,
Taste 13 Food Court,,,,22.191275,113.5412142,,,
湖北省高级人民法院,湖北省,,,30.5573135,114.3165021,,,
法院小区,,,,30.5558904,114.3164923,,,
婺城区人民法院白龙桥人民法庭,浙江省,金华市,婺城区,29.096364,119.5604422,,,
武汉铁路运输中级人民法院,,,,30.5474607,114.5141708,,,
闽侯县人民法院荆溪人民法庭,福建省,福州市,闽侯县,26.1341326,119.1913349,,,
奉贤区人民法院,上海市,奉贤区,,30.9223353,121.4859058,,,
古田县人民法院,福建省,宁德市,古田县,26.5896833,118.7593659,,,
关岭人民法院,,,,25.9375463,105.6179122,,,
徽州区人民法院,安徽省,黄山市,徽州区,29.8397868,118.3321457,,,
大仓人民法院,,,,25.4180009,100.2232589,,,
澄海区人民法院,广东省,汕头市,澄海区,23.4771818,116.7484873,,,
江宁区人民法院,江苏省,南京市,江宁区,31.950922,118.842785,,,(025)12368
火锅城,,,,36.8076261,118.1369016,,,
封开县人民法院,广东省,肇庆市,封开县,23.3980647,111.5042854,,,
钱清人民法庭,,,,30.1290858,120.3911369,,,
敦化市人民法院,吉林省,延边朝鲜族自治州,敦化市,43.3520519,128.2345026,,,
美人松餐厅,,,,41.7418886,125.9827812,,,
广汉市人民法院,四川省,德阳市,广汉市,30.9991453,104.2784352,,,
池州市中级人民法院,安徽省,池州市,,30.6268923,117.4661622,,,
仁寿县人民检察院,四川省,眉山市,仁寿县,30.0084699,104.1670124,,,
张北人民法院,,,,41.1721366,114.7134912,,,
九堡派出所兼人民法院,,,,30.3136052,120.2688299,,,
宝坻区人民法院大口屯人民法庭,天津市,宝坻区,,39.5893783,117.2295586,,,
四川省高级人民法院机关办公区,四川省,,,30.6724995,104.0658962,,,
四川省高级人民法院,四川省,,,30.6907327,104.0194154,,,
和平县人民法院,广东省,河源市,和平县,24.4537083,114.9312633,,,
顺德区人民法院容桂人民法庭,广东省,佛山市,顺德区,22.7597825,113.2651426,,,
余干县信河人民法庭,江西省,上饶市,余干县,28.7006833,116.6543678,,,
余干县人民法院,江西省,上饶市,余干县,28.7023129,116.6937573,,,
美食区,,,,22.7114286,113.2206463,,,
武陵镇法庭,,,,29.0212625,111.6660713,,,
桐梓县人民法院,贵州省,遵义市,桐梓县,28.1499182,106.8258206,,,
自流井区人民检察院,四川省,自贡市,自流井区,29.3251291,104.7504103,,,
外文局食堂,,,,39.9340063,116.3059611,,,
区域法院,,,,22.2762822,114.1864314,,,
五沟人民法庭,,,,33.5284234,116.6050049,,,
上海市崇明区人民法院横沙人民法庭,上海市,崇明区,,31.3428645,121.8390935,,,
普定人民法院,,,,26.2837539,105.7189763,,,
上海海事法院,,,,31.2253329,121.5450202,,,
龙凤区人民法院,黑龙江省,大庆市,龙凤区,46.5169274,125.1098956,,,
大庆高新技术产业开发区人民法院,,,,46.5535284,125.1474736,,,
高等法院,,,,22.2783479,114.163328,,,
内江市中级人民法院,四川省,内江市,,29.5816809,105.050906,,,
苏仙区人民法院,湖南省,郴州市,苏仙区,25.7989923,113.1082367,,,
海口市琼山区人民法院,海南省,海口市,琼山区,19.9709912,110.3989541,,,
正定小商品夜市,,,,38.1615996,114.5537698,,,
金河夜市广场,,,,38.1610329,114.5534371,,,
桂林洋大学城-盒子夜市,,,,19.9803443,110.5114963,,,
高邮市人民法院,江苏省,扬州市,高邮市,32.7823084,119.4782967,,,
关谷学生街 关谷小吃街,,,,30.5082278,114.3981048,,,
雨城区人民法院,四川省,雅安市,雨城区,30.0258275,103.0535825,,,
深圳市人民检察院,广东省,深圳市,,22.5601477,114.1001626,,,
红岗区人民法院,黑龙江省,大庆市,红岗区,46.394674,124.8814452,,,
沙河夜市,,,,40.1456336,116.2887106,,,
汉中市汉台区人民法院,陕西省,汉中市,汉台区,33.0667586,107.0478716,,,
德保县人民法院,广西壮族自治区,百色市,德保县,23.3195532,106.5967756,,,
汉中市中级人民法院,陕西省,汉中市,,33.0636988,107.0153838,,,
汉中法院家属院,,,,33.063948,107.0151145,,,
饮马池小吃城,,,,33.0700728,107.032568,,,
临沂市相公法庭,山东省,临沂市,,35.1157091,118.4910887,,,
庄桥人民法庭,,,,29.9262782,121.5412327,,,
雷锋人民法庭,,,,28.2117085,112.8359524,,,
柳州铁路运输法院,,,,24.3045477,109.3807578,,,
柳南法院宿舍,,,,24.3073326,109.3900216,,,
安顺西秀区人民法院,贵州省,安顺市,西秀区,26.2628013,105.9743873,,,
华安县人民法院,福建省,漳州市,华安县,24.9964764,117.5216502,,,
遂平县人民法院,河南省,驻马店市,遂平县,33.1243525,114.002734,,,
深圳市中级人民法院,广东省,深圳市,福田区,22.5620098,114.0615357,,,
四号餐饮中心,,,,41.740186,123.5032827,,,
三号餐饮中心,,,,41.7397621,123.5034345,,,
江安县人民检察院,四川省,宜宾市,江安县,28.7236156,105.0675891,,,
法院宿舍,,,,28.7263621,105.0685109,,,
江安县人民法院,四川省,宜宾市,江安县,28.7269046,105.0686826,,,
贵定县人民法院,贵州省,黔南布依族苗族自治州,贵定县,26.545801,107.2414528,,,
麻江县人民法院谷硐法庭,贵州省,黔东南苗族侗族自治州,麻江县,26.4855991,107.4484913,,,
麻江人民法院,,,,26.501246,107.5937286,,,
外摊,,,,27.9189758,120.6484797,,,
永乐镇人民法庭,,,,23.9831642,106.6082493,,,
黔南州中级人民法院,,,,26.2593726,107.5866621,,,
金口人民法庭,,,,30.3410784,114.1314482,,,
四川天府新区人民法院,,,,30.4696142,104.0863049,,,
望城区人民法院,湖南省,长沙市,望城区,28.3653804,112.8150281,,,
莎车县人民法院,新疆维吾尔自治区,喀什地区,莎车县,38.3894802,77.239831,,,
十堰市茅箭区人民法院,湖北省,十堰市,茅箭区,32.6095005,110.7941976,,,
飞跃啤酒街,,,,43.8347327,125.2381266,,,
广州铁路运输法院,,,,22.9958403,113.2642149,,,
宣州区人民法院,安徽省,宣城市,宣州区,30.9571924,118.7771288,,,
静宁县法院,甘肃省,平凉市,静宁县,35.5284809,105.730746,,,
和龙市人民法院,吉林省,延边朝鲜族自治州,和龙市,42.5548058,129.0070199,,,
百色市中级人民法院宿舍区,广西壮族自治区,百色市,,23.9023173,106.6130924,,,
法院新村,,,,26.2121712,119.5347877,,,
煻空间美食文化城,,,,26.8790132,100.2371115,,,
石棉县人民法院,四川省,雅安市,石棉县,29.2300397,102.3604451,,,
河北省玉田县人民法院石臼窝人民法庭,河北省,唐山市,玉田县,39.6684348,117.686021,,,
石臼窝人民法庭,,,,39.6685864,117.6860761,,,
嘉善县人民检察院,浙江省,嘉兴市,嘉善县,30.8296212,120.9184164,,,
安达市人民法院,黑龙江省,绥化市,安达市,46.448289,125.2981155,,,
三里桥美食广场,,,,33.5565654,113.9854505,,,
闽清县法院集资楼小区,福建省,福州市,闽清县,26.2232893,118.8654563,,,
闽清县人民法院,福建省,福州市,闽清县,26.1952463,118.8752272,,,
龙圩区人民法院,广西壮族自治区,梧州市,龙圩区,23.3842088,111.2342623,,,
漯河市中级法院家属院,河南省,漯河市,,33.5700873,113.9943835,,,
漯河市召陵区人民法院,河南省,漯河市,召陵区,33.5906101,114.0895154,,,
漯河市中级人民法院,河南省,漯河市,,33.5932016,114.0134491,,,
广州市天河区人民法院,广东省,广州市,天河区,23.1132556,113.4001682,,,
肥西县人民法院,安徽省,合肥市,肥西县,31.7257042,117.1553085,,,
上海市第二中级人民法院,上海市,,,31.2643086,121.4588058,,,
福州铁路运输法院,,,,26.1290225,119.3246733,,,
彭州市人民法院,四川省,成都市,彭州市,30.9995662,103.9637864,,,
食八川,,,,31.0491758,121.7575872,,,
合江县人民法院,四川省,泸州市,合江县,28.8232097,105.8135334,,,
禅城区人民法院东区,广东省,佛山市,禅城区,23.018556,113.1034598,,,
禅城区人民法院西区,广东省,佛山市,禅城区,23.0182622,113.1026186,,,
网红食品,,,,30.862812,120.9255425,,,
共享法庭,,,,30.8863652,120.9231264,,,
莱阳市人民法院,山东省,烟台市,莱阳市,36.9488382,120.6935912,,,
四会市人民法院,广东省,肇庆市,四会市,23.3305307,112.7245102,,,
历城区人民法院鲍山法庭,山东省,济南市,历城区,36.7424924,117.171954,,,
万秀区人民法院,广西壮族自治区,梧州市,万秀区,23.4865495,111.2849317,,,
花地湾夜市,,,,23.0907629,113.2294172,,,
法院道,,,,22.2770819,114.1642518,,,
中卫市中级人民法院,宁夏回族自治区,中卫市,,37.5005892,105.1914208,,,
中卫市中级人民法院,宁夏回族自治区,中卫市,,37.5007051,105.1913913,,,
中卫市沙坡头区人民法院,宁夏回族自治区,中卫市,沙坡头区,37.5017703,105.1946081,,,
中卫市沙坡头区人民法院,宁夏回族自治区,中卫市,沙坡头区,37.5017823,105.1946681,,,
资溪县人民法院,江西省,抚州市,资溪县,27.721503,117.0655394,,,
大理市人民法院,云南省,大理白族自治州,大理市,25.5960237,100.2452832,,,
贺兰县人民法院,宁夏回族自治区,银川市,贺兰县,38.5794739,106.356139,,,
贺兰县人民法院,宁夏回族自治区,银川市,贺兰县,38.5794452,106.3560933,,,
贺兰县人民法院信访接待中心,宁夏回族自治区,银川市,贺兰县,38.5794855,106.3570383,,,
明光市人民法院,安徽省,滁州市,明光市,32.7860062,118.0165985,,,
南昌市西湖区人民法院,浙江省,杭州市,西湖区,28.6768937,115.8877227,,,
绥化市北林区人民法院,黑龙江省,绥化市,北林区,46.6561807,126.9710675,,,
哈尔滨铁路运输中级法院,,,,45.7201699,126.583349,,,
绥化市中级人民法院,黑龙江省,绥化市,,46.6476078,126.9678594,,,
锦枫美食街,,,,22.3421293,113.585085,,,
都兰县人民法院,青海省,海西蒙古族藏族自治州,都兰县,36.3113361,98.0956489,,,
都兰县人民法院,青海省,海西蒙古族藏族自治州,都兰县,36.3116277,98.0949088,,,
都兰县人民法院,青海省,海西蒙古族藏族自治州,都兰县,36.3115611,98.0957399,,,
岳池县人民法院,四川省,广安市,岳池县,30.5355141,106.4555567,,http://gaycfy.scssfw.gov.cn,
双流区人民法院,四川省,成都市,双流区,30.5839704,103.8974819,,,
双流区人民法院,四川省,成都市,双流区,30.5837438,103.8974728,,,
惠州大亚湾经济技术开发区人民法院,,,,22.748375,114.5206155,,,
东苑集装箱美食街,,,,32.2089734,118.7157801,,,
1960街区,,,,32.2037384,118.711495,,,
东安区人民法院,黑龙江省,牡丹江市,东安区,44.5427206,129.6228888,,,
阳明区人民法院,黑龙江省,牡丹江市,阳明区,44.6003215,129.6753225,,,
姚庄司法所,,,,30.9107862,120.9589165,,,
武汉铁路运输法院,,,,30.6241149,114.3868346,,,
北林区法院小区,黑龙江省,绥化市,北林区,46.6349478,126.97443,,,
大同市云冈区人民法院,山西省,大同市,云冈区,40.0290532,113.2008675,,,
吉胜街熟食市场,,,,22.2646975,114.2355432,,,
光泽县法院,福建省,南平市,光泽县,27.5367869,117.3306793,,,
共享法庭,,,,30.1041228,120.5047543,,,
含山县人民法院塔岗人民法庭,安徽省,马鞍山市,含山县,31.5010651,118.0847146,,,
法院家属楼,,,,33.5669361,114.0273631,,,
法院小区,,,,36.8776237,117.731115,,,
璧山区人民法院璧北法庭,重庆市,璧山区,,29.7258362,106.2229116,,,
什邡市人民法院,四川省,德阳市,什邡市,31.1236385,104.182166,,,
法院家属区,,,,31.1232777,104.1815756,,,
长乐区人民法院,福建省,福州市,长乐区,25.9564361,119.4963125,,,
法院宿舍,,,,30.6128376,114.2398474,,,
大庆市让胡路区人民法院,黑龙江省,大庆市,让胡路区,46.6160853,124.8505652,,,
邹平市人民法院,山东省,滨州市,邹平市,36.8630808,117.7389613,,,
滕州市人民法院龙泉法庭,山东省,枣庄市,滕州市,35.1007198,117.1574427,,,
屯门裁判法院,,,,22.3903785,113.9756996,,,
迁安市城关法庭,河北省,唐山市,迁安市,40.0015824,118.6838843,,,
丽康食肆,,,,22.8837742,113.0401851,,,
苏州同里湖大饭店,,,,31.1657927,120.722986,,,
鄞州公园法院诉讼服务大厅,,,,29.8193068,121.5361751,,,
河北路人民法庭,,,,39.6775659,118.1954954,,,
丰南区人民法院,河北省,唐山市,丰南区,39.5749475,118.0769466,,,
温县人民法院,河南省,焦作市,温县,34.9426246,113.0957169,,,
侯海美食街,,,,21.682546,108.3638663,,,
海宁市人民法院盐官人民法庭,浙江省,嘉兴市,海宁市,30.4108954,120.5453299,,,
郑州市中级人民法院,河南省,郑州市,,34.7668433,113.7421299,,,
永州市中级人民法院小区,湖南省,永州市,,26.2457866,111.6200211,,,
墨江哈尼族自治县人民法院,云南省,普洱市,墨江哈尼族自治县,23.4278869,101.6832979,,,
西塘人民法庭,,,,30.9403825,120.8847333,,,
特色美食街,,,,21.9488421,108.7395254,,,
涧西区人民法院,河南省,洛阳市,涧西区,34.655094,112.3417027,,,
黄山紫薇夜市,,,,34.2571594,117.2361299,,,
佳木斯市郊区人民法院,山西省,阳泉市,郊区,46.796756,130.3041906,,,
佳木斯中级人民法院,,,,46.7949346,130.3232776,,,
佳木斯市向阳区人民法院,黑龙江省,鹤岗市,向阳区,46.7814042,130.3732178,,,
延边州中级人民法院,吉林省,延边朝鲜族自治州,延吉市,42.8871939,129.4048024,,,
岱山县人民法院共享法庭,浙江省,舟山市,岱山县,30.2672407,122.221302,,,
济南市济阳区人民法院,山东省,济南市,济阳区,36.9638545,117.1698308,,,
芜湖市中级人民法院,安徽省,芜湖市,,31.369608,118.3635972,,,
岱山县人民法院,浙江省,舟山市,岱山县,30.2637084,122.2175923,,,
岱山县人民法院,浙江省,舟山市,岱山县,30.263883,122.2175496,,,
宁波市鄞州区人民法院,浙江省,宁波市,鄞州区,29.8196591,121.5357885,,,
苏尼特左旗人民法院,内蒙古自治区,锡林郭勒盟,苏尼特左旗,43.8549667,113.6436793,,,
嘉善县人民法院,浙江省,嘉兴市,嘉善县,30.8379448,120.9171621,,,
立案大厅,,,,30.8378819,120.9180782,,,
横琴粤澳深度合作区人民法院,,,,22.1408371,113.5151379,,,
北海市中级人民法院,广西壮族自治区,北海市,,21.4616177,109.1304852,,,
云梦县人民法院,湖北省,孝感市,云梦县,31.0179593,113.7619281,,,
塔城地区中级人民法院,新疆维吾尔自治区,塔城地区,,46.7483987,82.940347,,,
义县法院,辽宁省,锦州市,义县,41.5215658,121.2353925,,,
金夏商业街,,,,21.645227,108.3520679,,,
宁波市人民检察院,浙江省,宁波市,,29.854922,121.6142186,,,
盘锦中级人民法院,,,,40.7025846,122.1013747,,,
武汉东湖新技术开发区人民法院,,,,30.4814163,114.3983353,,,
安仁县人民法院,湖南省,郴州市,安仁县,26.7249214,113.2611371,,,
平顶山市新华区人民法院,河北省,石家庄市,新华区,33.7454355,113.2184032,,,
玉州区人民法院,广西壮族自治区,玉林市,玉州区,22.642308,110.1314379,,,
西塘司法所,,,,30.9412835,120.8857717,,,
建昌人民法院,,,,40.8205605,119.8251533,,,
魏塘街道谈公社区共享法庭,,,,30.8452665,120.9264035,,,
长沙中院知识产权法庭,,,,28.1920134,112.9035509,,,
龙井市人民法院,吉林省,延边朝鲜族自治州,龙井市,42.7728618,129.4023528,,,
法院街,,,,34.4103772,114.1843317,,,
尉氏县人民法院,河南省,开封市,尉氏县,34.4214146,114.1956259,,,
界首市人民法院,安徽省,阜阳市,界首市,33.2456674,115.3887279,,,
广州市黄埔区人民法院东院区,广东省,广州市,黄埔区,23.1092588,113.456598,,,
杨树湾镇法庭,,,,41.4691711,120.0635546,,,
敖汉旗人民法院,内蒙古自治区,赤峰市,敖汉旗,42.2912592,119.9162637,,,
天凝镇三发村共享法庭,,,,30.9229584,120.8375126,,,
中方县人民法院泸阳人民法庭,湖南省,怀化市,中方县,27.6145603,110.1068905,,,
屈原管理区人民法院,,,,28.8474642,112.9159666,,,
马家沟人民法庭,,,,39.6906414,118.2542561,,,
黑街,,,,30.8391004,121.5002864,,,
成都市锦江区人民法院,四川省,成都市,锦江区,30.631151,104.0978531,,,
西藏自治区高级人民法院巡审协调处,西藏自治区,,,30.5900807,104.1486762,,,
清风楼,,,,23.0257883,113.094759,,,
林头人民法庭,,,,31.5568775,117.9513759,,,
黄州区人民法院,湖北省,黄冈市,黄州区,30.4639928,114.8886901,,,
金牛区人民法院营门口人民法庭,四川省,成都市,金牛区,30.693031,104.0373385,,,
科尔沁中旗人民法院,,,,44.1082935,123.2596478,,,
黄冈市中级人民法院,湖北省,黄冈市,,30.4594281,114.8926756,,,
四川省高级人民法院诉讼服务中心,四川省,,,30.701398,104.0377511,,,
爱辉区自由贸易试验区法庭,黑龙江省,黑河市,爱辉区,50.226415,127.5024548,,,
成都市金牛区人民法院,四川省,成都市,金牛区,30.708149,104.0396453,,,
成都市金牛区人民法院沙河源人民法庭,四川省,成都市,金牛区,30.7164286,104.0452344,,,
光明区人民法院,广东省,深圳市,光明区,22.7371006,113.9184906,,,
突泉六户人民法庭,,,,45.6689853,121.4124862,,,
西湾夜市广场,,,,21.6343709,108.3436402,,,
区公安法院住宅小区,,,,23.0523021,112.4622793,,,
浦东新区人民法院,上海市,浦东新区,,31.2269662,121.5401502,,,
洮南人民法院,,,,45.3199925,122.7830989,,,
连云港市中级人民法院,江苏省,连云港市,,34.5932711,119.1968285,,,
建荣熟食市场,,,,22.396847,113.9694223,,,
连云港市海州区人民法院,辽宁省,阜新市,海州区,34.572404,119.1537311,,,
尖山区人民法院,黑龙江省,双鸭山市,尖山区,46.6759043,131.129206,,,
连云港经济技术开发区人民法院,,,,34.697159,119.3423085,,,
上海海事法院连云港派出法庭,,,,34.739215,119.3559666,,,
清原县人民法院,,,,42.0861879,124.9078761,,,
南京海事法院连云港法庭,,,,34.7598467,119.3419918,,,
姚庄人民法院,,,,30.9130687,120.9461208,,,
魏塘司法所,,,,30.8501755,120.9115658,,,
法院西街,,,,34.7537074,113.669775,,,
涂埠人民法庭,,,,29.0433166,115.8182642,,,
白塔埠人民法庭,,,,34.5736304,118.9332378,,,
定远县人民法院,安徽省,滁州市,定远县,32.5341119,117.6972174,,,
铜陵市义安区人民法院,安徽省,铜陵市,义安区,30.950416,117.9339375,,,
中华小吃街,,,,40.6266499,109.8879793,,,
沭阳县中级人民法院,江苏省,宿迁市,沭阳县,34.1165465,118.7635152,,,
郑州开发区人民法院,,,,34.7690403,113.7418983,,,
长沙县人民法院宿舍,湖南省,长沙市,长沙县,28.251912,113.0712037,,,
惠济区人民法院,河南省,郑州市,惠济区,34.8907726,113.5910255,,,
石马人民法庭,,,,23.8064243,112.8277239,,,
仓山区人民法院,福建省,福州市,仓山区,26.0497293,119.25054,,,
东莞市中级人民法院,广东省,东莞市,,23.0304658,113.7608941,,,
金鑫路夜市,,,,22.1337779,113.3508075,,,
金水区人民检察院,河南省,郑州市,金水区,34.8101578,113.645368,,,
涟水县人民法院陈师人民法庭,江苏省,淮安市,涟水县,33.7777782,119.1531782,,,
连江县人民法院,福建省,福州市,连江县,26.2116864,119.5350072,,,
民权县人民法院,河南省,商丘市,民权县,34.6491189,115.1766473,,,
五华区人民法院-北门人民法庭,云南省,昆明市,五华区,25.0482578,102.7102599,,,
和田市人民法院,新疆维吾尔自治区,和田地区,和田市,37.085509,79.9288409,,,
和田县人民检察院,新疆维吾尔自治区,和田地区,和田县,37.1044638,79.9324485,,,
和田地区人民法院,新疆维吾尔自治区,和田地区,,37.0775446,79.9031509,,,
墨玉县人民法院,新疆维吾尔自治区,和田地区,墨玉县,37.2749682,79.7240276,,,
墨玉县人民检察院,新疆维吾尔自治区,和田地区,墨玉县,37.2744291,79.7235271,,,
大兴区人民法院红星人民法庭,北京市,大兴区,,39.7577654,116.4447008,,,
淮安市仲裁委员会,江苏省,淮安市,,33.5952057,119.0748588,,,
靠山庄人民法庭,,,,40.1873874,118.1145532,,,
罗子沟司法所,,,,43.7246313,130.3408187,,,
延吉市人民法院朝阳川法庭,吉林省,延边朝鲜族自治州,延吉市,42.8789509,129.3767283,,,
浦兴路街道社区食堂,,,,31.2805008,121.5894422,,,
淮安市中级人民法院,江苏省,淮安市,,33.5952186,119.0433951,,,
上犹县人民法院,江西省,赣州市,上犹县,25.7869656,114.5369008,,,
龙陵县人民法院,云南省,保山市,龙陵县,24.5932194,98.699702,,,
辽宁省营口市中级人民法院,辽宁省,营口市,,40.6232084,122.2108138,,,
将乐县法院,福建省,三明市,将乐县,26.7197488,117.4748222,,,
汪清县人民法院,吉林省,延边朝鲜族自治州,汪清县,43.3229698,129.7695559,,,
宝应县人民法院,江苏省,扬州市,宝应县,33.217124,119.3393407,,,
虹口区人民法院,上海市,虹口区,,31.2782112,121.458437,,,
乌鲁木齐县人民法院,新疆维吾尔自治区,乌鲁木齐市,乌鲁木齐县,43.5094557,87.4638287,,,
无界汇,,,,31.247426,121.6039171,,,
珲春市人民法院,吉林省,延边朝鲜族自治州,珲春市,42.8873371,130.3798061,,,
福地大学城夜市,,,,36.9875144,121.9233271,,,
丰城市人民法院荣塘法庭,江西省,宜春市,丰城市,28.1611628,115.7344379,,,
兰州市榆中县青城镇人民法庭,甘肃省,兰州市,榆中县,36.3326716,104.1888967,,,
昔阳县人民法院,山西省,晋中市,昔阳县,37.6001457,113.7023561,,,
云县人民法院,云南省,临沧市,云县,24.4394064,100.1204544,,,
馨香食堂,,,,27.2015496,111.4331156,,,
溢香食堂,,,,27.2013744,111.4377343,,,
留香食堂,,,,27.1957965,111.4334973,,,
B2 餐厅,,,,23.3055064,113.6513703,,,
B1第二食堂,,,,23.3036969,113.65783,,,
德安县人民法院,江西省,九江市,德安县,29.3146879,115.760398,,,
法院家属楼,,,,46.2395568,130.5550173,,,
一期桃园饭堂,,,,23.276049,112.6766294,,,
桦南县人民法院,黑龙江省,佳木斯市,桦南县,46.2414769,130.5472721,,,
广宁县人民法院,广东省,肇庆市,广宁县,23.6308069,112.4143773,,,
南海区人民法院桂城人民法庭,广东省,佛山市,南海区,23.0368517,113.1929557,,,
瑞昌市人民法院,江西省,九江市,瑞昌市,29.6689364,115.6692908,,,
梁河县人民法院,云南省,德宏傣族景颇族自治州,梁河县,24.8169845,98.307427,,,
娄星区人民法院,湖南省,娄底市,娄星区,27.6963212,112.0022352,,,
北京市东城区人民法院,山西省,阳泉市,城区,39.8600884,116.4043293,,,
体育路小吃街,,,,31.6801682,118.5513746,,,
人民法院小区,,,,37.6006464,113.702437,,,
青山湖区人民法院湖坊人民法庭,江西省,南昌市,青山湖区,28.6644222,115.9481818,,,
南京市溧水区人民法院,江苏省,南京市,溧水区,31.6508215,119.0124122,,,
9号饭堂,,,,23.0689585,112.4367738,,,
南区食堂,,,,22.8130649,115.27163,,,
南昌市东湖区人民法院,江西省,南昌市,东湖区,28.7035596,115.8950306,,,
海花岛天下美食街,,,,19.6680862,109.2014212,,,
崇义县人民法院,江西省,赣州市,崇义县,25.6809879,114.3033329,,,
榆社县人民法院,山西省,晋中市,榆社县,37.0766906,112.9808117,,,
岳阳市云溪区人民法院南山法庭,湖南省,岳阳市,云溪区,29.5293444,113.3583865,,,
三合镇司法所,,,,42.4767387,129.7362128,,,
人民路人民法庭,,,,31.6237192,121.3959512,,,
最高人民法院第一巡回法庭,,深圳市,南山区,22.5265665,113.8911646,,,
建华区人民法院,黑龙江省,建华区,建华区,47.348781,123.9599215,,,
福州市中级人民法院,福建省,福州市,,26.0475958,119.2720951,,,
庐阳区人民法院,安徽省,合肥市,庐阳区,31.899813,117.2495837,,,
江南区人民法院吴圩人民法庭,广西壮族自治区,南宁市,江南区,22.6539081,108.2093605,,,
翁牛特旗人民法院,内蒙古自治区,赤峰市,翁牛特旗,42.9222281,118.9925668,,,
鄂托克前旗人民法院,内蒙古自治区,鄂尔多斯市,鄂托克前旗,38.1716598,107.467459,,,
潭水人民法庭,,,,22.047227,111.5917477,,,
贡山独龙族怒族自治县人民法院,云南省,怒江傈僳族自治州,贡山独龙族怒族自治县,27.7367416,98.6697979,,,
体育学院体校食堂/训练馆,,,,43.8600909,125.331216,,,
体校食堂,,,,43.8596831,125.3358891,,,
体育学院食堂,,,,43.8582236,125.3313575,,,
夏保中心运动员食堂,,,,43.8582317,125.3325857,,,
杨各庄人民法庭,,,,40.0906064,118.868409,,,
泸县人民法院,四川省,泸州市,泸县,29.1568935,105.3779975,,,
法院小区,,,,29.1589851,105.377309,,,
泸县人民检察院,四川省,泸州市,泸县,29.1572505,105.3787477,,,
玉蟾人民法庭,,,,29.1460424,105.3381758,,,
开心快餐厅(镇江开心休博园店),,,,32.2284713,119.2893151,,,
大兴沟司法所,,,,43.417465,129.6513561,,,
奥莱夜巷,,,,36.9938407,121.9449216,,,
长凝人民法庭,,,,39.5818957,118.7933536,,,
石岩人民法庭,,,,22.6999,113.9258524,,,
非遗街市,,,,23.7775072,112.9567543,,,
南山区人民法院西丽人民法庭,黑龙江省,深圳市,南山区,22.582384,113.9500781,,,
富强市场烧烤小吃城,,,,39.8019427,98.2696578,,,
昔阳小吃城,,,,37.6031727,113.7025607,,,
嘉兴市南湖区人民法院,浙江省,嘉兴市,南湖区,30.7520012,120.7833321,,,
虹桥法庭,,,,32.0525109,119.9825326,,,
阳泉市矿区人民法院,山西省,阳泉市,矿区,37.8771346,113.5120283,,,
潍坊市潍城区人民法院,山东省,潍坊市,潍城区,36.7212387,119.0749834,,,
韶关市中级人民法院,广东省,韶关市,,24.8031367,113.5453375,,,
哈尔滨市双城区人民法院,黑龙江省,哈尔滨市,双城区,45.3831991,126.3297452,,,
呼和浩特铁路运输中级人民法院,,,,40.8785909,111.7288198,,,
南海区人民法院狮山人民法庭,广东省,佛山市,南海区,23.1242738,113.0067052,,,
宁国市人民法院,安徽省,宣城市,宁国市,30.6562191,118.9743362,,,
查干湖休闲美食广场,,,,45.2091736,124.4197171,,,
阳泉市郊区人民法院,山西省,阳泉市,郊区,37.9426657,113.5929988,,,
湛河区人民法院,河南省,平顶山市,湛河区,33.724818,113.3294012,,,
湛河区法院家属院,河南省,平顶山市,湛河区,33.7247963,113.3287974,,,
建三江农垦法院,,,,47.2636019,132.6471821,,,
伊宁市人民法院,新疆维吾尔自治区,伊犁哈萨克自治州,伊宁市,43.9446597,81.2359712,,,
津南区人民法院,天津市,津南区,,38.9776935,117.3897497,,,
汇苑餐厅,,,,36.6341,109.466724,,,
西餐厅,,,,36.634437,109.4658722,,,
风味餐厅,,,,36.6350417,109.4653939,,,
宝安区人民法院,广东省,深圳市,宝安区,22.5595502,113.9059463,,https://www.bafy.gov.cn/,
南部县人民法院,四川省,南充市,南部县,31.3469449,106.0181965,,,
南部县人民检察院,四川省,南充市,南部县,31.3535121,106.0288177,,,
宝安区人民法院新安人民法庭,广东省,深圳市,宝安区,22.5732292,113.8900521,,,
鹤山市人民法院,广东省,江门市,鹤山市,22.7792423,112.9746902,,,
富锦市人民法院,黑龙江省,佳木斯市,富锦市,47.2301993,132.010624,,,
和味苑,,,,23.2953782,113.6857269,,,
寻味苑,,,,23.2948856,113.6856696,,,
宁波市中级人民法院法警训练基地,浙江省,宁波市,,29.8931224,121.6813439,,,
静边镇人民法院,,,,31.0140571,106.8335886,,,
谷城县人民法院,湖北省,襄阳市,谷城县,32.2606989,111.6253061,,,
漳浦县人民法庭,福建省,漳州市,漳浦县,24.1371848,117.61894,,,
汇通夜市,,,,34.3239609,108.6773869,,,
陆河县人民法院,广东省,汕尾市,陆河县,23.2788149,115.6509846,,,
李沧区人民法院楼山人民法庭,山东省,青岛市,李沧区,36.1774316,120.3800637,,,
第五餐厅,,,,38.8715882,121.5161473,,,
黄墩人民法庭,,,,35.3904477,119.1355367,,,
梅园食堂,,,,37.6602217,121.1231137,,,
格雅美食城,,,,37.6551343,121.1209213,,,
武威市人民检察院,甘肃省,武威市,,37.9130009,102.6451291,,,
武威市凉州区人民法院,甘肃省,武威市,凉州区,37.9347912,102.609253,,,
武威市中级人民法院,甘肃省,武威市,,37.9486121,102.6016369,,,
武威市司法局,甘肃省,武威市,,37.9459372,102.6088907,,,
凉州区人民检察院,甘肃省,武威市,凉州区,37.946268,102.6319648,,,
红原县人民法院,四川省,阿坝藏族羌族自治州,红原县,32.7991818,102.5367661,,,
开平市人民法院苍城人民法庭,广东省,江门市,开平市,22.4835436,112.557054,,,
清新区人民法院,广东省,清远市,清新区,23.7389263,113.0111147,,,
蓬莱人民法院长岛人民法庭,,,,37.9124232,120.741062,,,
鼎城区人民法院,湖南省,常德市,鼎城区,29.0017738,111.6562201,,,
日照市东港区人民法院三庄法庭,山东省,日照市,东港区,35.5033777,119.1712574,,,
中华人民共和国最高人民法院第二巡回法庭,,,,41.7157401,123.4532191,,,
大连市中级人民法院,辽宁省,大连市,,38.9111763,121.6077396,,,
洛龙区人民法院,河南省,洛阳市,洛龙区,34.6205158,112.4593495,,,
凤凰食堂,,,,24.6065607,118.0828471,,,
桥东区人民法院,河北省,张家口市,桥东区,37.0757543,114.5135834,,,
法院家属院,,,,35.748679,115.0181333,,,
濮阳县人民法院,河南省,濮阳市,濮阳县,35.7125437,115.0260028,,,
阜城县人民法院,河北省,衡水市,阜城县,37.8655117,116.1684349,,,
永年区人民法院,河北省,邯郸市,永年区,36.7614742,114.4980703,,,
鹤壁市中级人民法院,河南省,鹤壁市,,35.7332573,114.2847862,,,
淇滨区人民法院,河南省,鹤壁市,淇滨区,35.7215094,114.2868546,,,
南园食堂-留学生餐厅,,,,30.2986814,120.0746365,,,
开封市中级人民法院,河南省,开封市,,34.7987155,114.2977744,,,
魏县人民法院,河北省,邯郸市,魏县,36.357488,114.950082,,,
中牟县人民法院,河南省,郑州市,中牟县,34.7215737,113.9629546,,,
金水区人民法院,河南省,郑州市,金水区,34.7766851,113.6601419,,,
河南省高级人民法院,河南省,,,34.7649298,113.7042056,,,
南通市中级人民法院,江苏省,南通市,,32.0164483,120.8764707,,,
蜀山区人民法院,安徽省,合肥市,蜀山区,31.8603427,117.1572191,,,
西区裁判法院大楼,四川省,攀枝花市,西区,22.2867729,114.1405714,,,
凤阳县人民法院,安徽省,滁州市,凤阳县,32.8771569,117.5226416,,,
天水市秦州区人民法院,甘肃省,天水市,秦州区,34.5659497,105.6482243,,,
市法院,,,,36.6645763,117.0004562,,,
3路：黄家坪→人民法院（老年活动中心）,,,,28.8093984,113.0613,,,
3路：人民法院（老年活动中心）→黄家坪,,,,28.8094708,113.0613,,,
11路：粟桥驾考中心→人民法院（老年活动中心）,,,,28.7840801,113.0764513,,,
11路：人民法院（老年活动中心）→粟桥驾考中心,,,,28.7841276,113.0763364,,,
12路：人民法院（老年活动中心）→涂曹屋场,,,,28.7870421,113.0575313,,,
12路：涂曹屋场→人民法院（老年活动中心）,,,,28.7869427,113.0575313,,,
丰台区人民法院,北京市,丰台区,,39.8616418,116.2818641,,,
濮阳市中级人民法院经济开发区综合审判庭,河南省,濮阳市,,35.7856295,115.0062812,,,
河南省濮阳市中级人民法院审判法庭,河南省,濮阳市,华龙区,35.7978354,115.0120023,,,
法院,,,,37.3179577,117.1509235,,,
北京市第一中级人民法院,北京市,,,39.9051068,116.2239111,,,
横琴粤澳深度合作区人民法院,,,,22.1410453,113.5150838,,,
中级法院,,,,32.0171925,120.8777793,,,
耒阳市人民法院,湖南省,衡阳市,耒阳市,26.4108791,112.8004588,,,
法院,,,,41.8345757,114.5816732,,,
涿鹿县人民法院,河北省,张家口市,涿鹿县,40.3779075,115.199933,,,
法院路口,,,,27.2370668,119.8877921,,,
法院,,,,37.1643875,116.4276271,,,
未央区人民法院,陕西省,西安市,未央区,34.3168728,109.015575,,,
金山大道金山区人民法院,上海市,金山区,,30.7399211,121.3339459,,,
粉岭法院大楼,,,,22.4954336,114.1389892,,,
法院,,,,30.6802177,121.0164964,,,
市法院,,,,43.8020795,125.2700229,,,
宁波市海曙区人民法院,浙江省,宁波市,海曙区,29.8878623,121.5204806,,,
宁波鄞州人民法院望春人民法庭,,,,29.8644894,121.4396729,,,
深圳市龙华区人民法院,广东省,深圳市,龙华区,22.7002334,113.9800953,,,
清丰县人民检察院,河南省,濮阳市,清丰县,35.8860436,115.0948124,,,
一号餐饮中心,,,,41.74433,123.5145476,,,
乍浦人民法院,,,,30.6168501,121.1179178,,,
二号餐饮中心,,,,41.741451,123.5156061,,,
宁波市中级人民法院,浙江省,宁波市,,29.8480108,121.6080998,,,
成都市中级人民法院,四川省,成都市,,30.6812204,104.0344329,,,
人民法院,,,,31.7982963,121.6639468,,,
县人民法院,,,,30.5328511,120.923884,,,
辽宁省营口市中级人民法院,辽宁省,营口市,,40.6232105,122.2107157,,,
市法院,,,,30.5040439,120.6817741,,,
江西省南昌市中级人民法院,江西省,南昌市,,28.7060518,115.8554328,,,
宝坻法院,,,,39.6892582,117.2807071,,,
法院,,,,36.5628586,116.2309554,,,
汉沽法院,,,,39.2401624,117.7757477,,,
